{"crs_nota":"EPSG:4326","features":[{"geometry":{"type":"Point","coordinates":[-77.079163574255531,-12.06675087082837,0.0]},"id":"BB-pt-bbn23","properties":{"capa":"bebederos","detalle":"Tipo nuevo","feature_id":"BB-pt-bbn23","foto":"","lugar":"Jardín frontal de la Facultad de Artes Nuevas - al lado mesas campestres","nombre":"PT_bbn23","subtipo":"nuevo"},"type":"Feature"},{"geometry":{"type":"Point","coordinates":[-77.0797559,-12.0674511,0.0]},"id":"BB-pt-bbn24","properties":{"capa":"bebederos","detalle":"Tipo nuevo","feature_id":"BB-pt-bbn24","foto":"","lugar":"Bebedero nuevo ubicado entre la entraba principal de EEGGLL por Tontódromo","nombre":"PT_bbn24","subtipo":"nuevo"},"type":"Feature"},{"geometry":{"type":"Point","coordinates":[-77.080815922641307,-12.06903100606733,0.0]},"id":"BB-pt-bbn33","properties":{"capa":"bebederos","detalle":"Tipo nuevo","feature_id":"BB-pt-bbn33","foto":"","lugar":"Bebedero Nuevo en la pileta - Pabellón Z","nombre":"PT_bbn33","subtipo":"nuevo"},"type":"Feature"},{"geometry":{"type":"Point","coordinates":[-77.081157835975702,-12.07032828738312,0.0]},"id":"BB-pt-bbn39","properties":{"capa":"bebederos","detalle":"Tipo nuevo","feature_id":"BB-pt-bbn39","foto":"","lugar":"Piso 1 Comedor central al lado del panel de nutrición - Ingreso 2","nombre":"PT_bbn39","subtipo":"nuevo"},"type":"Feature"},{"geometry":{"type":"Point","coordinates":[-77.081321691190226,-12.070301896422951,0.0]},"id":"BB-pt-bbn40p2","properties":{"capa":"bebederos","detalle":"Tipo nuevo","feature_id":"BB-pt-bbn40p2","foto":"","lugar":"piso 2 de Central - Al lado de las escaleras al norte","nombre":"PT_bbn40p2","subtipo":"nuevo"},"type":"Feature"},{"geometry":{"type":"Point","coordinates":[-77.079829445280822,-12.07063074869953,0.0]},"id":"BB-pt-bbn45","properties":{"capa":"bebederos","detalle":"Tipo nuevo","feature_id":"BB-pt-bbn45","foto":"","lugar":"Bebedero frente a EEGGCC y frente a Sociales","nombre":"PT_bbn45","subtipo":"nuevo"},"type":"Feature"},{"geometry":{"type":"Point","coordinates":[-77.079400965927803,-12.07278473761186,0.0]},"id":"BB-pt-bbn54p1","properties":{"capa":"bebederos","detalle":"Tipo nuevo","feature_id":"BB-pt-bbn54p1","foto":"","lugar":"Bebedero Nuevo - piso 1","nombre":"PT_bbn54p1","subtipo":"nuevo"},"type":"Feature"},{"geometry":{"type":"Point","coordinates":[-77.0804864,-12.0658056,0.0]},"id":"BB-pt-bbn6","properties":{"capa":"bebederos","detalle":"Tipo nuevo","feature_id":"BB-pt-bbn6","foto":"","lugar":"Entre las losas Azules , Cnacha de Rugby y la canchas de paleta Frontón","nombre":"PT_bbn6","subtipo":"nuevo"},"type":"Feature"},{"geometry":{"type":"Point","coordinates":[-77.078331289481426,-12.067576775679489,0.0]},"id":"BB-pt-bb1","properties":{"capa":"bebederos","detalle":"Tipo fuente","feature_id":"BB-pt-bb1","foto":"","lugar":"Maestranza - Salida del baño","nombre":"PT_bb1","subtipo":"fuente"},"type":"Feature"},{"geometry":{"type":"Point","coordinates":[-77.080372955756573,-12.06639014905771,0.0]},"id":"BB-pt-bb10","properties":{"capa":"bebederos","detalle":"Tipo fuente","feature_id":"BB-pt-bb10","foto":"","lugar":"Polideportivo - Entre puerta de Danza aeróbicos e Ingreso Oeste","nombre":"PT_bb10","subtipo":"fuente"},"type":"Feature"},{"geometry":{"type":"Point","coordinates":[-77.080389741302909,-12.06658384423816,0.0]},"id":"BB-pt-bb11","properties":{"capa":"bebederos","detalle":"Tipo fuente","feature_id":"BB-pt-bb11","foto":"","lugar":"Polideportivo - Entre puerta de Danza aeróbicos e Ingreso Oeste","nombre":"PT_bb11","subtipo":"fuente"},"type":"Feature"},{"geometry":{"type":"Point","coordinates":[-77.080372823236587,-12.06658308536295,0.0]},"id":"BB-pt-bb12","properties":{"capa":"bebederos","detalle":"Tipo fuente","feature_id":"BB-pt-bb12","foto":"","lugar":"Polideportivo - Entre puerta de Danza aeróbicos e Ingreso Oeste","nombre":"PT_bb12","subtipo":"fuente"},"type":"Feature"},{"geometry":{"type":"Point","coordinates":[-77.080247823892805,-12.06700167589886,0.0]},"id":"BB-pt-bb13","properties":{"capa":"bebederos","detalle":"Tipo fuente","feature_id":"BB-pt-bb13","foto":"","lugar":"Polideportivo - Entre puerta de Tenis de Mesa y  Puerta 2","nombre":"PT_bb13","subtipo":"fuente"},"type":"Feature"},{"geometry":{"type":"Point","coordinates":[-77.080240701724094,-12.067001778337699,0.0]},"id":"BB-pt-bb14","properties":{"capa":"bebederos","detalle":"Tipo fuente","feature_id":"BB-pt-bb14","foto":"","lugar":"Polideportivo - Entre puerta de Tenis de Mesa y  Puerta 2","nombre":"PT_bb14","subtipo":"fuente"},"type":"Feature"},{"geometry":{"type":"Point","coordinates":[-77.080233669364873,-12.06700127246107,0.0]},"id":"BB-pt-bb15","properties":{"capa":"bebederos","detalle":"Tipo fuente","feature_id":"BB-pt-bb15","foto":"","lugar":"Polideportivo - Entre puerta de Tenis de Mesa y  Puerta 2","nombre":"PT_bb15","subtipo":"fuente"},"type":"Feature"},{"geometry":{"type":"Point","coordinates":[-77.079993077651451,-12.0669192740457,0.0]},"id":"BB-pt-bb16","properties":{"capa":"bebederos","detalle":"Tipo fuente","feature_id":"BB-pt-bb16","foto":"","lugar":"Polideportivo - Ingreso 3","nombre":"PT_bb16","subtipo":"fuente"},"type":"Feature"},{"geometry":{"type":"Point","coordinates":[-77.079984428129592,-12.06691957936814,0.0]},"id":"BB-pt-bb17","properties":{"capa":"bebederos","detalle":"Tipo fuente","feature_id":"BB-pt-bb17","foto":"","lugar":"Polideportivo - Ingreso 3","nombre":"PT_bb17","subtipo":"fuente"},"type":"Feature"},{"geometry":{"type":"Point","coordinates":[-77.079975534073412,-12.06691930448109,0.0]},"id":"BB-pt-bb18","properties":{"capa":"bebederos","detalle":"Tipo fuente","feature_id":"BB-pt-bb18","foto":"","lugar":"Polideportivo - Ingreso 3","nombre":"PT_bb18","subtipo":"fuente"},"type":"Feature"},{"geometry":{"type":"Point","coordinates":[-77.079901920804588,-12.066673672895821,0.0]},"id":"BB-pt-bb19","properties":{"capa":"bebederos","detalle":"Tipo fuente","feature_id":"BB-pt-bb19","foto":"","lugar":"Polideportivo - Entre Puerta Artes Mariciales  y Puerta  Oeste","nombre":"PT_bb19","subtipo":"fuente"},"type":"Feature"},{"geometry":{"type":"Point","coordinates":[-77.0784419,-12.0653638,0.0]},"id":"BB-pt-bb2","properties":{"capa":"bebederos","detalle":"Tipo fuente","feature_id":"BB-pt-bb2","foto":"","lugar":"Bebedero entre los salones en el pasaje principal","nombre":"PT_bb2","subtipo":"fuente"},"type":"Feature"},{"geometry":{"type":"Point","coordinates":[-77.079913,-12.0666747,0.0]},"id":"BB-pt-bb20","properties":{"capa":"bebederos","detalle":"Tipo fuente","feature_id":"BB-pt-bb20","foto":"","lugar":"Polideportivo - Entre Puerta Artes Mariciales  y Puerta  Oeste","nombre":"PT_bb20","subtipo":"fuente"},"type":"Feature"},{"geometry":{"type":"Point","coordinates":[-77.079897783457895,-12.066372141366941,0.0]},"id":"BB-pt-bb21","properties":{"capa":"bebederos","detalle":"Tipo fuente","feature_id":"BB-pt-bb21","foto":"","lugar":"Polideportivo - Entre Puerta Artes Mariciales  y Puerta  4","nombre":"PT_bb21","subtipo":"fuente"},"type":"Feature"},{"geometry":{"type":"Point","coordinates":[-77.079917627213419,-12.06637451894342,0.0]},"id":"BB-pt-bb22","properties":{"capa":"bebederos","detalle":"Tipo fuente","feature_id":"BB-pt-bb22","foto":"","lugar":"Polideportivo - Entre Puerta Artes Mariciales  y Puerta  4","nombre":"PT_bb22","subtipo":"fuente"},"type":"Feature"},{"geometry":{"type":"Point","coordinates":[-77.080434100355845,-12.06777288464316,0.0]},"id":"BB-pt-bb25v1","properties":{"capa":"bebederos","detalle":"Tipo fuente","feature_id":"BB-pt-bb25v1","foto":"","lugar":"EEGGLL - Bebedero Piso 1 - Baño Varones","nombre":"PT_bb25v1","subtipo":"fuente"},"type":"Feature"},{"geometry":{"type":"Point","coordinates":[-77.080433432178793,-12.06734051152695,0.0]},"id":"BB-pt-bb26m1","properties":{"capa":"bebederos","detalle":"Tipo fuente","feature_id":"BB-pt-bb26m1","foto":"","lugar":"EEGGLL - Bebedero Piso 1 - Baño Mujeres","nombre":"PT_bb26m1","subtipo":"fuente"},"type":"Feature"},{"geometry":{"type":"Point","coordinates":[-77.080402457213751,-12.06734467259249,0.0]},"id":"BB-pt-bb27p2","properties":{"capa":"bebederos","detalle":"Tipo fuente","feature_id":"BB-pt-bb27p2","foto":"","lugar":"EEGGLL - Bebedero Piso 2","nombre":"PT_bb27p2","subtipo":"fuente"},"type":"Feature"},{"geometry":{"type":"Point","coordinates":[-77.081155654919016,-12.06979331418662,0.0]},"id":"BB-pt-bb36","properties":{"capa":"bebederos","detalle":"Tipo fuente","feature_id":"BB-pt-bb36","foto":"","lugar":"Pasadizo entre Facultad de Letras y Humanidades y Facultad de Derecho","nombre":"PT_bb36","subtipo":"fuente"},"type":"Feature"},{"geometry":{"type":"Point","coordinates":[-77.0808464,-12.0698435,0.0]},"id":"BB-pt-bb37","properties":{"capa":"bebederos","detalle":"Tipo fuente","feature_id":"BB-pt-bb37","foto":"","lugar":"Facultad de Derecho - Piso 1 - Al lado del ascesor de Personas con Discapacidad","nombre":"PT_bb37","subtipo":"fuente"},"type":"Feature"},{"geometry":{"type":"Point","coordinates":[-77.078894878143956,-12.07026771171277,0.0]},"id":"BB-pt-bb42","properties":{"capa":"bebederos","detalle":"Tipo fuente","feature_id":"BB-pt-bb42","foto":"","lugar":"Facultad de Artes Antiguas","nombre":"PT_bb42","subtipo":"fuente"},"type":"Feature"},{"geometry":{"type":"Point","coordinates":[-77.079578101566284,-12.07127182594118,0.0]},"id":"BB-pt-bb46p1","properties":{"capa":"bebederos","detalle":"Tipo fuente","feature_id":"BB-pt-bb46p1","foto":"","lugar":"EEGGCC - Piso 1","nombre":"PT_bb46p1","subtipo":"fuente"},"type":"Feature"},{"geometry":{"type":"Point","coordinates":[-77.079556649898052,-12.071231615569429,0.0]},"id":"BB-pt-bb47p2","properties":{"capa":"bebederos","detalle":"Tipo fuente","feature_id":"BB-pt-bb47p2","foto":"","lugar":"EEGGCC - Piso 2","nombre":"PT_bb47p2","subtipo":"fuente"},"type":"Feature"},{"geometry":{"type":"Point","coordinates":[-77.079526475397131,-12.07116390811631,0.0]},"id":"BB-pt-bb48p3","properties":{"capa":"bebederos","detalle":"Tipo fuente","feature_id":"BB-pt-bb48p3","foto":"","lugar":"EEGGCC - Piso 3","nombre":"PT_bb48p3","subtipo":"fuente"},"type":"Feature"},{"geometry":{"type":"Point","coordinates":[-77.0802827,-12.0719774,0.0]},"id":"BB-pt-bb50s1","properties":{"capa":"bebederos","detalle":"Tipo fuente","feature_id":"BB-pt-bb50s1","foto":"","lugar":"CIA - Sotano 1","nombre":"PT_bb50s1","subtipo":"fuente"},"type":"Feature"},{"geometry":{"type":"Point","coordinates":[-77.0802789,-12.0719812,0.0]},"id":"BB-pt-bb51p2","properties":{"capa":"bebederos","detalle":"Tipo fuente","feature_id":"BB-pt-bb51p2","foto":"","lugar":"CIA - Piso 2","nombre":"PT_bb51p2","subtipo":"fuente"},"type":"Feature"},{"geometry":{"type":"Point","coordinates":[-77.0802839,-12.0720012,0.0]},"id":"BB-pt-bb52p3","properties":{"capa":"bebederos","detalle":"Tipo fuente","feature_id":"BB-pt-bb52p3","foto":"","lugar":"CIA - Piso 3","nombre":"PT_bb52p3","subtipo":"fuente"},"type":"Feature"},{"geometry":{"type":"Point","coordinates":[-77.080281195031986,-12.071990661970011,0.0]},"id":"BB-pt-bb53p4","properties":{"capa":"bebederos","detalle":"Tipo fuente","feature_id":"BB-pt-bb53p4","foto":"","lugar":"CIA - Piso 4","nombre":"PT_bb53p4","subtipo":"fuente"},"type":"Feature"},{"geometry":{"type":"Point","coordinates":[-77.079264642203341,-12.072780900372051,0.0]},"id":"BB-pt-bb55p2","properties":{"capa":"bebederos","detalle":"Tipo fuente","feature_id":"BB-pt-bb55p2","foto":"","lugar":"Bebedero piso 2","nombre":"PT_bb55p2","subtipo":"fuente"},"type":"Feature"},{"geometry":{"type":"Point","coordinates":[-77.079260614722401,-12.0727697584858,0.0]},"id":"BB-pt-bb56p3","properties":{"capa":"bebederos","detalle":"Tipo fuente","feature_id":"BB-pt-bb56p3","foto":"","lugar":"Bebedero piso 3","nombre":"PT_bb56p3","subtipo":"fuente"},"type":"Feature"},{"geometry":{"type":"Point","coordinates":[-77.079255997839908,-12.072762324130739,0.0]},"id":"BB-pt-bb57p4","properties":{"capa":"bebederos","detalle":"Tipo fuente","feature_id":"BB-pt-bb57p4","foto":"","lugar":"Bebedero piso 4","nombre":"PT_bb57p4","subtipo":"fuente"},"type":"Feature"},{"geometry":{"type":"Point","coordinates":[-77.079253082724421,-12.07275530519491,0.0]},"id":"BB-pt-bb58p5","properties":{"capa":"bebederos","detalle":"Tipo fuente","feature_id":"BB-pt-bb58p5","foto":"","lugar":"Bebedero piso 5","nombre":"PT_bb58p5","subtipo":"fuente"},"type":"Feature"},{"geometry":{"type":"Point","coordinates":[-77.079250482711004,-12.07274869981887,0.0]},"id":"BB-pt-bb59p6","properties":{"capa":"bebederos","detalle":"Tipo fuente","feature_id":"BB-pt-bb59p6","foto":"","lugar":"Bebedero piso 6","nombre":"PT_bb59p6","subtipo":"fuente"},"type":"Feature"},{"geometry":{"type":"Point","coordinates":[-77.079246226853442,-12.07273850334078,0.0]},"id":"BB-pt-bb60p7","properties":{"capa":"bebederos","detalle":"Tipo fuente","feature_id":"BB-pt-bb60p7","foto":"","lugar":"Bebedero piso 7","nombre":"PT_bb60p7","subtipo":"fuente"},"type":"Feature"},{"geometry":{"type":"Point","coordinates":[-77.0821188,-12.0728367,0.0]},"id":"BB-pt-bb65","properties":{"capa":"bebederos","detalle":"Tipo fuente","feature_id":"BB-pt-bb65","foto":"","lugar":"Pabelón V - Jardín de Ingeniería Electrónica","nombre":"PT_bb65","subtipo":"fuente"},"type":"Feature"},{"geometry":{"type":"Point","coordinates":[-77.080682176085915,-12.06789697244462,71.09]},"id":"BB-pt-bb66","properties":{"capa":"bebederos","detalle":"Tipo fuente","feature_id":"BB-pt-bb66","foto":"","lugar":"","nombre":"PT_bb66","subtipo":"fuente"},"type":"Feature"},{"geometry":{"type":"Point","coordinates":[-77.0802681,-12.0706564,71.49]},"id":"BB-pt-bb67","properties":{"capa":"bebederos","detalle":"Tipo fuente","feature_id":"BB-pt-bb67","foto":"","lugar":"","nombre":"PT_bb67","subtipo":"fuente"},"type":"Feature"},{"geometry":{"type":"Point","coordinates":[-77.079640111519581,-12.066012100856559,0.0]},"id":"BB-pt-bb7","properties":{"capa":"bebederos","detalle":"Tipo fuente","feature_id":"BB-pt-bb7","foto":"","lugar":"Bebedero dentro del Gimnasio - Piso 1","nombre":"PT_bb7","subtipo":"fuente"},"type":"Feature"},{"geometry":{"type":"Point","coordinates":[-77.080393412737763,-12.06638840824048,0.0]},"id":"BB-pt-bb9","properties":{"capa":"bebederos","detalle":"Tipo fuente","feature_id":"BB-pt-bb9","foto":"","lugar":"Polideportivo - Entre puerta de Danza aeróbicos e Ingreso 1","nombre":"PT_bb9","subtipo":"fuente"},"type":"Feature"},{"geometry":{"type":"Point","coordinates":[-77.080815916385234,-12.069024072516161,0.0]},"id":"BB-pt-bb32","properties":{"capa":"bebederos","detalle":"Tipo fuente","feature_id":"BB-pt-bb32","foto":"","lugar":"Remopdelación bebedero en la pileta - Pabellón Z","nombre":"PT_bb32","subtipo":"fuente"},"type":"Feature"},{"geometry":{"type":"Point","coordinates":[-77.080396504949391,-12.06775997416409,0.0]},"id":"BB-pt-bb28p3","properties":{"capa":"bebederos","detalle":"Tipo llenador","feature_id":"BB-pt-bb28p3","foto":"","lugar":"EEGGLL - Bebedero Piso 3","nombre":"PT_bb28p3","subtipo":"llenador"},"type":"Feature"},{"geometry":{"type":"Point","coordinates":[-77.07997534317434,-12.067436655681631,0.0]},"id":"BB-pt-bb29p4","properties":{"capa":"bebederos","detalle":"Tipo llenador","feature_id":"BB-pt-bb29p4","foto":"","lugar":"EEGGLL - Bebedero Piso 4","nombre":"PT_bb29p4","subtipo":"llenador"},"type":"Feature"},{"geometry":{"type":"Point","coordinates":[-77.078400852676367,-12.06489127275659,0.0]},"id":"BB-pt-bb3","properties":{"capa":"bebederos","detalle":"Tipo llenador","feature_id":"BB-pt-bb3","foto":"","lugar":"Bebedero ubicado en la zona de descando de los Puffs","nombre":"PT_bb3","subtipo":"llenador"},"type":"Feature"},{"geometry":{"type":"Point","coordinates":[-77.079283970152261,-12.06780002450218,0.0]},"id":"BB-pt-bb30","properties":{"capa":"bebederos","detalle":"Tipo llenador","feature_id":"BB-pt-bb30","foto":"","lugar":"Ubicado frente a el Centro Federado de la Facultad de Educación","nombre":"PT_bb30","subtipo":"llenador"},"type":"Feature"},{"geometry":{"type":"Point","coordinates":[-77.078714715265292,-12.06850766118429,0.0]},"id":"BB-pt-bb34","properties":{"capa":"bebederos","detalle":"Tipo llenador","feature_id":"BB-pt-bb34","foto":"","lugar":"Piso 1 de McGregror","nombre":"PT_bb34","subtipo":"llenador"},"type":"Feature"},{"geometry":{"type":"Point","coordinates":[-77.078708892695616,-12.06852907838714,0.0]},"id":"BB-pt-bb35","properties":{"capa":"bebederos","detalle":"Tipo llenador","feature_id":"BB-pt-bb35","foto":"","lugar":"Piso 1 de McGregror","nombre":"PT_bb35","subtipo":"llenador"},"type":"Feature"},{"geometry":{"type":"Point","coordinates":[-77.080907968324141,-12.070036741880349,0.0]},"id":"BB-pt-bb38","properties":{"capa":"bebederos","detalle":"Tipo llenador","feature_id":"BB-pt-bb38","foto":"","lugar":"Facultad de Derecho - Piso 1 - Al lado de la rotonda de derecho y frente a la oficina de entrga de evaluaciones","nombre":"PT_bb38","subtipo":"llenador"},"type":"Feature"},{"geometry":{"type":"Point","coordinates":[-77.081690351338878,-12.070812004759899,0.0]},"id":"BB-pt-bb41","properties":{"capa":"bebederos","detalle":"Tipo llenador","feature_id":"BB-pt-bb41","foto":"","lugar":"Facultad de Gastronomía - Piso 1","nombre":"PT_bb41","subtipo":"llenador"},"type":"Feature"},{"geometry":{"type":"Point","coordinates":[-77.0790372,-12.072823,0.0]},"id":"BB-pt-bb61","properties":{"capa":"bebederos","detalle":"Tipo llenador","feature_id":"BB-pt-bb61","foto":"","lugar":"Cepre PUCP -  Baño Varones","nombre":"PT_bb61","subtipo":"llenador"},"type":"Feature"},{"geometry":{"type":"Point","coordinates":[-77.079031698865833,-12.072773423162751,0.0]},"id":"BB-pt-bb62","properties":{"capa":"bebederos","detalle":"Tipo llenador","feature_id":"BB-pt-bb62","foto":"","lugar":"Cepre PUCP -  Baño Muejeres","nombre":"PT_bb62","subtipo":"llenador"},"type":"Feature"},{"geometry":{"type":"Point","coordinates":[-77.079255842540917,-12.06593958568306,0.0]},"id":"BB-pt-bbr4","properties":{"capa":"bebederos","detalle":"Tipo deterioro","feature_id":"BB-pt-bbr4","foto":"","lugar":"Frente a la Cancha de futbol","nombre":"PT_bbr4","subtipo":"deterioro"},"type":"Feature"},{"geometry":{"type":"Point","coordinates":[-77.079323898593344,-12.07139881146527,0.0]},"id":"BB-pt-bbr44","properties":{"capa":"bebederos","detalle":"Tipo deterioro","feature_id":"BB-pt-bbr44","foto":"","lugar":"Bebedero entre EEGGCC y EL Puesto","nombre":"PT_bbr44","subtipo":"deterioro"},"type":"Feature"},{"geometry":{"type":"Point","coordinates":[-77.081803649328137,-12.072155050853951,0.0]},"id":"BB-pt-bbr64","properties":{"capa":"bebederos","detalle":"Tipo deterioro","feature_id":"BB-pt-bbr64","foto":"","lugar":"Al lado de la Cancha de Minas","nombre":"PT_bbr64","subtipo":"deterioro"},"type":"Feature"},{"geometry":{"type":"Point","coordinates":[-77.07967169402562,-12.066140979085031,0.0]},"id":"BB-pt-bbr8","properties":{"capa":"bebederos","detalle":"Tipo deterioro","feature_id":"BB-pt-bbr8","foto":"","lugar":"Bebedero Fuera del Gimnasio","nombre":"PT_bbr8","subtipo":"deterioro"},"type":"Feature"},{"geometry":{"type":"Point","coordinates":[-77.0793714,-12.0662097,0.0]},"id":"BB-pt-bbr5","properties":{"capa":"bebederos","detalle":"Tipo deterioro","feature_id":"BB-pt-bbr5","foto":"","lugar":"Al lado de l Kiosco de Deportes","nombre":"PT_bbr5","subtipo":"deterioro"},"type":"Feature"},{"geometry":{"type":"Point","coordinates":[-77.0804487,-12.0710296,0.0]},"id":"BB-pt-bbr49","properties":{"capa":"bebederos","detalle":"Tipo deterioro","feature_id":"BB-pt-bbr49","foto":"","lugar":"Plazuela entre Facultad de Arquitectura y Facultad de Sociales","nombre":"PT_bbr49","subtipo":"deterioro"},"type":"Feature"},{"geometry":{"type":"Point","coordinates":[-77.079780326700401,-12.068265895406549,0.0]},"id":"BB-pt-bbr31","properties":{"capa":"bebederos","detalle":"Tipo deterioro","feature_id":"BB-pt-bbr31","foto":"","lugar":"Patio de Comedor de Letras","nombre":"PT_bbr31","subtipo":"deterioro"},"type":"Feature"},{"geometry":{"type":"Point","coordinates":[-77.081365127258621,-12.07192097018784,0.0]},"id":"BB-pt-bbr63","properties":{"capa":"bebederos","detalle":"Tipo baja","feature_id":"BB-pt-bbr63","foto":"","lugar":"Facultad de Minas - 1er piso","nombre":"PT_bbr63","subtipo":"baja"},"type":"Feature"},{"geometry":{"type":"Point","coordinates":[-77.079532172807319,-12.070440987986521,0.0]},"id":"BB-pt-bbr43","properties":{"capa":"bebederos","detalle":"Tipo baja","feature_id":"BB-pt-bbr43","foto":"","lugar":"Comedor de Arte Antiguo","nombre":"PT_bbr43","subtipo":"baja"},"type":"Feature"}],"name":"bebederos","type":"FeatureCollection"}