{"crs_nota":"EPSG:4326","features":[{"geometry":{"type":"Point","coordinates":[-77.0803820,-12.0693860]},"id":"CF-0001","properties":{"capa":"cafetos","detalle":"Cafeto · Coffea arabica","feature_id":"CF-0001","foto":"","lugar":"Biblioteca Central","nombre":"Cafeto","subtipo":""},"type":"Feature"},{"geometry":{"type":"Point","coordinates":[-77.0803870,-12.0694030]},"id":"CF-0002","properties":{"capa":"cafetos","detalle":"Cafeto · Coffea arabica","feature_id":"CF-0002","foto":"","lugar":"Biblioteca Central","nombre":"Cafeto","subtipo":""},"type":"Feature"},{"geometry":{"type":"Point","coordinates":[-77.0803640,-12.0694030]},"id":"CF-0003","properties":{"capa":"cafetos","detalle":"Cafeto · Coffea arabica","feature_id":"CF-0003","foto":"","lugar":"Biblioteca Central","nombre":"Cafeto","subtipo":""},"type":"Feature"},{"geometry":{"type":"Point","coordinates":[-77.0803430,-12.0693850]},"id":"CF-0004","properties":{"capa":"cafetos","detalle":"Cafeto · Coffea arabica","feature_id":"CF-0004","foto":"","lugar":"Biblioteca Central","nombre":"Cafeto","subtipo":""},"type":"Feature"},{"geometry":{"type":"Point","coordinates":[-77.0803390,-12.0693800]},"id":"CF-0005","properties":{"capa":"cafetos","detalle":"Cafeto · Coffea arabica","feature_id":"CF-0005","foto":"","lugar":"Biblioteca Central","nombre":"Cafeto","subtipo":""},"type":"Feature"},{"geometry":{"type":"Point","coordinates":[-77.0802180,-12.0693250]},"id":"CF-0006","properties":{"capa":"cafetos","detalle":"Cafeto · Coffea arabica","feature_id":"CF-0006","foto":"","lugar":"Biblioteca Central","nombre":"Cafeto","subtipo":""},"type":"Feature"},{"geometry":{"type":"Point","coordinates":[-77.0802110,-12.0693200]},"id":"CF-0007","properties":{"capa":"cafetos","detalle":"Cafeto · Coffea arabica","feature_id":"CF-0007","foto":"","lugar":"Biblioteca Central","nombre":"Cafeto","subtipo":""},"type":"Feature"},{"geometry":{"type":"Point","coordinates":[-77.0802050,-12.0693160]},"id":"CF-0008","properties":{"capa":"cafetos","detalle":"Cafeto · Coffea arabica","feature_id":"CF-0008","foto":"","lugar":"Biblioteca Central","nombre":"Cafeto","subtipo":""},"type":"Feature"},{"geometry":{"type":"Point","coordinates":[-77.0801810,-12.0693150]},"id":"CF-0009","properties":{"capa":"cafetos","detalle":"Cafeto · Coffea arabica","feature_id":"CF-0009","foto":"","lugar":"Biblioteca Central","nombre":"Cafeto","subtipo":""},"type":"Feature"},{"geometry":{"type":"Point","coordinates":[-77.0801550,-12.0693270]},"id":"CF-0010","properties":{"capa":"cafetos","detalle":"Cafeto · Coffea arabica","feature_id":"CF-0010","foto":"","lugar":"Biblioteca Central","nombre":"Cafeto","subtipo":""},"type":"Feature"},{"geometry":{"type":"Point","coordinates":[-77.0801550,-12.0693200]},"id":"CF-0011","properties":{"capa":"cafetos","detalle":"Cafeto · Coffea arabica","feature_id":"CF-0011","foto":"","lugar":"Biblioteca Central","nombre":"Cafeto","subtipo":""},"type":"Feature"},{"geometry":{"type":"Point","coordinates":[-77.0801000,-12.0693670]},"id":"CF-0012","properties":{"capa":"cafetos","detalle":"Cafeto · Coffea arabica","feature_id":"CF-0012","foto":"","lugar":"Biblioteca Central","nombre":"Cafeto","subtipo":""},"type":"Feature"},{"geometry":{"type":"Point","coordinates":[-77.0801290,-12.0693560]},"id":"CF-0013","properties":{"capa":"cafetos","detalle":"Cafeto · Coffea arabica","feature_id":"CF-0013","foto":"","lugar":"Biblioteca Central","nombre":"Cafeto","subtipo":""},"type":"Feature"},{"geometry":{"type":"Point","coordinates":[-77.0801230,-12.0693550]},"id":"CF-0014","properties":{"capa":"cafetos","detalle":"Cafeto · Coffea arabica","feature_id":"CF-0014","foto":"","lugar":"Biblioteca Central","nombre":"Cafeto","subtipo":""},"type":"Feature"},{"geometry":{"type":"Point","coordinates":[-77.0801230,-12.0693540]},"id":"CF-0015","properties":{"capa":"cafetos","detalle":"Cafeto · Coffea arabica","feature_id":"CF-0015","foto":"","lugar":"Biblioteca Central","nombre":"Cafeto","subtipo":""},"type":"Feature"},{"geometry":{"type":"Point","coordinates":[-77.0801410,-12.0693610]},"id":"CF-0016","properties":{"capa":"cafetos","detalle":"Cafeto · Coffea arabica","feature_id":"CF-0016","foto":"","lugar":"Biblioteca Central","nombre":"Cafeto","subtipo":""},"type":"Feature"},{"geometry":{"type":"Point","coordinates":[-77.0801110,-12.0692930]},"id":"CF-0017","properties":{"capa":"cafetos","detalle":"Cafeto · Coffea arabica","feature_id":"CF-0017","foto":"","lugar":"Biblioteca Central","nombre":"Cafeto","subtipo":""},"type":"Feature"},{"geometry":{"type":"Point","coordinates":[-77.0800920,-12.0693070]},"id":"CF-0018","properties":{"capa":"cafetos","detalle":"Cafeto · Coffea arabica","feature_id":"CF-0018","foto":"","lugar":"Biblioteca Central","nombre":"Cafeto","subtipo":""},"type":"Feature"},{"geometry":{"type":"Point","coordinates":[-77.0800860,-12.0693130]},"id":"CF-0019","properties":{"capa":"cafetos","detalle":"Cafeto · Coffea arabica","feature_id":"CF-0019","foto":"","lugar":"Biblioteca Central","nombre":"Cafeto","subtipo":""},"type":"Feature"},{"geometry":{"type":"Point","coordinates":[-77.0800690,-12.0693090]},"id":"CF-0020","properties":{"capa":"cafetos","detalle":"Cafeto · Coffea arabica","feature_id":"CF-0020","foto":"","lugar":"Biblioteca Central","nombre":"Cafeto","subtipo":""},"type":"Feature"},{"geometry":{"type":"Point","coordinates":[-77.0800660,-12.0693060]},"id":"CF-0021","properties":{"capa":"cafetos","detalle":"Cafeto · Coffea arabica","feature_id":"CF-0021","foto":"","lugar":"Biblioteca Central","nombre":"Cafeto","subtipo":""},"type":"Feature"},{"geometry":{"type":"Point","coordinates":[-77.0800540,-12.0692970]},"id":"CF-0022","properties":{"capa":"cafetos","detalle":"Cafeto · Coffea arabica","feature_id":"CF-0022","foto":"","lugar":"Biblioteca Central","nombre":"Cafeto","subtipo":""},"type":"Feature"},{"geometry":{"type":"Point","coordinates":[-77.0800320,-12.0692890]},"id":"CF-0023","properties":{"capa":"cafetos","detalle":"Cafeto · Coffea arabica","feature_id":"CF-0023","foto":"","lugar":"Biblioteca Central","nombre":"Cafeto","subtipo":""},"type":"Feature"},{"geometry":{"type":"Point","coordinates":[-77.0808250,-12.0673880]},"id":"CF-0024","properties":{"capa":"cafetos","detalle":"Cafeto · Coffea arabica","feature_id":"CF-0024","foto":"","lugar":"Arqueología","nombre":"Cafeto","subtipo":""},"type":"Feature"},{"geometry":{"type":"Point","coordinates":[-77.0808310,-12.0673380]},"id":"CF-0025","properties":{"capa":"cafetos","detalle":"Cafeto · Coffea arabica","feature_id":"CF-0025","foto":"","lugar":"Arqueología","nombre":"Cafeto","subtipo":""},"type":"Feature"},{"geometry":{"type":"Point","coordinates":[-77.0808370,-12.0673440]},"id":"CF-0026","properties":{"capa":"cafetos","detalle":"Cafeto · Coffea arabica","feature_id":"CF-0026","foto":"","lugar":"Arqueología","nombre":"Cafeto","subtipo":""},"type":"Feature"},{"geometry":{"type":"Point","coordinates":[-77.0808390,-12.0673460]},"id":"CF-0027","properties":{"capa":"cafetos","detalle":"Cafeto · Coffea arabica","feature_id":"CF-0027","foto":"","lugar":"Arqueología","nombre":"Cafeto","subtipo":""},"type":"Feature"},{"geometry":{"type":"Point","coordinates":[-77.0808550,-12.0673510]},"id":"CF-0028","properties":{"capa":"cafetos","detalle":"Cafeto · Coffea arabica","feature_id":"CF-0028","foto":"","lugar":"Arqueología","nombre":"Cafeto","subtipo":""},"type":"Feature"},{"geometry":{"type":"Point","coordinates":[-77.0808680,-12.0673450]},"id":"CF-0029","properties":{"capa":"cafetos","detalle":"Cafeto · Coffea arabica","feature_id":"CF-0029","foto":"","lugar":"Arqueología","nombre":"Cafeto","subtipo":""},"type":"Feature"},{"geometry":{"type":"Point","coordinates":[-77.0808710,-12.0673450]},"id":"CF-0030","properties":{"capa":"cafetos","detalle":"Cafeto · Coffea arabica","feature_id":"CF-0030","foto":"","lugar":"Arqueología","nombre":"Cafeto","subtipo":""},"type":"Feature"},{"geometry":{"type":"Point","coordinates":[-77.0808910,-12.0673440]},"id":"CF-0031","properties":{"capa":"cafetos","detalle":"Cafeto · Coffea arabica","feature_id":"CF-0031","foto":"","lugar":"Arqueología","nombre":"Cafeto","subtipo":""},"type":"Feature"},{"geometry":{"type":"Point","coordinates":[-77.0808980,-12.0673430]},"id":"CF-0032","properties":{"capa":"cafetos","detalle":"Cafeto · Coffea arabica","feature_id":"CF-0032","foto":"","lugar":"Arqueología","nombre":"Cafeto","subtipo":""},"type":"Feature"},{"geometry":{"type":"Point","coordinates":[-77.0809070,-12.0673420]},"id":"CF-0033","properties":{"capa":"cafetos","detalle":"Cafeto · Coffea arabica","feature_id":"CF-0033","foto":"","lugar":"Arqueología","nombre":"Cafeto","subtipo":""},"type":"Feature"},{"geometry":{"type":"Point","coordinates":[-77.0809130,-12.0673430]},"id":"CF-0034","properties":{"capa":"cafetos","detalle":"Cafeto · Coffea arabica","feature_id":"CF-0034","foto":"","lugar":"Arqueología","nombre":"Cafeto","subtipo":""},"type":"Feature"},{"geometry":{"type":"Point","coordinates":[-77.0809510,-12.0673370]},"id":"CF-0035","properties":{"capa":"cafetos","detalle":"Cafeto · Coffea arabica","feature_id":"CF-0035","foto":"","lugar":"Arqueología","nombre":"Cafeto","subtipo":""},"type":"Feature"},{"geometry":{"type":"Point","coordinates":[-77.0810160,-12.0673390]},"id":"CF-0036","properties":{"capa":"cafetos","detalle":"Cafeto · Coffea arabica","feature_id":"CF-0036","foto":"","lugar":"Arqueología","nombre":"Cafeto","subtipo":""},"type":"Feature"},{"geometry":{"type":"Point","coordinates":[-77.0810920,-12.0673380]},"id":"CF-0037","properties":{"capa":"cafetos","detalle":"Cafeto · Coffea arabica","feature_id":"CF-0037","foto":"","lugar":"Arqueología","nombre":"Cafeto","subtipo":""},"type":"Feature"},{"geometry":{"type":"Point","coordinates":[-77.0811050,-12.0673410]},"id":"CF-0038","properties":{"capa":"cafetos","detalle":"Cafeto · Coffea arabica","feature_id":"CF-0038","foto":"","lugar":"Arqueología","nombre":"Cafeto","subtipo":""},"type":"Feature"},{"geometry":{"type":"Point","coordinates":[-77.0811170,-12.0673410]},"id":"CF-0039","properties":{"capa":"cafetos","detalle":"Cafeto · Coffea arabica","feature_id":"CF-0039","foto":"","lugar":"Arqueología","nombre":"Cafeto","subtipo":""},"type":"Feature"},{"geometry":{"type":"Point","coordinates":[-77.0811330,-12.0673440]},"id":"CF-0040","properties":{"capa":"cafetos","detalle":"Cafeto · Coffea arabica","feature_id":"CF-0040","foto":"","lugar":"Arqueología","nombre":"Cafeto","subtipo":""},"type":"Feature"},{"geometry":{"type":"Point","coordinates":[-77.0811410,-12.0673500]},"id":"CF-0041","properties":{"capa":"cafetos","detalle":"Cafeto · Coffea arabica","feature_id":"CF-0041","foto":"","lugar":"Arqueología","nombre":"Cafeto","subtipo":""},"type":"Feature"},{"geometry":{"type":"Point","coordinates":[-77.0793180,-12.0658980]},"id":"CF-0042","properties":{"capa":"cafetos","detalle":"Cafeto · Coffea arabica","feature_id":"CF-0042","foto":"","lugar":"Deportes","nombre":"Cafeto","subtipo":""},"type":"Feature"},{"geometry":{"type":"Point","coordinates":[-77.0793020,-12.0658870]},"id":"CF-0043","properties":{"capa":"cafetos","detalle":"Cafeto · Coffea arabica","feature_id":"CF-0043","foto":"","lugar":"Deportes","nombre":"Cafeto","subtipo":""},"type":"Feature"},{"geometry":{"type":"Point","coordinates":[-77.0792950,-12.0658900]},"id":"CF-0044","properties":{"capa":"cafetos","detalle":"Cafeto · Coffea arabica","feature_id":"CF-0044","foto":"","lugar":"Deportes","nombre":"Cafeto","subtipo":""},"type":"Feature"},{"geometry":{"type":"Point","coordinates":[-77.0793790,-12.0658570]},"id":"CF-0045","properties":{"capa":"cafetos","detalle":"Cafeto · Coffea arabica","feature_id":"CF-0045","foto":"","lugar":"Deportes","nombre":"Cafeto","subtipo":""},"type":"Feature"},{"geometry":{"type":"Point","coordinates":[-77.0793210,-12.0659190]},"id":"CF-0046","properties":{"capa":"cafetos","detalle":"Cafeto · Coffea arabica","feature_id":"CF-0046","foto":"","lugar":"Deportes","nombre":"Cafeto","subtipo":""},"type":"Feature"},{"geometry":{"type":"Point","coordinates":[-77.0793030,-12.0659400]},"id":"CF-0047","properties":{"capa":"cafetos","detalle":"Cafeto · Coffea arabica","feature_id":"CF-0047","foto":"","lugar":"Deportes","nombre":"Cafeto","subtipo":""},"type":"Feature"},{"geometry":{"type":"Point","coordinates":[-77.0794000,-12.0659480]},"id":"CF-0048","properties":{"capa":"cafetos","detalle":"Cafeto · Coffea arabica","feature_id":"CF-0048","foto":"","lugar":"Deportes","nombre":"Cafeto","subtipo":""},"type":"Feature"},{"geometry":{"type":"Point","coordinates":[-77.0808100,-12.0732420]},"id":"CF-0049","properties":{"capa":"cafetos","detalle":"Cafeto · Coffea arabica","feature_id":"CF-0049","foto":"","lugar":"Apoyo al Sector Rural","nombre":"Cafeto","subtipo":""},"type":"Feature"},{"geometry":{"type":"Point","coordinates":[-77.0808020,-12.0732490]},"id":"CF-0050","properties":{"capa":"cafetos","detalle":"Cafeto · Coffea arabica","feature_id":"CF-0050","foto":"","lugar":"Apoyo al Sector Rural","nombre":"Cafeto","subtipo":""},"type":"Feature"},{"geometry":{"type":"Point","coordinates":[-77.0808010,-12.0732480]},"id":"CF-0051","properties":{"capa":"cafetos","detalle":"Cafeto · Coffea arabica","feature_id":"CF-0051","foto":"","lugar":"Apoyo al Sector Rural","nombre":"Cafeto","subtipo":""},"type":"Feature"},{"geometry":{"type":"Point","coordinates":[-77.0812580,-12.0731140]},"id":"CF-0052","properties":{"capa":"cafetos","detalle":"Cafeto · Coffea arabica","feature_id":"CF-0052","foto":"","lugar":"Apoyo al Sector Rural","nombre":"Cafeto","subtipo":""},"type":"Feature"},{"geometry":{"type":"Point","coordinates":[-77.0812560,-12.0731100]},"id":"CF-0053","properties":{"capa":"cafetos","detalle":"Cafeto · Coffea arabica","feature_id":"CF-0053","foto":"","lugar":"Apoyo al Sector Rural","nombre":"Cafeto","subtipo":""},"type":"Feature"}],"name":"cafetos","type":"FeatureCollection"}