{"crs_nota":"EPSG:4326","features":[{"geometry":{"type":"Point","coordinates":[-77.080801916938753,-12.066190782918735]},"id":"FA-0001","properties":{"capa":"fauna","detalle":"Avistamiento","feature_id":"FA-0001","foto":"","lugar":"","nombre":"Aves","subtipo":""},"type":"Feature"},{"geometry":{"type":"Point","coordinates":[-77.078641380909218,-12.065211999530218]},"id":"FA-0002","properties":{"capa":"fauna","detalle":"Avistamiento","feature_id":"FA-0002","foto":"","lugar":"","nombre":"Aves","subtipo":""},"type":"Feature"},{"geometry":{"type":"Point","coordinates":[-77.079648300499358,-12.072471155138395]},"id":"FA-0003","properties":{"capa":"fauna","detalle":"Avistamiento","feature_id":"FA-0003","foto":"","lugar":"","nombre":"Aves","subtipo":""},"type":"Feature"},{"geometry":{"type":"Point","coordinates":[-77.08021103391151,-12.072622006430107]},"id":"FA-0004","properties":{"capa":"fauna","detalle":"Avistamiento","feature_id":"FA-0004","foto":"","lugar":"","nombre":"Aves","subtipo":""},"type":"Feature"},{"geometry":{"type":"Point","coordinates":[-77.079432167075694,-12.072535616145153]},"id":"FA-0005","properties":{"capa":"fauna","detalle":"Avistamiento","feature_id":"FA-0005","foto":"","lugar":"","nombre":"Aves","subtipo":""},"type":"Feature"},{"geometry":{"type":"Point","coordinates":[-77.081449359566975,-12.070459552827804]},"id":"FA-0006","properties":{"capa":"fauna","detalle":"Avistamiento","feature_id":"FA-0006","foto":"","lugar":"","nombre":"Aves","subtipo":""},"type":"Feature"},{"geometry":{"type":"Point","coordinates":[-77.079107086921724,-12.068998136375773]},"id":"FA-0007","properties":{"capa":"fauna","detalle":"Avistamiento","feature_id":"FA-0007","foto":"","lugar":"","nombre":"Canes","subtipo":""},"type":"Feature"},{"geometry":{"type":"Point","coordinates":[-77.080907074493254,-12.070946990421065]},"id":"FA-0008","properties":{"capa":"fauna","detalle":"Avistamiento","feature_id":"FA-0008","foto":"","lugar":"","nombre":"Canes","subtipo":""},"type":"Feature"},{"geometry":{"type":"Point","coordinates":[-77.078925562526535,-12.068133163026447]},"id":"FA-0009","properties":{"capa":"fauna","detalle":"Avistamiento","feature_id":"FA-0009","foto":"","lugar":"","nombre":"Insectos","subtipo":""},"type":"Feature"},{"geometry":{"type":"Point","coordinates":[-77.080896206199199,-12.070930626143722]},"id":"FA-0010","properties":{"capa":"fauna","detalle":"Avistamiento","feature_id":"FA-0010","foto":"","lugar":"","nombre":"Insectos","subtipo":""},"type":"Feature"},{"geometry":{"type":"Point","coordinates":[-77.081154364673907,-12.07314003462243]},"id":"FA-0011","properties":{"capa":"fauna","detalle":"Avistamiento","feature_id":"FA-0011","foto":"","lugar":"","nombre":"Insectos","subtipo":""},"type":"Feature"},{"geometry":{"type":"Point","coordinates":[-77.080161412288803,-12.066501104169859]},"id":"FA-0012","properties":{"capa":"fauna","detalle":"Avistamiento","feature_id":"FA-0012","foto":"","lugar":"","nombre":"Gallinazos","subtipo":""},"type":"Feature"},{"geometry":{"type":"Point","coordinates":[-77.079378852691804,-12.068254880579707]},"id":"FA-0013","properties":{"capa":"fauna","detalle":"Avistamiento","feature_id":"FA-0013","foto":"","lugar":"","nombre":"Ardillas","subtipo":""},"type":"Feature"},{"geometry":{"type":"Point","coordinates":[-77.079319594984568,-12.069392417086718]},"id":"FA-0014","properties":{"capa":"fauna","detalle":"Avistamiento","feature_id":"FA-0014","foto":"","lugar":"","nombre":"Ardillas","subtipo":""},"type":"Feature"},{"geometry":{"type":"Point","coordinates":[-77.079513365040881,-12.070297237504892]},"id":"FA-0015","properties":{"capa":"fauna","detalle":"Avistamiento","feature_id":"FA-0015","foto":"","lugar":"","nombre":"Roedores","subtipo":""},"type":"Feature"},{"geometry":{"type":"Point","coordinates":[-77.081313214139797,-12.070526353365631]},"id":"FA-0016","properties":{"capa":"fauna","detalle":"Avistamiento","feature_id":"FA-0016","foto":"","lugar":"","nombre":"Roedores","subtipo":""},"type":"Feature"},{"geometry":{"type":"Point","coordinates":[-77.079461344662718,-12.068118000947967]},"id":"FA-0017","properties":{"capa":"fauna","detalle":"Avistamiento","feature_id":"FA-0017","foto":"","lugar":"","nombre":"Roedores","subtipo":""},"type":"Feature"},{"geometry":{"type":"Point","coordinates":[-77.079905789453605,-12.068330821651658]},"id":"FA-0018","properties":{"capa":"fauna","detalle":"Avistamiento","feature_id":"FA-0018","foto":"","lugar":"","nombre":"Roedores","subtipo":""},"type":"Feature"},{"geometry":{"type":"Point","coordinates":[-77.079285008919697,-12.073828164288608]},"id":"FA-0019","properties":{"capa":"fauna","detalle":"Avistamiento","feature_id":"FA-0019","foto":"","lugar":"","nombre":"Colonia Fe","subtipo":""},"type":"Feature"}],"name":"fauna","type":"FeatureCollection"}