{"crs_nota":"EPSG:4326","features":[{"geometry":{"type":"Point","coordinates":[-77.0796430,-12.0672190]},"id":"FL-0001","properties":{"capa":"flora","detalle":"Palmera Real · Roystonea regia","feature_id":"FL-0001","foto":"","lugar":"Tontodromo -educación","nombre":"Palmera Real","subtipo":""},"type":"Feature"},{"geometry":{"type":"Point","coordinates":[-77.0796380,-12.0672260]},"id":"FL-0002","properties":{"capa":"flora","detalle":"Palmera Real · Roystonea regia","feature_id":"FL-0002","foto":"","lugar":"Tontodromo -educación","nombre":"Palmera Real","subtipo":""},"type":"Feature"},{"geometry":{"type":"Point","coordinates":[-77.0796210,-12.0672820]},"id":"FL-0003","properties":{"capa":"flora","detalle":"Palmera Real · Roystonea regia","feature_id":"FL-0003","foto":"","lugar":"Tontodromo -educación","nombre":"Palmera Real","subtipo":""},"type":"Feature"},{"geometry":{"type":"Point","coordinates":[-77.0796470,-12.0674170]},"id":"FL-0004","properties":{"capa":"flora","detalle":"Palmera Real · Roystonea regia","feature_id":"FL-0004","foto":"","lugar":"Tontodromo -educación","nombre":"Palmera Real","subtipo":""},"type":"Feature"},{"geometry":{"type":"Point","coordinates":[-77.0796750,-12.0674610]},"id":"FL-0005","properties":{"capa":"flora","detalle":"Palmera Real · Roystonea regia","feature_id":"FL-0005","foto":"","lugar":"Tontodromo -educación","nombre":"Palmera Real","subtipo":""},"type":"Feature"},{"geometry":{"type":"Point","coordinates":[-77.0796710,-12.0674810]},"id":"FL-0006","properties":{"capa":"flora","detalle":"Palmera Real · Roystonea regia","feature_id":"FL-0006","foto":"","lugar":"Tontodromo -educación","nombre":"Palmera Real","subtipo":""},"type":"Feature"},{"geometry":{"type":"Point","coordinates":[-77.0796480,-12.0675320]},"id":"FL-0007","properties":{"capa":"flora","detalle":"Palmera Real · Roystonea regia","feature_id":"FL-0007","foto":"","lugar":"Tontodromo -educación","nombre":"Palmera Real","subtipo":""},"type":"Feature"},{"geometry":{"type":"Point","coordinates":[-77.0796480,-12.0675780]},"id":"FL-0008","properties":{"capa":"flora","detalle":"Palmera Real · Roystonea regia","feature_id":"FL-0008","foto":"","lugar":"Tontodromo -educación","nombre":"Palmera Real","subtipo":""},"type":"Feature"},{"geometry":{"type":"Point","coordinates":[-77.0796490,-12.0677120]},"id":"FL-0009","properties":{"capa":"flora","detalle":"Palmera Real · Roystonea regia","feature_id":"FL-0009","foto":"","lugar":"Tontodromo -educación","nombre":"Palmera Real","subtipo":""},"type":"Feature"},{"geometry":{"type":"Point","coordinates":[-77.0796070,-12.0678160]},"id":"FL-0010","properties":{"capa":"flora","detalle":"Palmera Real · Roystonea regia","feature_id":"FL-0010","foto":"","lugar":"Tontodromo -educación","nombre":"Palmera Real","subtipo":""},"type":"Feature"},{"geometry":{"type":"Point","coordinates":[-77.0796180,-12.0677740]},"id":"FL-0011","properties":{"capa":"flora","detalle":"Palmera Real · Roystonea regia","feature_id":"FL-0011","foto":"","lugar":"Tontodromo -educación","nombre":"Palmera Real","subtipo":""},"type":"Feature"},{"geometry":{"type":"Point","coordinates":[-77.0796420,-12.0679590]},"id":"FL-0012","properties":{"capa":"flora","detalle":"Palmera Real · Roystonea regia","feature_id":"FL-0012","foto":"","lugar":"Tontodromo - hallazgos","nombre":"Palmera Real","subtipo":""},"type":"Feature"},{"geometry":{"type":"Point","coordinates":[-77.0796270,-12.0679830]},"id":"FL-0013","properties":{"capa":"flora","detalle":"Palmera Real · Roystonea regia","feature_id":"FL-0013","foto":"","lugar":"Tontodromo - hallazgos","nombre":"Palmera Real","subtipo":""},"type":"Feature"},{"geometry":{"type":"Point","coordinates":[-77.0796180,-12.0680640]},"id":"FL-0014","properties":{"capa":"flora","detalle":"Palmera Real · Roystonea regia","feature_id":"FL-0014","foto":"","lugar":"Tinkuy","nombre":"Palmera Real","subtipo":""},"type":"Feature"},{"geometry":{"type":"Point","coordinates":[-77.0796160,-12.0681390]},"id":"FL-0015","properties":{"capa":"flora","detalle":"Palmera Real · Roystonea regia","feature_id":"FL-0015","foto":"","lugar":"Tinkuy","nombre":"Palmera Real","subtipo":""},"type":"Feature"},{"geometry":{"type":"Point","coordinates":[-77.0796070,-12.0681850]},"id":"FL-0016","properties":{"capa":"flora","detalle":"Palmera Real · Roystonea regia","feature_id":"FL-0016","foto":"","lugar":"Tinkuy","nombre":"Palmera Real","subtipo":""},"type":"Feature"},{"geometry":{"type":"Point","coordinates":[-77.0795890,-12.0682350]},"id":"FL-0017","properties":{"capa":"flora","detalle":"Palmera Real · Roystonea regia","feature_id":"FL-0017","foto":"","lugar":"Tinkuy","nombre":"Palmera Real","subtipo":""},"type":"Feature"},{"geometry":{"type":"Point","coordinates":[-77.0795730,-12.0682480]},"id":"FL-0018","properties":{"capa":"flora","detalle":"Palmera Real · Roystonea regia","feature_id":"FL-0018","foto":"","lugar":"Tinkuy","nombre":"Palmera Real","subtipo":""},"type":"Feature"},{"geometry":{"type":"Point","coordinates":[-77.0794960,-12.0686620]},"id":"FL-0019","properties":{"capa":"flora","detalle":"Palmera Real · Roystonea regia","feature_id":"FL-0019","foto":"","lugar":"Juan valdez","nombre":"Palmera Real","subtipo":""},"type":"Feature"},{"geometry":{"type":"Point","coordinates":[-77.0791670,-12.0686480]},"id":"FL-0020","properties":{"capa":"flora","detalle":"Palmera bruja · Syagrus romanzoffiana","feature_id":"FL-0020","foto":"","lugar":"Mac Gregor","nombre":"Palmera bruja","subtipo":""},"type":"Feature"},{"geometry":{"type":"Point","coordinates":[-77.0789990,-12.0687110]},"id":"FL-0021","properties":{"capa":"flora","detalle":"Palmera bruja · Syagrus romanzoffiana","feature_id":"FL-0021","foto":"","lugar":"Mac Gregor","nombre":"Palmera bruja","subtipo":""},"type":"Feature"},{"geometry":{"type":"Point","coordinates":[-77.0790760,-12.0686440]},"id":"FL-0022","properties":{"capa":"flora","detalle":"Palmera bruja · Syagrus romanzoffiana","feature_id":"FL-0022","foto":"","lugar":"Mac Gregor","nombre":"Palmera bruja","subtipo":""},"type":"Feature"},{"geometry":{"type":"Point","coordinates":[-77.0790810,-12.0685910]},"id":"FL-0023","properties":{"capa":"flora","detalle":"Palmera bruja · Syagrus romanzoffiana","feature_id":"FL-0023","foto":"","lugar":"Mac Gregor","nombre":"Palmera bruja","subtipo":""},"type":"Feature"},{"geometry":{"type":"Point","coordinates":[-77.0791240,-12.0685680]},"id":"FL-0024","properties":{"capa":"flora","detalle":"Palmera bruja · Syagrus romanzoffiana","feature_id":"FL-0024","foto":"","lugar":"Mac Gregor","nombre":"Palmera bruja","subtipo":""},"type":"Feature"},{"geometry":{"type":"Point","coordinates":[-77.0813010,-12.0686960]},"id":"FL-0025","properties":{"capa":"flora","detalle":"Palmera Real · Roystonea regia","feature_id":"FL-0025","foto":"","lugar":"Estudio tv2","nombre":"Palmera Real","subtipo":""},"type":"Feature"},{"geometry":{"type":"Point","coordinates":[-77.0812780,-12.0687330]},"id":"FL-0026","properties":{"capa":"flora","detalle":"Palmera Real · Roystonea regia","feature_id":"FL-0026","foto":"","lugar":"Pabellón Z","nombre":"Palmera Real","subtipo":""},"type":"Feature"},{"geometry":{"type":"Point","coordinates":[-77.0813010,-12.0688200]},"id":"FL-0027","properties":{"capa":"flora","detalle":"Palmera Real · Roystonea regia","feature_id":"FL-0027","foto":"","lugar":"Pabellón Z","nombre":"Palmera Real","subtipo":""},"type":"Feature"},{"geometry":{"type":"Point","coordinates":[-77.0813040,-12.0688480]},"id":"FL-0028","properties":{"capa":"flora","detalle":"Palmera Real · Roystonea regia","feature_id":"FL-0028","foto":"","lugar":"Pabellón Z","nombre":"Palmera Real","subtipo":""},"type":"Feature"},{"geometry":{"type":"Point","coordinates":[-77.0812870,-12.0689060]},"id":"FL-0029","properties":{"capa":"flora","detalle":"Palmera Real · Roystonea regia","feature_id":"FL-0029","foto":"","lugar":"Pabellón Z","nombre":"Palmera Real","subtipo":""},"type":"Feature"},{"geometry":{"type":"Point","coordinates":[-77.0813710,-12.0689850]},"id":"FL-0030","properties":{"capa":"flora","detalle":"Palmera Real · Roystonea regia","feature_id":"FL-0030","foto":"","lugar":"Pabellón Z","nombre":"Palmera Real","subtipo":""},"type":"Feature"},{"geometry":{"type":"Point","coordinates":[-77.0813920,-12.0690430]},"id":"FL-0031","properties":{"capa":"flora","detalle":"Palmera Real · Roystonea regia","feature_id":"FL-0031","foto":"","lugar":"Pabellón Z","nombre":"Palmera Real","subtipo":""},"type":"Feature"},{"geometry":{"type":"Point","coordinates":[-77.0813980,-12.0690780]},"id":"FL-0032","properties":{"capa":"flora","detalle":"Palmera Real · Roystonea regia","feature_id":"FL-0032","foto":"","lugar":"Pabellón Z","nombre":"Palmera Real","subtipo":""},"type":"Feature"},{"geometry":{"type":"Point","coordinates":[-77.0813930,-12.0691800]},"id":"FL-0033","properties":{"capa":"flora","detalle":"Palmera Real · Roystonea regia","feature_id":"FL-0033","foto":"","lugar":"Pabellón H","nombre":"Palmera Real","subtipo":""},"type":"Feature"},{"geometry":{"type":"Point","coordinates":[-77.0813710,-12.0691660]},"id":"FL-0034","properties":{"capa":"flora","detalle":"Palmera Real · Roystonea regia","feature_id":"FL-0034","foto":"","lugar":"Pabellón H","nombre":"Palmera Real","subtipo":""},"type":"Feature"},{"geometry":{"type":"Point","coordinates":[-77.0813760,-12.0691760]},"id":"FL-0035","properties":{"capa":"flora","detalle":"Palmera Real · Roystonea regia","feature_id":"FL-0035","foto":"","lugar":"Pabellón H","nombre":"Palmera Real","subtipo":""},"type":"Feature"},{"geometry":{"type":"Point","coordinates":[-77.0812950,-12.0693010]},"id":"FL-0036","properties":{"capa":"flora","detalle":"Palmera Real · Roystonea regia","feature_id":"FL-0036","foto":"","lugar":"Pabellón H","nombre":"Palmera Real","subtipo":""},"type":"Feature"},{"geometry":{"type":"Point","coordinates":[-77.0812560,-12.0693400]},"id":"FL-0037","properties":{"capa":"flora","detalle":"Palmera Real · Roystonea regia","feature_id":"FL-0037","foto":"","lugar":"Pabellón H","nombre":"Palmera Real","subtipo":""},"type":"Feature"},{"geometry":{"type":"Point","coordinates":[-77.0811700,-12.0693840]},"id":"FL-0038","properties":{"capa":"flora","detalle":"Palmera Real · Roystonea regia","feature_id":"FL-0038","foto":"","lugar":"Pabellón H","nombre":"Palmera Real","subtipo":""},"type":"Feature"},{"geometry":{"type":"Point","coordinates":[-77.0806040,-12.0693380]},"id":"FL-0039","properties":{"capa":"flora","detalle":"Palmera Real · Roystonea regia","feature_id":"FL-0039","foto":"","lugar":"Pabellón Z","nombre":"Palmera Real","subtipo":""},"type":"Feature"},{"geometry":{"type":"Point","coordinates":[-77.0806360,-12.0696090]},"id":"FL-0040","properties":{"capa":"flora","detalle":"Palmera Real · Roystonea regia","feature_id":"FL-0040","foto":"","lugar":"Biblioteca Central","nombre":"Palmera Real","subtipo":""},"type":"Feature"},{"geometry":{"type":"Point","coordinates":[-77.0806940,-12.0695830]},"id":"FL-0041","properties":{"capa":"flora","detalle":"Palmera Real · Roystonea regia","feature_id":"FL-0041","foto":"","lugar":"Biblioteca de Teología","nombre":"Palmera Real","subtipo":""},"type":"Feature"},{"geometry":{"type":"Point","coordinates":[-77.0808370,-12.0721530]},"id":"FL-0042","properties":{"capa":"flora","detalle":"Palmera de la jalea · Butia capitata","feature_id":"FL-0042","foto":"","lugar":"Mecánica","nombre":"Palmera de la jalea","subtipo":""},"type":"Feature"},{"geometry":{"type":"Point","coordinates":[-77.0808380,-12.0721990]},"id":"FL-0043","properties":{"capa":"flora","detalle":"Palma de guano · Sabal palmetto","feature_id":"FL-0043","foto":"","lugar":"Mecánica","nombre":"Palma de guano","subtipo":""},"type":"Feature"},{"geometry":{"type":"Point","coordinates":[-77.0808350,-12.0722370]},"id":"FL-0044","properties":{"capa":"flora","detalle":"Palmera Canaria · Phoenix canariensis","feature_id":"FL-0044","foto":"","lugar":"Mecánica","nombre":"Palmera Canaria","subtipo":""},"type":"Feature"},{"geometry":{"type":"Point","coordinates":[-77.0808620,-12.0722450]},"id":"FL-0045","properties":{"capa":"flora","detalle":"Palmera de abánico mexicana · #N/A","feature_id":"FL-0045","foto":"","lugar":"Mecánica","nombre":"Palmera de abánico mexicana","subtipo":""},"type":"Feature"},{"geometry":{"type":"Point","coordinates":[-77.0808780,-12.0722680]},"id":"FL-0046","properties":{"capa":"flora","detalle":"Palmera enana · Phoenix roebelenii","feature_id":"FL-0046","foto":"","lugar":"Mecánica","nombre":"Palmera enana","subtipo":""},"type":"Feature"},{"geometry":{"type":"Point","coordinates":[-77.0808650,-12.0722740]},"id":"FL-0047","properties":{"capa":"flora","detalle":"Palmera enana · Phoenix roebelenii","feature_id":"FL-0047","foto":"","lugar":"Mecánica","nombre":"Palmera enana","subtipo":""},"type":"Feature"},{"geometry":{"type":"Point","coordinates":[-77.0808190,-12.0722800]},"id":"FL-0048","properties":{"capa":"flora","detalle":"Palmera de abánico mexicana · #N/A","feature_id":"FL-0048","foto":"","lugar":"Mecánica","nombre":"Palmera de abánico mexicana","subtipo":""},"type":"Feature"},{"geometry":{"type":"Point","coordinates":[-77.0808180,-12.0723300]},"id":"FL-0049","properties":{"capa":"flora","detalle":"Palmera de abánico mexicana · #N/A","feature_id":"FL-0049","foto":"","lugar":"Mecánica","nombre":"Palmera de abánico mexicana","subtipo":""},"type":"Feature"},{"geometry":{"type":"Point","coordinates":[-77.0808310,-12.0723290]},"id":"FL-0050","properties":{"capa":"flora","detalle":"Palmera de abánico mexicana · #N/A","feature_id":"FL-0050","foto":"","lugar":"Mecánica","nombre":"Palmera de abánico mexicana","subtipo":""},"type":"Feature"},{"geometry":{"type":"Point","coordinates":[-77.0808710,-12.0723930]},"id":"FL-0051","properties":{"capa":"flora","detalle":"Palmera Canaria · Phoenix canariensis","feature_id":"FL-0051","foto":"","lugar":"Mecánica","nombre":"Palmera Canaria","subtipo":""},"type":"Feature"},{"geometry":{"type":"Point","coordinates":[-77.0809380,-12.0723970]},"id":"FL-0052","properties":{"capa":"flora","detalle":"Palmera de abanico china · Livistona chinensis","feature_id":"FL-0052","foto":"","lugar":"Mecánica","nombre":"Palmera de abanico china","subtipo":""},"type":"Feature"},{"geometry":{"type":"Point","coordinates":[-77.0808440,-12.0724140]},"id":"FL-0053","properties":{"capa":"flora","detalle":"Palmera de abánico mexicana · #N/A","feature_id":"FL-0053","foto":"","lugar":"Mecánica","nombre":"Palmera de abánico mexicana","subtipo":""},"type":"Feature"},{"geometry":{"type":"Point","coordinates":[-77.0808180,-12.0724140]},"id":"FL-0054","properties":{"capa":"flora","detalle":"Palmera de abánico mexicana · #N/A","feature_id":"FL-0054","foto":"","lugar":"Mecánica","nombre":"Palmera de abánico mexicana","subtipo":""},"type":"Feature"},{"geometry":{"type":"Point","coordinates":[-77.0807850,-12.0724260]},"id":"FL-0055","properties":{"capa":"flora","detalle":"Palmera de abánico mexicana · #N/A","feature_id":"FL-0055","foto":"","lugar":"Mecánica","nombre":"Palmera de abánico mexicana","subtipo":""},"type":"Feature"},{"geometry":{"type":"Point","coordinates":[-77.0807880,-12.0724620]},"id":"FL-0056","properties":{"capa":"flora","detalle":"Palmera de abánico mexicana · #N/A","feature_id":"FL-0056","foto":"","lugar":"Mecánica","nombre":"Palmera de abánico mexicana","subtipo":""},"type":"Feature"},{"geometry":{"type":"Point","coordinates":[-77.0808330,-12.0721640]},"id":"FL-0057","properties":{"capa":"flora","detalle":"Palmera de abánico mexicana · #N/A","feature_id":"FL-0057","foto":"","lugar":"Mecánica","nombre":"Palmera de abánico mexicana","subtipo":""},"type":"Feature"},{"geometry":{"type":"Point","coordinates":[-77.0806920,-12.0721960]},"id":"FL-0058","properties":{"capa":"flora","detalle":"Palmera de Navidad · Adonidia merrillii","feature_id":"FL-0058","foto":"","lugar":"Mecánica","nombre":"Palmera de Navidad","subtipo":""},"type":"Feature"},{"geometry":{"type":"Point","coordinates":[-77.0807170,-12.0721900]},"id":"FL-0059","properties":{"capa":"flora","detalle":"Palmera de abánico mexicana · #N/A","feature_id":"FL-0059","foto":"","lugar":"Mecánica","nombre":"Palmera de abánico mexicana","subtipo":""},"type":"Feature"},{"geometry":{"type":"Point","coordinates":[-77.0807070,-12.0721950]},"id":"FL-0060","properties":{"capa":"flora","detalle":"Palmera Canaria · Phoenix canariensis","feature_id":"FL-0060","foto":"","lugar":"Mecánica","nombre":"Palmera Canaria","subtipo":""},"type":"Feature"},{"geometry":{"type":"Point","coordinates":[-77.0807130,-12.0722510]},"id":"FL-0061","properties":{"capa":"flora","detalle":"Palmera Canaria · Phoenix canariensis","feature_id":"FL-0061","foto":"","lugar":"Mecánica","nombre":"Palmera Canaria","subtipo":""},"type":"Feature"},{"geometry":{"type":"Point","coordinates":[-77.0808010,-12.0722120]},"id":"FL-0062","properties":{"capa":"flora","detalle":"Palmera de abánico mexicana · #N/A","feature_id":"FL-0062","foto":"","lugar":"Mecánica","nombre":"Palmera de abánico mexicana","subtipo":""},"type":"Feature"},{"geometry":{"type":"Point","coordinates":[-77.0808060,-12.0722490]},"id":"FL-0063","properties":{"capa":"flora","detalle":"Palmera de abanico costera · Thrinax radiata","feature_id":"FL-0063","foto":"","lugar":"Mecánica","nombre":"Palmera de abanico costera","subtipo":""},"type":"Feature"},{"geometry":{"type":"Point","coordinates":[-77.0807140,-12.0722640]},"id":"FL-0064","properties":{"capa":"flora","detalle":"Palmera de abanico china · Livistona chinensis","feature_id":"FL-0064","foto":"","lugar":"Mecánica","nombre":"Palmera de abanico china","subtipo":""},"type":"Feature"},{"geometry":{"type":"Point","coordinates":[-77.0807410,-12.0723300]},"id":"FL-0065","properties":{"capa":"flora","detalle":"Palmera de abanico china · Livistona chinensis","feature_id":"FL-0065","foto":"","lugar":"Mecánica","nombre":"Palmera de abanico china","subtipo":""},"type":"Feature"},{"geometry":{"type":"Point","coordinates":[-77.0807360,-12.0723310]},"id":"FL-0066","properties":{"capa":"flora","detalle":"Palmera de abanico china · Livistona chinensis","feature_id":"FL-0066","foto":"","lugar":"Mecánica","nombre":"Palmera de abanico china","subtipo":""},"type":"Feature"},{"geometry":{"type":"Point","coordinates":[-77.0807390,-12.0723610]},"id":"FL-0067","properties":{"capa":"flora","detalle":"Palmera de abanico china · Livistona chinensis","feature_id":"FL-0067","foto":"","lugar":"Mecánica","nombre":"Palmera de abanico china","subtipo":""},"type":"Feature"},{"geometry":{"type":"Point","coordinates":[-77.0806690,-12.0723220]},"id":"FL-0068","properties":{"capa":"flora","detalle":"Palmera de abanico china · Livistona chinensis","feature_id":"FL-0068","foto":"","lugar":"Mecánica","nombre":"Palmera de abanico china","subtipo":""},"type":"Feature"},{"geometry":{"type":"Point","coordinates":[-77.0807180,-12.0723980]},"id":"FL-0069","properties":{"capa":"flora","detalle":"Palmera de Bismarck · Bismarckia nobilis","feature_id":"FL-0069","foto":"","lugar":"Mecánica","nombre":"Palmera de Bismarck","subtipo":""},"type":"Feature"},{"geometry":{"type":"Point","coordinates":[-77.0806980,-12.0723800]},"id":"FL-0070","properties":{"capa":"flora","detalle":"Palmera Canaria · Phoenix canariensis","feature_id":"FL-0070","foto":"","lugar":"Mecánica","nombre":"Palmera Canaria","subtipo":""},"type":"Feature"},{"geometry":{"type":"Point","coordinates":[-77.0806910,-12.0724030]},"id":"FL-0071","properties":{"capa":"flora","detalle":"Palmera de Bismarck · Bismarckia nobilis","feature_id":"FL-0071","foto":"","lugar":"Mecánica","nombre":"Palmera de Bismarck","subtipo":""},"type":"Feature"},{"geometry":{"type":"Point","coordinates":[-77.0806980,-12.0724270]},"id":"FL-0072","properties":{"capa":"flora","detalle":"Palmera de abánico mexicana · #N/A","feature_id":"FL-0072","foto":"","lugar":"Mecánica","nombre":"Palmera de abánico mexicana","subtipo":""},"type":"Feature"},{"geometry":{"type":"Point","coordinates":[-77.0806730,-12.0724490]},"id":"FL-0073","properties":{"capa":"flora","detalle":"Palmera de abánico mexicana · #N/A","feature_id":"FL-0073","foto":"","lugar":"Mecánica","nombre":"Palmera de abánico mexicana","subtipo":""},"type":"Feature"},{"geometry":{"type":"Point","coordinates":[-77.0807320,-12.0723030]},"id":"FL-0074","properties":{"capa":"flora","detalle":"Palmera Canaria · Phoenix canariensis","feature_id":"FL-0074","foto":"","lugar":"Mecánica","nombre":"Palmera Canaria","subtipo":""},"type":"Feature"}],"name":"flora","type":"FeatureCollection"}