{"crs_nota":"EPSG:4326","features":[{"geometry":{"type":"MultiPolygon","coordinates":[[[[-77.078731945207437,-12.071523270498929],[-77.078569017497472,-12.071557127500958],[-77.078574668908388,-12.071607340274847],[-77.078504815463617,-12.071628067711019],[-77.078513803221327,-12.071650149034962],[-77.078542558418349,-12.071743968053584],[-77.078499450725644,-12.071751543375818],[-77.078562309449083,-12.071984215515707],[-77.078674557034503,-12.072477637330302],[-77.078706963438776,-12.072584122294625],[-77.078749010482767,-12.072575518660038],[-77.078764005079179,-12.072608564553951],[-77.078962659746509,-12.07256563281037],[-77.078962276081299,-12.072515898792476],[-77.078986218120946,-12.072480489597282],[-77.078985053444057,-12.072465991708878],[-77.078920597916522,-12.072162871087851],[-77.078901200425761,-12.072104989654369],[-77.078850870739117,-12.071858753625273],[-77.07878017092051,-12.071565005234127],[-77.078742359087556,-12.071576685764054],[-77.078731945207437,-12.071523270498929]]]]},"id":"PL-0001","properties":{"capa":"playas_estacionamiento","detalle":"Playa","feature_id":"PL-0001","foto":"","lugar":"","nombre":"Playa 1","subtipo":""},"type":"Feature"},{"geometry":{"type":"MultiPolygon","coordinates":[[[[-77.078623247203694,-12.06954457979897],[-77.07861168466772,-12.06968351501982],[-77.078906346490825,-12.069666807335794],[-77.078916394669065,-12.069604561152824],[-77.079008734126361,-12.06956449628445],[-77.07898506192177,-12.069498357273847],[-77.078623247203694,-12.06954457979897]]]]},"id":"PL-0002","properties":{"capa":"playas_estacionamiento","detalle":"Playa","feature_id":"PL-0002","foto":"","lugar":"","nombre":"Playa 2","subtipo":""},"type":"Feature"},{"geometry":{"type":"MultiPolygon","coordinates":[[[[-77.078456990570473,-12.069556183428503],[-77.078137078418024,-12.069575151552904],[-77.078120617620485,-12.069625011393033],[-77.078107984459621,-12.069625105731561],[-77.078104268647138,-12.069689376999134],[-77.078146411144857,-12.069693207038553],[-77.078148788263093,-12.069728419603203],[-77.078464441603572,-12.069703266132018],[-77.078456990570473,-12.069556183428503]]]]},"id":"PL-0003","properties":{"capa":"playas_estacionamiento","detalle":"Playa","feature_id":"PL-0003","foto":"","lugar":"","nombre":"Playa 3","subtipo":""},"type":"Feature"},{"geometry":{"type":"MultiPolygon","coordinates":[[[[-77.078158357467458,-12.068238312943873],[-77.078676170494163,-12.068215794672616],[-77.078730594317719,-12.068173940769533],[-77.078765429356451,-12.068049338327395],[-77.078749795980855,-12.067933402313697],[-77.078120119750139,-12.067921525574187],[-77.078123758713545,-12.068120446095625],[-77.078158357467458,-12.068238312943873]]]]},"id":"PL-0004","properties":{"capa":"playas_estacionamiento","detalle":"Playa","feature_id":"PL-0004","foto":"","lugar":"","nombre":"Playa 4","subtipo":""},"type":"Feature"},{"geometry":{"type":"MultiPolygon","coordinates":[[[[-77.078129733915716,-12.067529775514766],[-77.07808972921697,-12.06753007420174],[-77.078075344914836,-12.067849326869306],[-77.078109144934189,-12.067863581106993],[-77.078136912986125,-12.067641629992007],[-77.078129733915716,-12.067529775514766]]]]},"id":"PL-0005","properties":{"capa":"playas_estacionamiento","detalle":"Playa","feature_id":"PL-0005","foto":"","lugar":"","nombre":"Playa 5","subtipo":""},"type":"Feature"},{"geometry":{"type":"MultiPolygon","coordinates":[[[[-77.078466912673775,-12.067019526798266],[-77.078481635240877,-12.06701734448878],[-77.078517215062789,-12.06665030963258],[-77.078973445507998,-12.066670971333027],[-77.079014402036265,-12.066545632385294],[-77.078953541313908,-12.066478569099303],[-77.078881351378328,-12.066425031459971],[-77.078561038242114,-12.066402416896068],[-77.078529280267531,-12.066402654039457],[-77.078523023110918,-12.066456152404847],[-77.078445707674064,-12.066453927702833],[-77.078462024549466,-12.066385417603733],[-77.078331435560031,-12.066380175552606],[-77.078306520943627,-12.066425953753802],[-77.078177893681797,-12.066402045638734],[-77.078159540711525,-12.067025966606408],[-77.078466912673775,-12.067019526798266]]]]},"id":"PL-0006","properties":{"capa":"playas_estacionamiento","detalle":"Playa","feature_id":"PL-0006","foto":"","lugar":"","nombre":"Playa 6","subtipo":""},"type":"Feature"},{"geometry":{"type":"MultiPolygon","coordinates":[[[[-77.081557162110187,-12.066642058981508],[-77.081455874199548,-12.06661380326074],[-77.081437558498052,-12.066423282366431],[-77.081180080000507,-12.066346457577783],[-77.081172521723403,-12.066458421977659],[-77.080839916973787,-12.06646919803562],[-77.080747275036259,-12.066469890564806],[-77.08076080356112,-12.06658584208949],[-77.080524955615175,-12.066583460281157],[-77.080529049133773,-12.067113956158961],[-77.0811865420754,-12.067183646039393],[-77.081510661612384,-12.067164643414564],[-77.081596916904445,-12.06688215634578],[-77.081557162110187,-12.066642058981508]]]]},"id":"PL-0007","properties":{"capa":"playas_estacionamiento","detalle":"Playa","feature_id":"PL-0007","foto":"","lugar":"","nombre":"Playa 7","subtipo":""},"type":"Feature"},{"geometry":{"type":"MultiPolygon","coordinates":[[[[-77.081599275115778,-12.067460329300379],[-77.081321348399513,-12.06746240772148],[-77.081389895315624,-12.068431763291107],[-77.081621272489002,-12.069491084948032],[-77.081658106521544,-12.069625513300943],[-77.081902644071974,-12.069389506509211],[-77.08178764283781,-12.068948952593576],[-77.081665753483435,-12.068289491504039],[-77.081599275115778,-12.067460329300379]]]]},"id":"PL-0008","properties":{"capa":"playas_estacionamiento","detalle":"Playa","feature_id":"PL-0008","foto":"","lugar":"","nombre":"Playa 8","subtipo":""},"type":"Feature"},{"geometry":{"type":"MultiPolygon","coordinates":[[[[-77.08197297472806,-12.069831106890051],[-77.081941533196854,-12.069813821586333],[-77.081884821778317,-12.069808257981604],[-77.081811448550184,-12.069850254233868],[-77.081780780175407,-12.06990073856424],[-77.081815106503782,-12.070051246476442],[-77.081890608482752,-12.070284859096615],[-77.082202953576967,-12.071194363380371],[-77.082388224307763,-12.071735936854552],[-77.08252216230089,-12.072174275999524],[-77.082671943943467,-12.072210457446838],[-77.082797219401925,-12.072072743547066],[-77.082245665648742,-12.070454208931414],[-77.082078283455743,-12.069911206065669],[-77.082002168485374,-12.069870846298377],[-77.08197297472806,-12.069831106890051]]]]},"id":"PL-0009","properties":{"capa":"playas_estacionamiento","detalle":"Playa","feature_id":"PL-0009","foto":"","lugar":"","nombre":"Playa 9","subtipo":""},"type":"Feature"},{"geometry":{"type":"MultiPolygon","coordinates":[[[[-77.082087084380575,-12.071731973363292],[-77.081718538808076,-12.071861145348272],[-77.081803276307994,-12.072063603297279],[-77.082156310707248,-12.071970813653644],[-77.082087084380575,-12.071731973363292]]]]},"id":"PL-0010","properties":{"capa":"playas_estacionamiento","detalle":"Playa","feature_id":"PL-0010","foto":"","lugar":"","nombre":"Playa 10","subtipo":""},"type":"Feature"},{"geometry":{"type":"MultiPolygon","coordinates":[[[[-77.082657958980931,-12.073125511595387],[-77.082655517113565,-12.073082010195975],[-77.082324693948422,-12.073188104804535],[-77.082337719558538,-12.073238780278697],[-77.082657958980931,-12.073125511595387]]]]},"id":"PL-0011","properties":{"capa":"playas_estacionamiento","detalle":"Playa","feature_id":"PL-0011","foto":"","lugar":"","nombre":"Playa 11","subtipo":""},"type":"Feature"},{"geometry":{"type":"MultiPolygon","coordinates":[[[[-77.082263769131515,-12.073206175916976],[-77.081672529642645,-12.073401258193684],[-77.081626431616556,-12.073430616255825],[-77.081636202744733,-12.073468881931156],[-77.082283071349465,-12.073251623502269],[-77.082263769131515,-12.073206175916976]]]]},"id":"PL-0012","properties":{"capa":"playas_estacionamiento","detalle":"Playa","feature_id":"PL-0012","foto":"","lugar":"","nombre":"Playa 12","subtipo":""},"type":"Feature"},{"geometry":{"type":"MultiPolygon","coordinates":[[[[-77.079181935599266,-12.072773303592188],[-77.079220794804115,-12.072897355377643],[-77.079950237223713,-12.072738547692341],[-77.079904069507279,-12.072486063811485],[-77.079147207599007,-12.072638859072423],[-77.079181935599266,-12.072773303592188]]]]},"id":"PL-0013","properties":{"capa":"playas_estacionamiento","detalle":"Playa","feature_id":"PL-0013","foto":"","lugar":"","nombre":"Playa 13","subtipo":""},"type":"Feature"},{"geometry":{"type":"MultiPolygon","coordinates":[[[[-77.078426215462187,-12.069729456274317],[-77.078111140383513,-12.0697613405968],[-77.078113074990142,-12.069807436417516],[-77.078140853589574,-12.070133109397235],[-77.078182675189126,-12.070300141067225],[-77.078203054073683,-12.070417077857305],[-77.07826266276399,-12.070706246563368],[-77.078335638969264,-12.071022256213055],[-77.078387091643222,-12.071209421483379],[-77.078673383942444,-12.071131123270664],[-77.07867547349835,-12.071129035290074],[-77.078681231763369,-12.071124847531872],[-77.078620219110519,-12.07085848557495],[-77.078586508598633,-12.070719370451268],[-77.078558692222515,-12.07059368170065],[-77.078510768504884,-12.070386284478573],[-77.078462733958688,-12.070232769710399],[-77.0784661460698,-12.07012912566983],[-77.078470936679949,-12.069931178446881],[-77.078478762674763,-12.06978553592281],[-77.078448774884862,-12.069787832269247],[-77.078437823823606,-12.069732996224142],[-77.078426215462187,-12.069729456274317]]]]},"id":"PL-0014","properties":{"capa":"playas_estacionamiento","detalle":"Playa","feature_id":"PL-0014","foto":"","lugar":"","nombre":"Playa 14","subtipo":""},"type":"Feature"},{"geometry":{"type":"MultiPolygon","coordinates":[[[[-77.081555739814135,-12.073444706242297],[-77.081217010239968,-12.073506005886305],[-77.081209735759714,-12.073551072125278],[-77.081567510983135,-12.073488379650371],[-77.081555739814135,-12.073444706242297]]]]},"id":"PL-0015","properties":{"capa":"playas_estacionamiento","detalle":"Playa","feature_id":"PL-0015","foto":"","lugar":"","nombre":"Playa 15","subtipo":""},"type":"Feature"}],"name":"playas_estacionamiento","type":"FeatureCollection"}