{"crs_nota":"EPSG:4326","features":[{"geometry":{"type":"Point","coordinates":[-77.081599005092514,-12.06720274378687]},"id":"PU-0001","properties":{"capa":"puertas","detalle":"Acceso","feature_id":"PU-0001","foto":"","lugar":"","nombre":"Acceso 1","subtipo":""},"type":"Feature"},{"geometry":{"type":"Point","coordinates":[-77.081979700676598,-12.069615530410044]},"id":"PU-0002","properties":{"capa":"puertas","detalle":"Acceso","feature_id":"PU-0002","foto":"","lugar":"","nombre":"Acceso 2","subtipo":""},"type":"Feature"},{"geometry":{"type":"Point","coordinates":[-77.082950150523985,-12.072392121955874]},"id":"PU-0003","properties":{"capa":"puertas","detalle":"Acceso","feature_id":"PU-0003","foto":"","lugar":"","nombre":"Acceso 3","subtipo":""},"type":"Feature"},{"geometry":{"type":"Point","coordinates":[-77.082325962724425,-12.07332516246313]},"id":"PU-0004","properties":{"capa":"puertas","detalle":"Acceso","feature_id":"PU-0004","foto":"","lugar":"","nombre":"Acceso 4","subtipo":""},"type":"Feature"},{"geometry":{"type":"Point","coordinates":[-77.078463863803421,-12.071511681005514]},"id":"PU-0005","properties":{"capa":"puertas","detalle":"Acceso","feature_id":"PU-0005","foto":"","lugar":"","nombre":"Acceso 5","subtipo":""},"type":"Feature"},{"geometry":{"type":"Point","coordinates":[-77.07805548697857,-12.069130350299194]},"id":"PU-0006","properties":{"capa":"puertas","detalle":"Acceso","feature_id":"PU-0006","foto":"","lugar":"","nombre":"Acceso 6","subtipo":""},"type":"Feature"},{"geometry":{"type":"Point","coordinates":[-77.078056798607818,-12.066663437363509]},"id":"PU-0007","properties":{"capa":"puertas","detalle":"Acceso","feature_id":"PU-0007","foto":"","lugar":"","nombre":"Acceso 7","subtipo":""},"type":"Feature"}],"name":"puertas","type":"FeatureCollection"}