{
"type": "FeatureCollection",
"name": "supervisoress",
"crs": { "type": "name", "properties": { "name": "urn:ogc:def:crs:OGC:1.3:CRS84" } },
"features": [
{ "type": "Feature", "properties": { "id": 2, "ZONA": "Zona2", "Area": 80863.431 }, "geometry": { "type": "MultiPolygon", "coordinates": [ [ [ [ -77.078049096413466, -12.069388227116226 ], [ -77.078048153579203, -12.069388854846398 ], [ -77.078057658022757, -12.069490136974126 ], [ -77.078087819679425, -12.069733405614782 ], [ -77.078118042232617, -12.069966325946247 ], [ -77.078161615935272, -12.070249983543198 ], [ -77.07819232593792, -12.070419515301023 ], [ -77.078214100043667, -12.070532370876922 ], [ -77.07824874067407, -12.070700857709024 ], [ -77.078286071004499, -12.070869266607113 ], [ -77.078369655727101, -12.071203820026376 ], [ -77.078463770851826, -12.071538123482192 ], [ -77.078472016909544, -12.071629410971509 ], [ -77.078494205790534, -12.071843717340485 ], [ -77.078494205790534, -12.071843717340485 ], [ -77.078504506807221, -12.071910937994117 ], [ -77.078508690363918, -12.071945422188163 ], [ -77.078517326152735, -12.072013945914469 ], [ -77.078519828990167, -12.072044465624829 ], [ -77.078520611132916, -12.072079637179126 ], [ -77.078522789045309, -12.072114863555433 ], [ -77.078526236895243, -12.072186520650567 ], [ -77.078527569357249, -12.072212279113328 ], [ -77.078528995995413, -12.07225484029434 ], [ -77.078531072286324, -12.072329022832994 ], [ -77.078532094242775, -12.072364423225542 ], [ -77.078533262091824, -12.072398385350155 ], [ -77.078607160534474, -12.07245458286083 ], [ -77.07861702521798, -12.072623908699235 ], [ -77.078553214872628, -12.072732242170384 ], [ -77.07856111558182, -12.072792600831598 ], [ -77.078576993279682, -12.072881029113161 ], [ -77.078606670889116, -12.07302958741845 ], [ -77.07863074555479, -12.07311975405433 ], [ -77.078642673323685, -12.073160951647111 ], [ -77.078654732399528, -12.073196576377896 ], [ -77.079667765188717, -12.073022769612008 ], [ -77.079929270800577, -12.072949205460166 ], [ -77.079938271254292, -12.073000068783879 ], [ -77.080391698589082, -12.0729079207306 ], [ -77.080482804922752, -12.072886439897854 ], [ -77.080497122532563, -12.072886578920851 ], [ -77.08076915207937, -12.072818172240151 ], [ -77.080772883677611, -12.072811521732609 ], [ -77.0807931387087, -12.072805915049088 ], [ -77.080772342129109, -12.072724677710655 ], [ -77.080636966673652, -12.072602348634877 ], [ -77.080626825208256, -12.072593174436561 ], [ -77.080609922767408, -12.072577884105016 ], [ -77.080599061223211, -12.072569493481733 ], [ -77.080595035305947, -12.072567150205016 ], [ -77.080586245511839, -12.072563129584051 ], [ -77.080576989926996, -12.072560296957938 ], [ -77.080572238755281, -12.072559342769704 ], [ -77.080527107892294, -12.072465535816896 ], [ -77.080522197073535, -12.072441924970189 ], [ -77.080702229714106, -12.072403606631797 ], [ -77.080657046966991, -12.072197435560238 ], [ -77.080631477636402, -12.072141030374004 ], [ -77.080595906713882, -12.071979297440988 ], [ -77.080587577978875, -12.071943991674315 ], [ -77.080527314431279, -12.07169305458158 ], [ -77.080341694147819, -12.071732937797627 ], [ -77.080354671353973, -12.071791942612554 ], [ -77.080257151127199, -12.071812896202053 ], [ -77.080251911767832, -12.071789084758068 ], [ -77.080213689459413, -12.07179659180362 ], [ -77.080147569477688, -12.071810798578513 ], [ -77.080116213243898, -12.071818840096897 ], [ -77.080073100802053, -12.071661244249366 ], [ -77.080007684250575, -12.071473529694281 ], [ -77.079952741056474, -12.071218630417915 ], [ -77.07987976652575, -12.070706170537848 ], [ -77.079840396595031, -12.070286390545473 ], [ -77.079745173877726, -12.069257515764285 ], [ -77.078578678760522, -12.069361751735377 ], [ -77.078524105650956, -12.069366530239639 ], [ -77.078522807435206, -12.069356194015745 ], [ -77.07851965664922, -12.069341819976229 ], [ -77.078516505660957, -12.069331459419921 ], [ -77.078512671459336, -12.069320865148304 ], [ -77.078508259116632, -12.069310491122375 ], [ -77.078503281620115, -12.069300367876833 ], [ -77.07849775362051, -12.069290525208228 ], [ -77.078491982610828, -12.069281698994789 ], [ -77.078485724377273, -12.069273200472864 ], [ -77.078478838818327, -12.069264419269794 ], [ -77.078471468964239, -12.06925602747835 ], [ -77.078463637507312, -12.069248050937393 ], [ -77.078455368561094, -12.069240514207218 ], [ -77.078446748549325, -12.069233303959519 ], [ -77.078437710438195, -12.069226607967973 ], [ -77.078428285855026, -12.06922044966403 ], [ -77.078418507779574, -12.069214850597634 ], [ -77.078404969624088, -12.069208268472496 ], [ -77.078391044457547, -12.069202521385689 ], [ -77.078376785391299, -12.069197631256941 ], [ -77.078359094656378, -12.069193126222903 ], [ -77.078343765518028, -12.069190333986315 ], [ -77.078332542690248, -12.069189104964828 ], [ -77.078320004826026, -12.069188568387686 ], [ -77.078202417829246, -12.069193859852529 ], [ -77.078191560389797, -12.069195976128009 ], [ -77.078170315603501, -12.069202064602743 ], [ -77.078162149821054, -12.069206132633596 ], [ -77.078133454605947, -12.069226149433266 ], [ -77.07810994460371, -12.069253104658062 ], [ -77.078102463080995, -12.069266443120055 ], [ -77.078088245325873, -12.069293470428677 ], [ -77.078057808698276, -12.069363702224305 ], [ -77.078049096413466, -12.069388227116226 ] ] ] ] } },
{ "type": "Feature", "properties": { "id": 3, "ZONA": "Zona3", "Area": 112022.743 }, "geometry": { "type": "MultiPolygon", "coordinates": [ [ [ [ -77.081931191776064, -12.069717817841434 ], [ -77.081926128685609, -12.069717550379048 ], [ -77.081923595217347, -12.069717676776657 ], [ -77.081918585562818, -12.069718446779673 ], [ -77.081916133574708, -12.069719086665746 ], [ -77.081905939856782, -12.069721859006806 ], [ -77.081748742742121, -12.069772129209621 ], [ -77.081746366669933, -12.06977306708132 ], [ -77.081739712945691, -12.069776817780975 ], [ -77.081501869391232, -12.069737502839144 ], [ -77.08146234577498, -12.069740846446161 ], [ -77.081467545320621, -12.069800546806553 ], [ -77.08137029157848, -12.069808774229083 ], [ -77.081370648408793, -12.069812871312983 ], [ -77.081220879450669, -12.069825541324816 ], [ -77.081220522622573, -12.069821444240342 ], [ -77.081161508192309, -12.069826396861131 ], [ -77.081161903732024, -12.069830937124541 ], [ -77.081131711331579, -12.069833484520045 ], [ -77.08111780025061, -12.069678693497858 ], [ -77.081056440810386, -12.069666985464849 ], [ -77.081050099556691, -12.069602845997737 ], [ -77.080944419128841, -12.069611755924093 ], [ -77.080932888208181, -12.069615508883448 ], [ -77.080865752564435, -12.06962139140072 ], [ -77.080870432037528, -12.069672790195712 ], [ -77.080873212181245, -12.06969987510929 ], [ -77.080696048529987, -12.069715146804416 ], [ -77.080695362464198, -12.069705951656578 ], [ -77.080679083064766, -12.069707424088618 ], [ -77.080679769130029, -12.069716619236583 ], [ -77.080589295591338, -12.069724802330844 ], [ -77.080586862577462, -12.069695074225667 ], [ -77.080426475365911, -12.069708997935413 ], [ -77.080414562253409, -12.069707424677706 ], [ -77.080424395199699, -12.069819156806354 ], [ -77.080378310840928, -12.069818080168233 ], [ -77.080291850816181, -12.069919155921157 ], [ -77.080294355415518, -12.069931452711076 ], [ -77.080266741965659, -12.069933973496408 ], [ -77.080268236303638, -12.069950356127265 ], [ -77.080125702876174, -12.069963367721394 ], [ -77.080099802274404, -12.069942371179851 ], [ -77.080088755395863, -12.069821261805938 ], [ -77.0798703272594, -12.06984198206251 ], [ -77.079825276224682, -12.0698952379455 ], [ -77.079804173125083, -12.069896882818329 ], [ -77.079840396595031, -12.070286390545473 ], [ -77.07987976652575, -12.070706170537848 ], [ -77.079952741056474, -12.071218630417915 ], [ -77.080007684250575, -12.071473529694281 ], [ -77.080073100802053, -12.071661244249366 ], [ -77.080116213243898, -12.071818840096897 ], [ -77.080251911767832, -12.071789084758068 ], [ -77.080257151127199, -12.071812896202053 ], [ -77.080354671353973, -12.071791942612554 ], [ -77.080341694147819, -12.071732937797627 ], [ -77.080527314431279, -12.07169305458158 ], [ -77.080587577978875, -12.071943991674315 ], [ -77.080595906713882, -12.071979297440988 ], [ -77.080631477636402, -12.072141030374004 ], [ -77.080657046966991, -12.072197435560238 ], [ -77.080702229714106, -12.072403606631797 ], [ -77.080522197073535, -12.072441924970189 ], [ -77.080572238755281, -12.072559342769704 ], [ -77.080576989926996, -12.072560296957938 ], [ -77.080586245511839, -12.072563129584051 ], [ -77.080595035305947, -12.072567150205016 ], [ -77.080599061223211, -12.072569493481733 ], [ -77.080609922767408, -12.072577884105016 ], [ -77.080772342129109, -12.072724677710655 ], [ -77.0807931387087, -12.072805915049088 ], [ -77.080795659607958, -12.072815506271034 ], [ -77.081910013252255, -12.07251326889889 ], [ -77.081973812710999, -12.072735602448516 ], [ -77.081979013026668, -12.072741805934342 ], [ -77.081050509040338, -12.072980895266792 ], [ -77.080735597187498, -12.073062928660068 ], [ -77.080701949995813, -12.073064832390802 ], [ -77.080645401649477, -12.073074180507982 ], [ -77.078969075847667, -12.073353603454603 ], [ -77.078743810559729, -12.073420916443581 ], [ -77.078786605905762, -12.073512743014168 ], [ -77.078816010569284, -12.073566697663031 ], [ -77.07884434145511, -12.073620836545386 ], [ -77.078876256794345, -12.073673289763233 ], [ -77.078905468441732, -12.07372274949144 ], [ -77.078922822223277, -12.073748739043445 ], [ -77.078939053391665, -12.0737736323376 ], [ -77.0789748269558, -12.073827768957173 ], [ -77.079009584346664, -12.073874384669999 ], [ -77.079046554754854, -12.073922936209714 ], [ -77.079086464504485, -12.07397388292882 ], [ -77.079125658920105, -12.07402067563217 ], [ -77.079162673020363, -12.074065400780366 ], [ -77.079167699669583, -12.074071054896544 ], [ -77.07917322649952, -12.074076049888721 ], [ -77.079178258014608, -12.074079303160881 ], [ -77.079185049461628, -12.074081875120736 ], [ -77.079191581155811, -12.074083114791151 ], [ -77.079198564315405, -12.074083113028722 ], [ -77.07920477624485, -12.07408205796329 ], [ -77.079211285060197, -12.074079587470907 ], [ -77.079362470063614, -12.073994013643029 ], [ -77.079339401555259, -12.073955029724788 ], [ -77.079466949896286, -12.073881482337313 ], [ -77.079489867471978, -12.073921556614076 ], [ -77.079541165788768, -12.073892946749881 ], [ -77.079595908740814, -12.073862201080027 ], [ -77.079617923986916, -12.073850367515837 ], [ -77.079652264869353, -12.073833130778468 ], [ -77.079708157492746, -12.073804589814209 ], [ -77.079764164939178, -12.073782620244858 ], [ -77.079822728547683, -12.073761773138875 ], [ -77.07987147720732, -12.073748247524962 ], [ -77.079944633306383, -12.073728315340777 ], [ -77.079987681383216, -12.073720259790417 ], [ -77.080192628766795, -12.073699193353418 ], [ -77.080217140899109, -12.073700443492273 ], [ -77.080442399988513, -12.07368377566628 ], [ -77.080691799834, -12.073666711047832 ], [ -77.080755727098193, -12.073662373938419 ], [ -77.081103038757988, -12.073639068222624 ], [ -77.081212473043621, -12.073632866450044 ], [ -77.081313680158885, -12.073623356689444 ], [ -77.081396214225549, -12.07361656545676 ], [ -77.08145716300416, -12.073606241376643 ], [ -77.081495347246886, -12.073599428107512 ], [ -77.081534689576856, -12.073590516152549 ], [ -77.081563499626981, -12.073583096704269 ], [ -77.081587634612035, -12.073574289515758 ], [ -77.081614527951643, -12.073566538117401 ], [ -77.081672481768223, -12.073547161779688 ], [ -77.081829456333551, -12.073494226747407 ], [ -77.081877938902579, -12.073476285050296 ], [ -77.081972362599743, -12.073446035742741 ], [ -77.082030336240038, -12.073427632192235 ], [ -77.082203504607733, -12.073369317882859 ], [ -77.082258198343254, -12.073349766128146 ], [ -77.082277127684492, -12.073343077324006 ], [ -77.082298821151056, -12.073336897209908 ], [ -77.082367284689653, -12.07331262787325 ], [ -77.082607286639146, -12.073232716508507 ], [ -77.083063991823408, -12.073079110169621 ], [ -77.083112501018007, -12.073061190700699 ], [ -77.083117290659985, -12.073057971676938 ], [ -77.08312076325744, -12.073054164236728 ], [ -77.083122709980799, -12.073050825203165 ], [ -77.083125162565025, -12.073045906976011 ], [ -77.08312715881182, -12.073038512952241 ], [ -77.083127549458496, -12.073032803148955 ], [ -77.083127117742194, -12.073027445372743 ], [ -77.083124786677757, -12.073019715930444 ], [ -77.08294337136094, -12.072481770140744 ], [ -77.082865718659633, -12.072502672845609 ], [ -77.082797288312335, -12.072520467425859 ], [ -77.082069940586123, -12.072720594595559 ], [ -77.08202363868412, -12.072695636537263 ], [ -77.081983485049278, -12.072705167835098 ], [ -77.081924300654151, -12.07249685069335 ], [ -77.082730636738233, -12.072275765599896 ], [ -77.08273827407757, -12.072274051414679 ], [ -77.082746003831531, -12.072272801276783 ], [ -77.082753796919548, -12.072272019889448 ], [ -77.082757265386718, -12.072271672806204 ], [ -77.08276074976223, -12.072271557355203 ], [ -77.082764234094441, -12.072271674065005 ], [ -77.082767702431894, -12.072272022401279 ], [ -77.082771138896348, -12.072272600769331 ], [ -77.082774527755504, -12.072273406521386 ], [ -77.082777853494989, -12.07227443596862 ], [ -77.082781306704106, -12.072276207437445 ], [ -77.08278293958945, -12.072277253039582 ], [ -77.082784500930856, -12.072278399617568 ], [ -77.082785984291661, -12.072279642444629 ], [ -77.082788692957593, -12.072282395976087 ], [ -77.082789907096227, -12.072283895329052 ], [ -77.082791020967363, -12.072285468275023 ], [ -77.082792310570127, -12.072287445141148 ], [ -77.082793477192354, -12.07228949467518 ], [ -77.082794516621007, -12.072291609475647 ], [ -77.082795425102418, -12.072293781905447 ], [ -77.082813204937196, -12.072347247613866 ], [ -77.082812683488754, -12.072347423494731 ], [ -77.082846938100545, -12.072449059562029 ], [ -77.082847593998352, -12.072448845551385 ], [ -77.082865718659633, -12.072502672845609 ], [ -77.08294337145766, -12.072481769946728 ], [ -77.082907297484539, -12.072373442194262 ], [ -77.082652614596952, -12.071617207165872 ], [ -77.0825707866762, -12.071374750800498 ], [ -77.082550307581712, -12.071314081186365 ], [ -77.082529773432739, -12.071253218758175 ], [ -77.082499102489152, -12.071162447264964 ], [ -77.082474294381868, -12.071094964211094 ], [ -77.082437737904428, -12.070980294164562 ], [ -77.08240149259035, -12.070879547219995 ], [ -77.082385172331271, -12.070824412997691 ], [ -77.082364653136324, -12.07076358152942 ], [ -77.082312041739343, -12.070612623015963 ], [ -77.082293186339669, -12.070551514710706 ], [ -77.082252188780302, -12.070430103213269 ], [ -77.082221491868509, -12.070339175571396 ], [ -77.082201012757508, -12.07027847716353 ], [ -77.08216876967964, -12.070187920704162 ], [ -77.08213822881379, -12.070096863604563 ], [ -77.082119354222257, -12.070035758459229 ], [ -77.082109104318164, -12.070005466870683 ], [ -77.08209742416777, -12.069975664143419 ], [ -77.082088866186282, -12.069944720799839 ], [ -77.08207649589059, -12.06990808591793 ], [ -77.082005252747507, -12.069873433499193 ], [ -77.081961173931973, -12.069741643619929 ], [ -77.081957939742637, -12.069734877081711 ], [ -77.081955020616775, -12.069730796826624 ], [ -77.081951555130374, -12.069727154084958 ], [ -77.081949638023048, -12.069725519117698 ], [ -77.081947610160029, -12.069724019154007 ], [ -77.081945481336547, -12.069722661439153 ], [ -77.08194326183542, -12.069721452531313 ], [ -77.081940962377573, -12.069720398269906 ], [ -77.081938594070053, -12.069719503747326 ], [ -77.081936168352527, -12.069718773284404 ], [ -77.081931191776064, -12.069717817841434 ] ] ] ] } },
{ "type": "Feature", "properties": { "id": 1, "ZONA": "Zona1", "Area": 91242.754 }, "geometry": { "type": "MultiPolygon", "coordinates": [ [ [ [ -77.078049096413466, -12.069388227116226 ], [ -77.078057808698276, -12.069363702224305 ], [ -77.078088245325873, -12.069293470428677 ], [ -77.078093689850633, -12.069284648774195 ], [ -77.07810994460371, -12.069253104658062 ], [ -77.078139464987274, -12.069221291405798 ], [ -77.078162149821054, -12.069206132633596 ], [ -77.078180847405847, -12.069198714173577 ], [ -77.078202417829246, -12.069193859852529 ], [ -77.078315194681906, -12.069188146448354 ], [ -77.078354902665708, -12.069192168715363 ], [ -77.078391044457547, -12.069202521385689 ], [ -77.078428285855026, -12.06922044966403 ], [ -77.078446748549325, -12.069233303959519 ], [ -77.078463637507312, -12.069248050937393 ], [ -77.078471468964239, -12.06925602747835 ], [ -77.078488763841577, -12.069275600529748 ], [ -77.07849775362051, -12.069290525208228 ], [ -77.078503281620115, -12.069300367876833 ], [ -77.078510063401993, -12.069311851841295 ], [ -77.078512671459336, -12.069320865148304 ], [ -77.078522034996183, -12.069348108438493 ], [ -77.078523533139702, -12.069363943954693 ], [ -77.078524105650956, -12.069366530239639 ], [ -77.079745173877726, -12.069257515764285 ], [ -77.079694207309046, -12.068711307846472 ], [ -77.079695489282599, -12.06866894283781 ], [ -77.079705922200489, -12.068352980460631 ], [ -77.079711127751125, -12.068089308700211 ], [ -77.079715768897742, -12.067961020193863 ], [ -77.079718764708005, -12.067827993839758 ], [ -77.079723118851746, -12.067662498033092 ], [ -77.079727862106751, -12.067443164377265 ], [ -77.079736281684461, -12.067152946967031 ], [ -77.079709635034831, -12.067089132359538 ], [ -77.079701530481401, -12.066998213723148 ], [ -77.079655305842948, -12.066950315325352 ], [ -77.079697775070954, -12.066910727426006 ], [ -77.079668232436831, -12.066880052389923 ], [ -77.079669075852664, -12.066879439608771 ], [ -77.07966987378262, -12.066878770415785 ], [ -77.079670622339236, -12.066878048071199 ], [ -77.079671317875622, -12.066877276094205 ], [ -77.079671957003214, -12.066876458245799 ], [ -77.079672536608243, -12.066875598510451 ], [ -77.079673053866912, -12.066874701076721 ], [ -77.079673506259198, -12.066873770316798 ], [ -77.079673891581095, -12.066872810765258 ], [ -77.079674207955378, -12.066871827096925 ], [ -77.079674453840667, -12.066870824104161 ], [ -77.079674628039044, -12.06686980667345 ], [ -77.079674729701836, -12.066868779761567 ], [ -77.079674758333766, -12.066867748371568 ], [ -77.079674713795313, -12.066866717528258 ], [ -77.079674596303491, -12.066865692253803 ], [ -77.079674406430712, -12.066864677543256 ], [ -77.07967414510199, -12.066863678340161 ], [ -77.079673813590531, -12.066862699512535 ], [ -77.079673413511387, -12.06686174582914 ], [ -77.07967294681373, -12.066860821936237 ], [ -77.079672415771242, -12.066859932334918 ], [ -77.07967182297115, -12.06685908135923 ], [ -77.07967117130147, -12.066858273155049 ], [ -77.079670463937106, -12.066857511659867 ], [ -77.079669704324232, -12.066856800583599 ], [ -77.079669351773276, -12.066856502359462 ], [ -77.079699996850366, -12.066827834419792 ], [ -77.079659439654279, -12.066785838693647 ], [ -77.079704036262115, -12.066745050376941 ], [ -77.079674649389617, -12.066715197582644 ], [ -77.079675130219698, -12.066714846611971 ], [ -77.0796759281492, -12.066714177419041 ], [ -77.079676676705418, -12.066713455074508 ], [ -77.079677372241449, -12.066712683097562 ], [ -77.079678011368699, -12.0667118652492 ], [ -77.07967859097343, -12.066711005513891 ], [ -77.079679108231858, -12.066710108080194 ], [ -77.079679560623944, -12.066709177320304 ], [ -77.079679945945699, -12.066708217768781 ], [ -77.079680508205072, -12.06670623110772 ], [ -77.079680682403421, -12.066705213677013 ], [ -77.079680812698228, -12.066703155375123 ], [ -77.079680768159903, -12.066702124531806 ], [ -77.079680650668237, -12.066701099257328 ], [ -77.079680460795657, -12.066700084546763 ], [ -77.079680199467177, -12.06669908534364 ], [ -77.079679867955988, -12.066698106515981 ], [ -77.079679467877185, -12.066697152832552 ], [ -77.079679001179869, -12.066696228939596 ], [ -77.079678470137807, -12.066695339338237 ], [ -77.079677877338128, -12.066694488362494 ], [ -77.079677225668917, -12.066693680158256 ], [ -77.079676518305035, -12.066692918663012 ], [ -77.079675529515853, -12.066692018600859 ], [ -77.079706202434622, -12.066661872659111 ], [ -77.079665693424971, -12.066619905794941 ], [ -77.079708333671789, -12.066580036517125 ], [ -77.079680138238857, -12.066550826366353 ], [ -77.079681046173903, -12.06655008953639 ], [ -77.079681900303413, -12.066549292820367 ], [ -77.07968269655828, -12.066548440013893 ], [ -77.079683431145099, -12.066547535179765 ], [ -77.079684100564251, -12.066546582628671 ], [ -77.079684701626618, -12.066545586898622 ], [ -77.079685231468687, -12.066544552733296 ], [ -77.079685687566268, -12.066543485059542 ], [ -77.079686067746493, -12.066542388963798 ], [ -77.079686370198161, -12.066541269667921 ], [ -77.079686593480389, -12.066540132504285 ], [ -77.079686736529439, -12.066538982890398 ], [ -77.079686798663815, -12.066537826303113 ], [ -77.079686779587519, -12.066536668252418 ], [ -77.079686679391429, -12.066535514255369 ], [ -77.079686498552874, -12.066534369809631 ], [ -77.079686237933402, -12.066533240367431 ], [ -77.079685898774599, -12.066532131309463 ], [ -77.079685482692227, -12.066531047919351 ], [ -77.07968442804281, -12.066528978641129 ], [ -77.07968379450017, -12.066528002611147 ], [ -77.079683094058851, -12.066527071918363 ], [ -77.079682330055775, -12.066526190996619 ], [ -77.079681506130711, -12.066525364042667 ], [ -77.079680626208869, -12.06652459499619 ], [ -77.079710305043676, -12.066496844827324 ], [ -77.07966859875286, -12.066455420165193 ], [ -77.079712436286798, -12.066415008684821 ], [ -77.079684240873831, -12.066385798531345 ], [ -77.079685975315371, -12.066384352390925 ], [ -77.079686764423684, -12.066383546426783 ], [ -77.079688168521997, -12.066381786986199 ], [ -77.079689319687361, -12.066379857817866 ], [ -77.079689793705739, -12.06637884041626 ], [ -77.079690527865324, -12.066376723048103 ], [ -77.079690784674042, -12.06637563269274 ], [ -77.079691071926064, -12.066373413363682 ], [ -77.079691053588448, -12.066371176172556 ], [ -77.079690729993743, -12.066368961693557 ], [ -77.079690455344959, -12.066367875557892 ], [ -77.079689686572294, -12.066365770122868 ], [ -77.07968919593803, -12.066364760380472 ], [ -77.079688013298963, -12.066362849742255 ], [ -77.079686580542131, -12.066361112825946 ], [ -77.079685778324972, -12.066360319496725 ], [ -77.079684347202942, -12.066359478322541 ], [ -77.079821563024723, -12.066231845938097 ], [ -77.079725001747946, -12.066132038412439 ], [ -77.079738172981109, -12.066080269935229 ], [ -77.079764939596942, -12.065975065853255 ], [ -77.079738333329914, -12.065968626863206 ], [ -77.079772848694176, -12.065832474443543 ], [ -77.079732631809406, -12.065823492017724 ], [ -77.079700725508346, -12.065815596098702 ], [ -77.079707789914252, -12.065790452167535 ], [ -77.079734023489294, -12.065686236074898 ], [ -77.079749559145625, -12.065628788172509 ], [ -77.079487459512251, -12.065565685941085 ], [ -77.079688141255502, -12.064721114472254 ], [ -77.079702118918092, -12.064666447034258 ], [ -77.078983548783242, -12.064494656380814 ], [ -77.078594218940552, -12.064402047221856 ], [ -77.078562617078518, -12.064396792335245 ], [ -77.078536125596131, -12.064398178478447 ], [ -77.078507276967585, -12.064403309840861 ], [ -77.078489936060151, -12.064408999486465 ], [ -77.078454389394807, -12.064429276960103 ], [ -77.078433340875861, -12.064447875733148 ], [ -77.078413340552501, -12.064472741435386 ], [ -77.078401219797257, -12.064495764035586 ], [ -77.078392998657421, -12.064519706953362 ], [ -77.078386512504906, -12.064551686594802 ], [ -77.078362359007826, -12.064664127269181 ], [ -77.078315186992199, -12.064889016838519 ], [ -77.078304418619808, -12.064944713906529 ], [ -77.078272928002406, -12.065115684348211 ], [ -77.078252716922762, -12.065228915400713 ], [ -77.078214183284942, -12.065454320154078 ], [ -77.078188791364795, -12.065625673359623 ], [ -77.078165299847356, -12.065796532444709 ], [ -77.078141426218323, -12.065967068271204 ], [ -77.078134502841976, -12.066020981025973 ], [ -77.078120443620094, -12.066138247227244 ], [ -77.078094473840281, -12.066366636333795 ], [ -77.078071563531083, -12.066595294915144 ], [ -77.078067146975698, -12.066650195383861 ], [ -77.078062736135081, -12.066707654955653 ], [ -77.078056380615905, -12.066820379737619 ], [ -77.078049000179192, -12.066933389530044 ], [ -77.078037193620659, -12.06713562471394 ], [ -77.07803313966086, -12.06716039282888 ], [ -77.078027593152271, -12.0672792507378 ], [ -77.078019702003914, -12.067465512248647 ], [ -77.07801378037729, -12.067565958528984 ], [ -77.078011158592773, -12.067683906038878 ], [ -77.078005711175607, -12.067909107290088 ], [ -77.07800449336473, -12.068016406081 ], [ -77.078003589150626, -12.068154520292039 ], [ -77.078001740458021, -12.068312714345023 ], [ -77.078008850789985, -12.068541636224348 ], [ -77.07802016030567, -12.068876107810935 ], [ -77.078027185967017, -12.069030523180116 ], [ -77.078040144287129, -12.069241744541459 ], [ -77.078049096413466, -12.069388227116226 ] ] ] ] } },
{ "type": "Feature", "properties": { "id": 4, "ZONA": "Zona4", "Area": 118736.055 }, "geometry": { "type": "MultiPolygon", "coordinates": [ [ [ [ -77.079702118918092, -12.064666447034258 ], [ -77.079487459512251, -12.065565685941085 ], [ -77.079749559145625, -12.065628788172509 ], [ -77.079700725508346, -12.065815596098702 ], [ -77.079772848694176, -12.065832474443543 ], [ -77.079738333329914, -12.065968626863206 ], [ -77.079764939596942, -12.065975065853255 ], [ -77.079725001747946, -12.066132038412439 ], [ -77.079821563024723, -12.066231845938097 ], [ -77.079684347202942, -12.066359478322541 ], [ -77.079685778324972, -12.066360319496725 ], [ -77.079686580542131, -12.066361112825946 ], [ -77.079688013298963, -12.066362849742255 ], [ -77.079688637335039, -12.066363785445136 ], [ -77.07968919593803, -12.066364760380472 ], [ -77.079689686572294, -12.066365770122868 ], [ -77.079690455344959, -12.066367875557892 ], [ -77.079690729993743, -12.066368961693557 ], [ -77.079691053588448, -12.066371176172556 ], [ -77.079691071926064, -12.066373413363682 ], [ -77.079690784674042, -12.06637563269274 ], [ -77.079690527865324, -12.066376723048103 ], [ -77.079689793705739, -12.06637884041626 ], [ -77.079689319687361, -12.066379857817866 ], [ -77.079688168521997, -12.066381786986199 ], [ -77.079686764423684, -12.066383546426783 ], [ -77.079685975315371, -12.066384352390925 ], [ -77.079684240873831, -12.066385798531345 ], [ -77.079712436286798, -12.066415008684821 ], [ -77.07966859875286, -12.066455420165193 ], [ -77.079710305043676, -12.066496844827324 ], [ -77.079680626208869, -12.06652459499619 ], [ -77.079681506130711, -12.066525364042667 ], [ -77.079682330055775, -12.066526190996619 ], [ -77.079683094058851, -12.066527071918363 ], [ -77.07968379450017, -12.066528002611147 ], [ -77.07968442804281, -12.066528978641129 ], [ -77.079685482692227, -12.066531047919351 ], [ -77.079685898774599, -12.066532131309463 ], [ -77.079686237933402, -12.066533240367431 ], [ -77.079686498552874, -12.066534369809631 ], [ -77.079686679391429, -12.066535514255369 ], [ -77.079686779587519, -12.066536668252418 ], [ -77.079686798663815, -12.066537826303113 ], [ -77.079686736529439, -12.066538982890398 ], [ -77.079686370198161, -12.066541269667921 ], [ -77.079686067746493, -12.066542388963798 ], [ -77.079685687566268, -12.066543485059542 ], [ -77.079685231468687, -12.066544552733296 ], [ -77.079684701626618, -12.066545586898622 ], [ -77.079684100564251, -12.066546582628671 ], [ -77.079683431145099, -12.066547535179765 ], [ -77.07968269655828, -12.066548440013893 ], [ -77.079681900303413, -12.066549292820367 ], [ -77.079681046173903, -12.06655008953639 ], [ -77.079680138238857, -12.066550826366353 ], [ -77.079708333671789, -12.066580036517125 ], [ -77.079665693424971, -12.066619905794941 ], [ -77.079706202434622, -12.066661872659111 ], [ -77.079675529515853, -12.066692018600859 ], [ -77.079676518305035, -12.066692918663012 ], [ -77.079677877338128, -12.066694488362494 ], [ -77.079678470137807, -12.066695339338237 ], [ -77.079679001179869, -12.066696228939596 ], [ -77.079679467877185, -12.066697152832552 ], [ -77.079679867955988, -12.066698106515981 ], [ -77.079680199467177, -12.06669908534364 ], [ -77.079680460795657, -12.066700084546763 ], [ -77.079680650668237, -12.066701099257328 ], [ -77.079680768159903, -12.066702124531806 ], [ -77.079680812698228, -12.066703155375123 ], [ -77.079680682403421, -12.066705213677013 ], [ -77.079680508205072, -12.06670623110772 ], [ -77.079679945945699, -12.066708217768781 ], [ -77.079679560623944, -12.066709177320304 ], [ -77.079679108231858, -12.066710108080194 ], [ -77.07967859097343, -12.066711005513891 ], [ -77.079678011368699, -12.0667118652492 ], [ -77.079677372241449, -12.066712683097562 ], [ -77.079676676705418, -12.066713455074508 ], [ -77.0796759281492, -12.066714177419041 ], [ -77.079675130219698, -12.066714846611971 ], [ -77.079674649389617, -12.066715197582644 ], [ -77.079704036262115, -12.066745050376941 ], [ -77.079659439654279, -12.066785838693647 ], [ -77.079699996850366, -12.066827834419792 ], [ -77.079669351773276, -12.066856502359462 ], [ -77.079669704324232, -12.066856800583599 ], [ -77.079670463937106, -12.066857511659867 ], [ -77.07967117130147, -12.066858273155049 ], [ -77.07967182297115, -12.06685908135923 ], [ -77.079672415771242, -12.066859932334918 ], [ -77.07967294681373, -12.066860821936237 ], [ -77.079673413511387, -12.06686174582914 ], [ -77.079673813590531, -12.066862699512535 ], [ -77.07967414510199, -12.066863678340161 ], [ -77.079674596303491, -12.066865692253803 ], [ -77.079674758333766, -12.066867748371568 ], [ -77.079674628039044, -12.06686980667345 ], [ -77.079674453840667, -12.066870824104161 ], [ -77.079674207955378, -12.066871827096925 ], [ -77.079673891581095, -12.066872810765258 ], [ -77.079673506259198, -12.066873770316798 ], [ -77.079673053866912, -12.066874701076721 ], [ -77.079672536608243, -12.066875598510451 ], [ -77.079671957003214, -12.066876458245799 ], [ -77.079671317875622, -12.066877276094205 ], [ -77.079670622339236, -12.066878048071199 ], [ -77.07966987378262, -12.066878770415785 ], [ -77.079669075852664, -12.066879439608771 ], [ -77.079668182908193, -12.066880085668128 ], [ -77.079697775070954, -12.066910727426006 ], [ -77.079655305842948, -12.066950315325352 ], [ -77.079701530481401, -12.066998213723148 ], [ -77.079709635034831, -12.067089132359538 ], [ -77.079736281684461, -12.067152946967031 ], [ -77.079727862106751, -12.067443164377265 ], [ -77.079723118851746, -12.067662498033092 ], [ -77.079718764708005, -12.067827993839758 ], [ -77.079715768897742, -12.067961020193863 ], [ -77.079711127751125, -12.068089308700211 ], [ -77.079705922200489, -12.068352980460631 ], [ -77.079694207309046, -12.068711307846472 ], [ -77.079745173877726, -12.069257515764285 ], [ -77.079804173125083, -12.069896882818329 ], [ -77.079825276224682, -12.0698952379455 ], [ -77.0798703272594, -12.06984198206251 ], [ -77.080088755395863, -12.069821261805938 ], [ -77.080099802274404, -12.069942371179851 ], [ -77.080125702876174, -12.069963367721394 ], [ -77.080268236303638, -12.069950356127265 ], [ -77.080266741965659, -12.069933973496408 ], [ -77.080294355415518, -12.069931452711076 ], [ -77.080291850816181, -12.069919155921157 ], [ -77.080378310840928, -12.069818080168233 ], [ -77.080424395199699, -12.069819156806354 ], [ -77.080414638989382, -12.069707329544713 ], [ -77.080426475365911, -12.069708997935413 ], [ -77.080586862577462, -12.069695074225667 ], [ -77.080589295591338, -12.069724802330844 ], [ -77.080679769130029, -12.069716619236583 ], [ -77.080679083064766, -12.069707424088618 ], [ -77.080695362464198, -12.069705951656578 ], [ -77.08069536822461, -12.069715208336406 ], [ -77.080873212181245, -12.06969987510929 ], [ -77.080865752564435, -12.06962139140072 ], [ -77.080932888208181, -12.069615508883448 ], [ -77.080944419128841, -12.069611755924093 ], [ -77.081050099556691, -12.069602845997737 ], [ -77.081056440810386, -12.069666985464849 ], [ -77.08111780025061, -12.069678693497858 ], [ -77.081131711331579, -12.069833484520045 ], [ -77.081161903732024, -12.069830937124541 ], [ -77.081161508192309, -12.069826396861131 ], [ -77.081220522622573, -12.069821444240342 ], [ -77.081220879450669, -12.069825541324816 ], [ -77.081370648408793, -12.069812871312983 ], [ -77.08137029157848, -12.069808774229083 ], [ -77.081467545320621, -12.069800546806553 ], [ -77.08146234577498, -12.069740846446161 ], [ -77.081501869391232, -12.069737502839144 ], [ -77.081739712945691, -12.069776817780975 ], [ -77.081746366669933, -12.06977306708132 ], [ -77.081905939856782, -12.069721859006806 ], [ -77.081916133574708, -12.069719086665746 ], [ -77.081918585562818, -12.069718446779673 ], [ -77.081923595217347, -12.069717676776657 ], [ -77.081928664955512, -12.069717597476489 ], [ -77.081931191776064, -12.069717817841434 ], [ -77.081933696941988, -12.069718210409476 ], [ -77.081936168352527, -12.069718773284404 ], [ -77.081938594070053, -12.069719503747326 ], [ -77.081940962377573, -12.069720398269906 ], [ -77.08194326183542, -12.069721452531313 ], [ -77.081945481336547, -12.069722661439153 ], [ -77.081947610160029, -12.069724019154007 ], [ -77.081949638023048, -12.069725519117698 ], [ -77.081951555130374, -12.069727154084958 ], [ -77.081955020616775, -12.069730796826624 ], [ -77.081957939742637, -12.069734877081711 ], [ -77.081961173931973, -12.069741643619929 ], [ -77.082005252747507, -12.069873433499193 ], [ -77.082073751055475, -12.06990686040159 ], [ -77.081947150606794, -12.069523295433171 ], [ -77.08189760281131, -12.069356266528118 ], [ -77.081879188862558, -12.069297123306987 ], [ -77.081861943373411, -12.069235525878689 ], [ -77.081853641178256, -12.069204753276116 ], [ -77.081845384964211, -12.069173864207038 ], [ -77.081838780502125, -12.069142667219479 ], [ -77.081830911929501, -12.069111713521316 ], [ -77.081823209539692, -12.069080772232422 ], [ -77.081815634896614, -12.069049758224493 ], [ -77.081808051069473, -12.069018696748726 ], [ -77.08180063042181, -12.068987619691764 ], [ -77.08179341065572, -12.068956327376265 ], [ -77.081785663438751, -12.068925117717557 ], [ -77.081778908715521, -12.068894740637074 ], [ -77.081770623891018, -12.06886359423784 ], [ -77.081763902204031, -12.068832331614528 ], [ -77.081758819085422, -12.068800751657761 ], [ -77.081752379668657, -12.068769477351244 ], [ -77.08174465548656, -12.068738498273488 ], [ -77.081740065963288, -12.068706838487616 ], [ -77.081729206892135, -12.068668645317608 ], [ -77.081727927164508, -12.068644242921103 ], [ -77.081720576958972, -12.068613193399884 ], [ -77.081715051742606, -12.068581924838934 ], [ -77.0817113284334, -12.06855010661757 ], [ -77.081704390650614, -12.06851886928867 ], [ -77.081700962888078, -12.06848713835741 ], [ -77.081694276966559, -12.06845576936807 ], [ -77.081688910456663, -12.068423341243209 ], [ -77.081682542258406, -12.068369699871209 ], [ -77.081676573834287, -12.068337341169297 ], [ -77.08167218568812, -12.068305556214641 ], [ -77.081667675913806, -12.068273860542607 ], [ -77.081663462963618, -12.068242399686254 ], [ -77.081661162521598, -12.068210565936338 ], [ -77.08165574041081, -12.068179054795566 ], [ -77.081652196544667, -12.068147427104428 ], [ -77.081648709218939, -12.068115547157152 ], [ -77.081645056207535, -12.068083881472624 ], [ -77.081641848971003, -12.068052274360181 ], [ -77.081640376515608, -12.068020257219167 ], [ -77.081637381943594, -12.067988547167101 ], [ -77.081632853188111, -12.067956916561515 ], [ -77.081630098576696, -12.067925031198584 ], [ -77.081629122243996, -12.067893165713409 ], [ -77.081626763490576, -12.067861216271133 ], [ -77.081622611585132, -12.067829590442344 ], [ -77.081622140879659, -12.067797691773526 ], [ -77.081618507192289, -12.067765979502333 ], [ -77.081616849531812, -12.067734147206352 ], [ -77.081615068417477, -12.067702291487157 ], [ -77.081612255303654, -12.067665026975574 ], [ -77.081612137383487, -12.067638465494742 ], [ -77.08161243539233, -12.067606620892827 ], [ -77.081611426762208, -12.067574479912375 ], [ -77.081608708799067, -12.067542407164829 ], [ -77.081607952260597, -12.067514023641573 ], [ -77.081606944342397, -12.067470677391995 ], [ -77.081606175269627, -12.067426065927419 ], [ -77.081606928416448, -12.067355919867447 ], [ -77.081606332992934, -12.067232259761273 ], [ -77.081606236342409, -12.067174979485427 ], [ -77.081608200239657, -12.067093446322902 ], [ -77.081609853630809, -12.067066430724836 ], [ -77.081610599874907, -12.06700529561985 ], [ -77.081613519125185, -12.066947856890918 ], [ -77.081619441191663, -12.066890703697918 ], [ -77.081622328033305, -12.066833450864983 ], [ -77.081626700014198, -12.066776020045269 ], [ -77.081630184394712, -12.066718681326682 ], [ -77.081637753080201, -12.066650419748072 ], [ -77.081641615628911, -12.066621077600516 ], [ -77.081643187705083, -12.066603923959686 ], [ -77.081648556261925, -12.066546763434751 ], [ -77.081652852021477, -12.066493005545665 ], [ -77.081655768923355, -12.066466858270703 ], [ -77.081660935142338, -12.066432525108532 ], [ -77.081662855917486, -12.066416642352321 ], [ -77.081663803574983, -12.066408601327982 ], [ -77.081664767045723, -12.0663926058761 ], [ -77.081667809351899, -12.066369146138527 ], [ -77.081675051761238, -12.066318939618816 ], [ -77.081677804292411, -12.066298594750712 ], [ -77.081684950607084, -12.066251612878645 ], [ -77.081693045612994, -12.066205288849419 ], [ -77.081694786635808, -12.066188927268225 ], [ -77.081702150235628, -12.066148601616767 ], [ -77.081704975350291, -12.066126187359016 ], [ -77.081711490534062, -12.066091806965018 ], [ -77.081716741629037, -12.066064533122834 ], [ -77.081723727547711, -12.066018930939084 ], [ -77.081727811291685, -12.066004098612124 ], [ -77.081732151816126, -12.065976778338856 ], [ -77.081772418996479, -12.065761077523366 ], [ -77.081775003630682, -12.065752774762808 ], [ -77.081818792937469, -12.065527243920069 ], [ -77.081828712962221, -12.06547308522663 ], [ -77.081832726791845, -12.06545365753237 ], [ -77.081835011486561, -12.065435006613336 ], [ -77.081836507621759, -12.065416060186132 ], [ -77.08183627387524, -12.065396684737978 ], [ -77.081834279070563, -12.065377765926904 ], [ -77.081832025946227, -12.065358976240592 ], [ -77.081828182816466, -12.065340127443227 ], [ -77.081823013785865, -12.065321790323654 ], [ -77.081815558360006, -12.06530137669513 ], [ -77.081808717673511, -12.065285628471319 ], [ -77.081799805670272, -12.065268205531448 ], [ -77.081788923152942, -12.065250284711821 ], [ -77.08177756859142, -12.06523706915894 ], [ -77.081765431853981, -12.065221915699258 ], [ -77.081753565920067, -12.065207563089457 ], [ -77.081739442449646, -12.065192903082933 ], [ -77.081725153513858, -12.065181943890746 ], [ -77.081707864546658, -12.065168288591753 ], [ -77.081693498211777, -12.065159164576883 ], [ -77.081675883121449, -12.065149462605065 ], [ -77.081599202029778, -12.065122819085973 ], [ -77.08097926727244, -12.064974981978416 ], [ -77.080704142626232, -12.064908176633065 ], [ -77.079702118918092, -12.064666447034258 ] ] ] ] } }
]
}
