{
"type": "FeatureCollection",
"name": "bebedero Tipo fuente",
"crs": { "type": "name", "properties": { "name": "urn:ogc:def:crs:OGC:1.3:CRS84" } },
"features": [
{ "type": "Feature", "properties": { "id": "5BBF1686ED000004", "Name": "PT_bb1", "descriptio": "<table><tbody><tr style=\"background-color: rgb(221, 221, 255);\"><td>ID<br></td><td>PT_bb1<br></td></tr><tr><td>Latitude<br></td><td>-12.0675652<br></td></tr><tr style=\"background-color: rgb(221, 221, 255);\"><td>Longitude<br></td><td>-77.0783493<br></td><", "timestamp": null, "begin": null, "end": null, "altitudeMo": null, "tessellate": -1, "extrude": 0, "visibility": -1, "drawOrder": null, "icon": null, "COL5BBEBE8": null, "COL5BBEB_1": null, "COL5BBEB_2": null, "COL5BBEB_3": null, "COL5BBEB_4": null, "COL5BBEB_5": null, "COL5BBEB_6": null, "COL5BBEB_7": null, "COL5BBEB_8": null, "COL5BBEB_9": null, "COL5BBEB10": null, "COL5BBEB11": null, "COL5BBEB12": null, "COL5BBF168": "PT_bb1", "COL5BBF1_1": "-12.0675652", "COL5BBF1_2": "-77.0783493", "COL5BBF1_3": "Maestranza - Salida del baño", "COL5BBF1_4": "operativo", "COL5BBF1_5": "CAMPUS", "COL5BBEB13": null, "COL5BBF1C0": null }, "geometry": { "type": "Point", "coordinates": [ -77.078331289481426, -12.067576775679489, 0.0 ] } },
{ "type": "Feature", "properties": { "id": "5BBF1686ED000005", "Name": "PT_bb10", "descriptio": "<table><tbody><tr style=\"background-color: rgb(221, 221, 255);\"><td>ID<br></td><td>PT_bb10<br></td></tr><tr><td>Latitude<br></td><td>-12.0662886<br></td></tr><tr style=\"background-color: rgb(221, 221, 255);\"><td>Longitude<br></td><td>-77.0802928<br></td>", "timestamp": null, "begin": null, "end": null, "altitudeMo": null, "tessellate": -1, "extrude": 0, "visibility": -1, "drawOrder": null, "icon": null, "COL5BBEBE8": null, "COL5BBEB_1": null, "COL5BBEB_2": null, "COL5BBEB_3": null, "COL5BBEB_4": null, "COL5BBEB_5": null, "COL5BBEB_6": null, "COL5BBEB_7": null, "COL5BBEB_8": null, "COL5BBEB_9": null, "COL5BBEB10": null, "COL5BBEB11": null, "COL5BBEB12": null, "COL5BBF168": "PT_bb10", "COL5BBF1_1": "-12.0662886", "COL5BBF1_2": "-77.0802928", "COL5BBF1_3": "Polideportivo - Entre puerta de Danza aeróbicos e Ingreso Oeste", "COL5BBF1_4": "operativo", "COL5BBF1_5": "CAMPUS", "COL5BBEB13": null, "COL5BBF1C0": null }, "geometry": { "type": "Point", "coordinates": [ -77.080372955756573, -12.06639014905771, 0.0 ] } },
{ "type": "Feature", "properties": { "id": "5BBF1686ED000006", "Name": "PT_bb11", "descriptio": "<table><tbody><tr style=\"background-color: rgb(221, 221, 255);\"><td>ID<br></td><td>PT_bb11<br></td></tr><tr><td>Latitude<br></td><td>-12.0666967<br></td></tr><tr style=\"background-color: rgb(221, 221, 255);\"><td>Longitude<br></td><td>-77.0804033<br></td>", "timestamp": null, "begin": null, "end": null, "altitudeMo": null, "tessellate": -1, "extrude": 0, "visibility": -1, "drawOrder": null, "icon": null, "COL5BBEBE8": null, "COL5BBEB_1": null, "COL5BBEB_2": null, "COL5BBEB_3": null, "COL5BBEB_4": null, "COL5BBEB_5": null, "COL5BBEB_6": null, "COL5BBEB_7": null, "COL5BBEB_8": null, "COL5BBEB_9": null, "COL5BBEB10": null, "COL5BBEB11": null, "COL5BBEB12": null, "COL5BBF168": "PT_bb11", "COL5BBF1_1": "-12.0666967", "COL5BBF1_2": "-77.0804033", "COL5BBF1_3": "Polideportivo - Entre puerta de Danza aeróbicos e Ingreso Oeste", "COL5BBF1_4": "operativo", "COL5BBF1_5": "CAMPUS", "COL5BBEB13": null, "COL5BBF1C0": null }, "geometry": { "type": "Point", "coordinates": [ -77.080389741302909, -12.06658384423816, 0.0 ] } },
{ "type": "Feature", "properties": { "id": "5BBF1686ED000007", "Name": "PT_bb12", "descriptio": "<table><tbody><tr style=\"background-color: rgb(221, 221, 255);\"><td>ID<br></td><td>PT_bb12<br></td></tr><tr><td>Latitude<br></td><td>-12.0666050<br></td></tr><tr style=\"background-color: rgb(221, 221, 255);\"><td>Longitude<br></td><td>-77.0803917<br></td>", "timestamp": null, "begin": null, "end": null, "altitudeMo": null, "tessellate": -1, "extrude": 0, "visibility": -1, "drawOrder": null, "icon": null, "COL5BBEBE8": null, "COL5BBEB_1": null, "COL5BBEB_2": null, "COL5BBEB_3": null, "COL5BBEB_4": null, "COL5BBEB_5": null, "COL5BBEB_6": null, "COL5BBEB_7": null, "COL5BBEB_8": null, "COL5BBEB_9": null, "COL5BBEB10": null, "COL5BBEB11": null, "COL5BBEB12": null, "COL5BBF168": "PT_bb12", "COL5BBF1_1": "-12.0666050", "COL5BBF1_2": "-77.0803917", "COL5BBF1_3": "Polideportivo - Entre puerta de Danza aeróbicos e Ingreso Oeste", "COL5BBF1_4": "operativo", "COL5BBF1_5": "CAMPUS", "COL5BBEB13": null, "COL5BBF1C0": null }, "geometry": { "type": "Point", "coordinates": [ -77.080372823236587, -12.06658308536295, 0.0 ] } },
{ "type": "Feature", "properties": { "id": "5BBF1686ED000008", "Name": "PT_bb13", "descriptio": "<table><tbody><tr style=\"background-color: rgb(221, 221, 255);\"><td>ID<br></td><td>PT_bb13<br></td></tr><tr><td>Latitude<br></td><td>-12.0670450<br></td></tr><tr style=\"background-color: rgb(221, 221, 255);\"><td>Longitude<br></td><td>-77.0803283<br></td>", "timestamp": null, "begin": null, "end": null, "altitudeMo": null, "tessellate": -1, "extrude": 0, "visibility": -1, "drawOrder": null, "icon": null, "COL5BBEBE8": null, "COL5BBEB_1": null, "COL5BBEB_2": null, "COL5BBEB_3": null, "COL5BBEB_4": null, "COL5BBEB_5": null, "COL5BBEB_6": null, "COL5BBEB_7": null, "COL5BBEB_8": null, "COL5BBEB_9": null, "COL5BBEB10": null, "COL5BBEB11": null, "COL5BBEB12": null, "COL5BBF168": "PT_bb13", "COL5BBF1_1": "-12.0670450", "COL5BBF1_2": "-77.0803283", "COL5BBF1_3": "Polideportivo - Entre puerta de Tenis de Mesa y  Puerta 2", "COL5BBF1_4": "operativo", "COL5BBF1_5": "CAMPUS", "COL5BBEB13": null, "COL5BBF1C0": null }, "geometry": { "type": "Point", "coordinates": [ -77.080247823892805, -12.06700167589886, 0.0 ] } },
{ "type": "Feature", "properties": { "id": "5BBF1686ED000009", "Name": "PT_bb14", "descriptio": "<table><tbody><tr style=\"background-color: rgb(221, 221, 255);\"><td>ID<br></td><td>PT_bb14<br></td></tr><tr><td>Latitude<br></td><td>-12.0670167<br></td></tr><tr style=\"background-color: rgb(221, 221, 255);\"><td>Longitude<br></td><td>-77.080305<br></td><", "timestamp": null, "begin": null, "end": null, "altitudeMo": null, "tessellate": -1, "extrude": 0, "visibility": -1, "drawOrder": null, "icon": null, "COL5BBEBE8": null, "COL5BBEB_1": null, "COL5BBEB_2": null, "COL5BBEB_3": null, "COL5BBEB_4": null, "COL5BBEB_5": null, "COL5BBEB_6": null, "COL5BBEB_7": null, "COL5BBEB_8": null, "COL5BBEB_9": null, "COL5BBEB10": null, "COL5BBEB11": null, "COL5BBEB12": null, "COL5BBF168": "PT_bb14", "COL5BBF1_1": "-12.0670167", "COL5BBF1_2": "-77.080305", "COL5BBF1_3": "Polideportivo - Entre puerta de Tenis de Mesa y  Puerta 2", "COL5BBF1_4": "operativo", "COL5BBF1_5": "CAMPUS", "COL5BBEB13": null, "COL5BBF1C0": null }, "geometry": { "type": "Point", "coordinates": [ -77.080240701724094, -12.067001778337699, 0.0 ] } },
{ "type": "Feature", "properties": { "id": "5BBF1686ED00000A", "Name": "PT_bb15", "descriptio": "<table><tbody><tr style=\"background-color: rgb(221, 221, 255);\"><td>ID<br></td><td>PT_bb15<br></td></tr><tr><td>Latitude<br></td><td>-12.0670017<br></td></tr><tr style=\"background-color: rgb(221, 221, 255);\"><td>Longitude<br></td><td>-77.0803067<br></td>", "timestamp": null, "begin": null, "end": null, "altitudeMo": null, "tessellate": -1, "extrude": 0, "visibility": -1, "drawOrder": null, "icon": null, "COL5BBEBE8": null, "COL5BBEB_1": null, "COL5BBEB_2": null, "COL5BBEB_3": null, "COL5BBEB_4": null, "COL5BBEB_5": null, "COL5BBEB_6": null, "COL5BBEB_7": null, "COL5BBEB_8": null, "COL5BBEB_9": null, "COL5BBEB10": null, "COL5BBEB11": null, "COL5BBEB12": null, "COL5BBF168": "PT_bb15", "COL5BBF1_1": "-12.0670017", "COL5BBF1_2": "-77.0803067", "COL5BBF1_3": "Polideportivo - Entre puerta de Tenis de Mesa y  Puerta 2", "COL5BBF1_4": "operativo", "COL5BBF1_5": "CAMPUS", "COL5BBEB13": null, "COL5BBF1C0": null }, "geometry": { "type": "Point", "coordinates": [ -77.080233669364873, -12.06700127246107, 0.0 ] } },
{ "type": "Feature", "properties": { "id": "5BBF1686ED00000B", "Name": "PT_bb16", "descriptio": "<table><tbody><tr style=\"background-color: rgb(221, 221, 255);\"><td>ID<br></td><td>PT_bb16<br></td></tr><tr><td>Latitude<br></td><td>-12.0670433<br></td></tr><tr style=\"background-color: rgb(221, 221, 255);\"><td>Longitude<br></td><td>-77.0796467<br></td>", "timestamp": null, "begin": null, "end": null, "altitudeMo": null, "tessellate": -1, "extrude": 0, "visibility": -1, "drawOrder": null, "icon": null, "COL5BBEBE8": null, "COL5BBEB_1": null, "COL5BBEB_2": null, "COL5BBEB_3": null, "COL5BBEB_4": null, "COL5BBEB_5": null, "COL5BBEB_6": null, "COL5BBEB_7": null, "COL5BBEB_8": null, "COL5BBEB_9": null, "COL5BBEB10": null, "COL5BBEB11": null, "COL5BBEB12": null, "COL5BBF168": "PT_bb16", "COL5BBF1_1": "-12.0670433", "COL5BBF1_2": "-77.0796467", "COL5BBF1_3": "Polideportivo - Ingreso 3", "COL5BBF1_4": "operativo", "COL5BBF1_5": "CAMPUS", "COL5BBEB13": null, "COL5BBF1C0": null }, "geometry": { "type": "Point", "coordinates": [ -77.079993077651451, -12.0669192740457, 0.0 ] } },
{ "type": "Feature", "properties": { "id": "5BBF1686ED00000C", "Name": "PT_bb17", "descriptio": "<table><tbody><tr style=\"background-color: rgb(221, 221, 255);\"><td>ID<br></td><td>PT_bb17<br></td></tr><tr><td>Latitude<br></td><td>-12.0670583<br></td></tr><tr style=\"background-color: rgb(221, 221, 255);\"><td>Longitude<br></td><td>-77.079755<br></td><", "timestamp": null, "begin": null, "end": null, "altitudeMo": null, "tessellate": -1, "extrude": 0, "visibility": -1, "drawOrder": null, "icon": null, "COL5BBEBE8": null, "COL5BBEB_1": null, "COL5BBEB_2": null, "COL5BBEB_3": null, "COL5BBEB_4": null, "COL5BBEB_5": null, "COL5BBEB_6": null, "COL5BBEB_7": null, "COL5BBEB_8": null, "COL5BBEB_9": null, "COL5BBEB10": null, "COL5BBEB11": null, "COL5BBEB12": null, "COL5BBF168": "PT_bb17", "COL5BBF1_1": "-12.0670583", "COL5BBF1_2": "-77.079755", "COL5BBF1_3": "Polideportivo - Ingreso 3", "COL5BBF1_4": "operativo", "COL5BBF1_5": "CAMPUS", "COL5BBEB13": null, "COL5BBF1C0": null }, "geometry": { "type": "Point", "coordinates": [ -77.079984428129592, -12.06691957936814, 0.0 ] } },
{ "type": "Feature", "properties": { "id": "5BBF1686ED00000D", "Name": "PT_bb18", "descriptio": "<table><tbody><tr style=\"background-color: rgb(221, 221, 255);\"><td>ID<br></td><td>PT_bb18<br></td></tr><tr><td>Latitude<br></td><td>-12.0670717<br></td></tr><tr style=\"background-color: rgb(221, 221, 255);\"><td>Longitude<br></td><td>-77.0798383<br></td>", "timestamp": null, "begin": null, "end": null, "altitudeMo": null, "tessellate": -1, "extrude": 0, "visibility": -1, "drawOrder": null, "icon": null, "COL5BBEBE8": null, "COL5BBEB_1": null, "COL5BBEB_2": null, "COL5BBEB_3": null, "COL5BBEB_4": null, "COL5BBEB_5": null, "COL5BBEB_6": null, "COL5BBEB_7": null, "COL5BBEB_8": null, "COL5BBEB_9": null, "COL5BBEB10": null, "COL5BBEB11": null, "COL5BBEB12": null, "COL5BBF168": "PT_bb18", "COL5BBF1_1": "-12.0670717", "COL5BBF1_2": "-77.0798383", "COL5BBF1_3": "Polideportivo - Ingreso 3", "COL5BBF1_4": "operativo", "COL5BBF1_5": "CAMPUS", "COL5BBEB13": null, "COL5BBF1C0": null }, "geometry": { "type": "Point", "coordinates": [ -77.079975534073412, -12.06691930448109, 0.0 ] } },
{ "type": "Feature", "properties": { "id": "5BBF1686ED00000E", "Name": "PT_bb19", "descriptio": "<table><tbody><tr style=\"background-color: rgb(221, 221, 255);\"><td>ID<br></td><td>PT_bb19<br></td></tr><tr><td>Latitude<br></td><td>-12.0666881<br></td></tr><tr style=\"background-color: rgb(221, 221, 255);\"><td>Longitude<br></td><td>-77.0798288<br></td>", "timestamp": null, "begin": null, "end": null, "altitudeMo": null, "tessellate": -1, "extrude": 0, "visibility": -1, "drawOrder": null, "icon": null, "COL5BBEBE8": null, "COL5BBEB_1": null, "COL5BBEB_2": null, "COL5BBEB_3": null, "COL5BBEB_4": null, "COL5BBEB_5": null, "COL5BBEB_6": null, "COL5BBEB_7": null, "COL5BBEB_8": null, "COL5BBEB_9": null, "COL5BBEB10": null, "COL5BBEB11": null, "COL5BBEB12": null, "COL5BBF168": "PT_bb19", "COL5BBF1_1": "-12.0666881", "COL5BBF1_2": "-77.0798288", "COL5BBF1_3": "Polideportivo - Entre Puerta Artes Mariciales  y Puerta  Oeste", "COL5BBF1_4": "operativo", "COL5BBF1_5": "CAMPUS", "COL5BBEB13": null, "COL5BBF1C0": null }, "geometry": { "type": "Point", "coordinates": [ -77.079901920804588, -12.066673672895821, 0.0 ] } },
{ "type": "Feature", "properties": { "id": "5BBF1686ED00000F", "Name": "PT_bb2", "descriptio": "<table><tbody><tr style=\"background-color: rgb(221, 221, 255);\"><td>ID<br></td><td>PT_bb2<br></td></tr><tr><td>Latitude<br></td><td>-12.0653638<br></td></tr><tr style=\"background-color: rgb(221, 221, 255);\"><td>Longitude<br></td><td>-77.0784419<br></td><", "timestamp": null, "begin": null, "end": null, "altitudeMo": null, "tessellate": -1, "extrude": 0, "visibility": -1, "drawOrder": null, "icon": null, "COL5BBEBE8": null, "COL5BBEB_1": null, "COL5BBEB_2": null, "COL5BBEB_3": null, "COL5BBEB_4": null, "COL5BBEB_5": null, "COL5BBEB_6": null, "COL5BBEB_7": null, "COL5BBEB_8": null, "COL5BBEB_9": null, "COL5BBEB10": null, "COL5BBEB11": null, "COL5BBEB12": null, "COL5BBF168": "PT_bb2", "COL5BBF1_1": "-12.0653638", "COL5BBF1_2": "-77.0784419", "COL5BBF1_3": "Bebedero entre los salones en el pasaje principal", "COL5BBF1_4": "operativo", "COL5BBF1_5": "CAMPUS", "COL5BBEB13": null, "COL5BBF1C0": null }, "geometry": { "type": "Point", "coordinates": [ -77.0784419, -12.0653638, 0.0 ] } },
{ "type": "Feature", "properties": { "id": "5BBF1686ED000010", "Name": "PT_bb20", "descriptio": "<table><tbody><tr style=\"background-color: rgb(221, 221, 255);\"><td>ID<br></td><td>PT_bb20<br></td></tr><tr><td>Latitude<br></td><td>-12.0666747<br></td></tr><tr style=\"background-color: rgb(221, 221, 255);\"><td>Longitude<br></td><td>-77.079913<br></td><", "timestamp": null, "begin": null, "end": null, "altitudeMo": null, "tessellate": -1, "extrude": 0, "visibility": -1, "drawOrder": null, "icon": null, "COL5BBEBE8": null, "COL5BBEB_1": null, "COL5BBEB_2": null, "COL5BBEB_3": null, "COL5BBEB_4": null, "COL5BBEB_5": null, "COL5BBEB_6": null, "COL5BBEB_7": null, "COL5BBEB_8": null, "COL5BBEB_9": null, "COL5BBEB10": null, "COL5BBEB11": null, "COL5BBEB12": null, "COL5BBF168": "PT_bb20", "COL5BBF1_1": "-12.0666747", "COL5BBF1_2": "-77.079913", "COL5BBF1_3": "Polideportivo - Entre Puerta Artes Mariciales  y Puerta  Oeste", "COL5BBF1_4": "operativo", "COL5BBF1_5": "CAMPUS", "COL5BBEB13": null, "COL5BBF1C0": null }, "geometry": { "type": "Point", "coordinates": [ -77.079913, -12.0666747, 0.0 ] } },
{ "type": "Feature", "properties": { "id": "5BBF1686ED000011", "Name": "PT_bb21", "descriptio": "<table><tbody><tr style=\"background-color: rgb(221, 221, 255);\"><td>ID<br></td><td>PT_bb21<br></td></tr><tr><td>Latitude<br></td><td>-12.0663698<br></td></tr><tr style=\"background-color: rgb(221, 221, 255);\"><td>Longitude<br></td><td>-77.0798377<br></td>", "timestamp": null, "begin": null, "end": null, "altitudeMo": null, "tessellate": -1, "extrude": 0, "visibility": -1, "drawOrder": null, "icon": null, "COL5BBEBE8": null, "COL5BBEB_1": null, "COL5BBEB_2": null, "COL5BBEB_3": null, "COL5BBEB_4": null, "COL5BBEB_5": null, "COL5BBEB_6": null, "COL5BBEB_7": null, "COL5BBEB_8": null, "COL5BBEB_9": null, "COL5BBEB10": null, "COL5BBEB11": null, "COL5BBEB12": null, "COL5BBF168": "PT_bb21", "COL5BBF1_1": "-12.0663698", "COL5BBF1_2": "-77.0798377", "COL5BBF1_3": "Polideportivo - Entre Puerta Artes Mariciales  y Puerta  4", "COL5BBF1_4": "operativo", "COL5BBF1_5": "CAMPUS", "COL5BBEB13": null, "COL5BBF1C0": null }, "geometry": { "type": "Point", "coordinates": [ -77.079897783457895, -12.066372141366941, 0.0 ] } },
{ "type": "Feature", "properties": { "id": "5BBF1686ED000012", "Name": "PT_bb22", "descriptio": "<table><tbody><tr style=\"background-color: rgb(221, 221, 255);\"><td>ID<br></td><td>PT_bb22<br></td></tr><tr><td>Latitude<br></td><td>-12.0662921<br></td></tr><tr style=\"background-color: rgb(221, 221, 255);\"><td>Longitude<br></td><td>-77.0798965<br></td>", "timestamp": null, "begin": null, "end": null, "altitudeMo": null, "tessellate": -1, "extrude": 0, "visibility": -1, "drawOrder": null, "icon": null, "COL5BBEBE8": null, "COL5BBEB_1": null, "COL5BBEB_2": null, "COL5BBEB_3": null, "COL5BBEB_4": null, "COL5BBEB_5": null, "COL5BBEB_6": null, "COL5BBEB_7": null, "COL5BBEB_8": null, "COL5BBEB_9": null, "COL5BBEB10": null, "COL5BBEB11": null, "COL5BBEB12": null, "COL5BBF168": "PT_bb22", "COL5BBF1_1": "-12.0662921", "COL5BBF1_2": "-77.0798965", "COL5BBF1_3": "Polideportivo - Entre Puerta Artes Mariciales  y Puerta  4", "COL5BBF1_4": "operativo", "COL5BBF1_5": "CAMPUS", "COL5BBEB13": null, "COL5BBF1C0": null }, "geometry": { "type": "Point", "coordinates": [ -77.079917627213419, -12.06637451894342, 0.0 ] } },
{ "type": "Feature", "properties": { "id": "5BBF1686ED000013", "Name": "PT_bb25v1", "descriptio": "<table><tbody><tr style=\"background-color: rgb(221, 221, 255);\"><td>ID<br></td><td>PT_bb25v1<br></td></tr><tr><td>Latitude<br></td><td>-12.0675646<br></td></tr><tr style=\"background-color: rgb(221, 221, 255);\"><td>Longitude<br></td><td>-77.0803992<br></t", "timestamp": null, "begin": null, "end": null, "altitudeMo": null, "tessellate": -1, "extrude": 0, "visibility": -1, "drawOrder": null, "icon": null, "COL5BBEBE8": null, "COL5BBEB_1": null, "COL5BBEB_2": null, "COL5BBEB_3": null, "COL5BBEB_4": null, "COL5BBEB_5": null, "COL5BBEB_6": null, "COL5BBEB_7": null, "COL5BBEB_8": null, "COL5BBEB_9": null, "COL5BBEB10": null, "COL5BBEB11": null, "COL5BBEB12": null, "COL5BBF168": "PT_bb25v1", "COL5BBF1_1": "-12.0675646", "COL5BBF1_2": "-77.0803992", "COL5BBF1_3": "EEGGLL - Bebedero Piso 1 - Baño Varones", "COL5BBF1_4": "operativo", "COL5BBF1_5": "EEGGLL", "COL5BBEB13": null, "COL5BBF1C0": null }, "geometry": { "type": "Point", "coordinates": [ -77.080434100355845, -12.06777288464316, 0.0 ] } },
{ "type": "Feature", "properties": { "id": "5BBF1686ED000014", "Name": "PT_bb26m1", "descriptio": "<table><tbody><tr style=\"background-color: rgb(221, 221, 255);\"><td>ID<br></td><td>PT_bb26m1<br></td></tr><tr><td>Latitude<br></td><td>-12.0673470<br></td></tr><tr style=\"background-color: rgb(221, 221, 255);\"><td>Longitude<br></td><td>-77.0804194<br></t", "timestamp": null, "begin": null, "end": null, "altitudeMo": null, "tessellate": -1, "extrude": 0, "visibility": -1, "drawOrder": null, "icon": null, "COL5BBEBE8": null, "COL5BBEB_1": null, "COL5BBEB_2": null, "COL5BBEB_3": null, "COL5BBEB_4": null, "COL5BBEB_5": null, "COL5BBEB_6": null, "COL5BBEB_7": null, "COL5BBEB_8": null, "COL5BBEB_9": null, "COL5BBEB10": null, "COL5BBEB11": null, "COL5BBEB12": null, "COL5BBF168": "PT_bb26m1", "COL5BBF1_1": "-12.0673470", "COL5BBF1_2": "-77.0804194", "COL5BBF1_3": "EEGGLL - Bebedero Piso 1 - Baño Mujeres", "COL5BBF1_4": "operativo", "COL5BBF1_5": "EEGGLL", "COL5BBEB13": null, "COL5BBF1C0": null }, "geometry": { "type": "Point", "coordinates": [ -77.080433432178793, -12.06734051152695, 0.0 ] } },
{ "type": "Feature", "properties": { "id": "5BBF1686ED000016", "Name": "PT_bb27p2", "descriptio": "<table><tbody><tr style=\"background-color: rgb(221, 221, 255);\"><td>ID<br></td><td>PT_bb27p2<br></td></tr><tr><td>Latitude<br></td><td>-12.0674237<br></td></tr><tr style=\"background-color: rgb(221, 221, 255);\"><td>Longitude<br></td><td>-77.080146<br></td", "timestamp": null, "begin": null, "end": null, "altitudeMo": null, "tessellate": -1, "extrude": 0, "visibility": -1, "drawOrder": null, "icon": null, "COL5BBEBE8": null, "COL5BBEB_1": null, "COL5BBEB_2": null, "COL5BBEB_3": null, "COL5BBEB_4": null, "COL5BBEB_5": null, "COL5BBEB_6": null, "COL5BBEB_7": null, "COL5BBEB_8": null, "COL5BBEB_9": null, "COL5BBEB10": null, "COL5BBEB11": null, "COL5BBEB12": null, "COL5BBF168": "PT_bb27p2", "COL5BBF1_1": "-12.0674237", "COL5BBF1_2": "-77.080146", "COL5BBF1_3": "EEGGLL - Bebedero Piso 2", "COL5BBF1_4": "operativo", "COL5BBF1_5": "EEGGLL", "COL5BBEB13": null, "COL5BBF1C0": null }, "geometry": { "type": "Point", "coordinates": [ -77.080402457213751, -12.06734467259249, 0.0 ] } },
{ "type": "Feature", "properties": { "id": "5BBF1686ED00001C", "Name": "PT_bb36", "descriptio": "<table><tbody><tr style=\"background-color: rgb(221, 221, 255);\"><td>ID<br></td><td>PT_bb36<br></td></tr><tr><td>Latitude<br></td><td>-12.0698031<br></td></tr><tr style=\"background-color: rgb(221, 221, 255);\"><td>Longitude<br></td><td>-77.0810951<br></td>", "timestamp": null, "begin": null, "end": null, "altitudeMo": null, "tessellate": -1, "extrude": 0, "visibility": -1, "drawOrder": null, "icon": null, "COL5BBEBE8": null, "COL5BBEB_1": null, "COL5BBEB_2": null, "COL5BBEB_3": null, "COL5BBEB_4": null, "COL5BBEB_5": null, "COL5BBEB_6": null, "COL5BBEB_7": null, "COL5BBEB_8": null, "COL5BBEB_9": null, "COL5BBEB10": null, "COL5BBEB11": null, "COL5BBEB12": null, "COL5BBF168": "PT_bb36", "COL5BBF1_1": "-12.0698031", "COL5BBF1_2": "-77.0810951", "COL5BBF1_3": "Pasadizo entre Facultad de Letras y Humanidades y Facultad de Derecho", "COL5BBF1_4": "operativo", "COL5BBF1_5": "CAMPUS", "COL5BBEB13": null, "COL5BBF1C0": null }, "geometry": { "type": "Point", "coordinates": [ -77.081155654919016, -12.06979331418662, 0.0 ] } },
{ "type": "Feature", "properties": { "id": "5BBF1686ED00001D", "Name": "PT_bb37", "descriptio": "<table><tbody><tr style=\"background-color: rgb(221, 221, 255);\"><td>ID<br></td><td>PT_bb37<br></td></tr><tr><td>Latitude<br></td><td>-12.0698435<br></td></tr><tr style=\"background-color: rgb(221, 221, 255);\"><td>Longitude<br></td><td>-77.0808464<br></td>", "timestamp": null, "begin": null, "end": null, "altitudeMo": null, "tessellate": -1, "extrude": 0, "visibility": -1, "drawOrder": null, "icon": null, "COL5BBEBE8": null, "COL5BBEB_1": null, "COL5BBEB_2": null, "COL5BBEB_3": null, "COL5BBEB_4": null, "COL5BBEB_5": null, "COL5BBEB_6": null, "COL5BBEB_7": null, "COL5BBEB_8": null, "COL5BBEB_9": null, "COL5BBEB10": null, "COL5BBEB11": null, "COL5BBEB12": null, "COL5BBF168": "PT_bb37", "COL5BBF1_1": "-12.0698435", "COL5BBF1_2": "-77.0808464", "COL5BBF1_3": "Facultad de Derecho - Piso 1 - Al lado del ascesor de Personas con Discapacidad", "COL5BBF1_4": "operativo", "COL5BBF1_5": "CAMPUS", "COL5BBEB13": null, "COL5BBF1C0": null }, "geometry": { "type": "Point", "coordinates": [ -77.0808464, -12.0698435, 0.0 ] } },
{ "type": "Feature", "properties": { "id": "5BBF1686ED000020", "Name": "PT_bb42", "descriptio": "<table><tbody><tr style=\"background-color: rgb(221, 221, 255);\"><td>ID<br></td><td>PT_bb42<br></td></tr><tr><td>Latitude<br></td><td>-12.0702114<br></td></tr><tr style=\"background-color: rgb(221, 221, 255);\"><td>Longitude<br></td><td>-77.0788441<br></td>", "timestamp": null, "begin": null, "end": null, "altitudeMo": null, "tessellate": -1, "extrude": 0, "visibility": -1, "drawOrder": null, "icon": null, "COL5BBEBE8": null, "COL5BBEB_1": null, "COL5BBEB_2": null, "COL5BBEB_3": null, "COL5BBEB_4": null, "COL5BBEB_5": null, "COL5BBEB_6": null, "COL5BBEB_7": null, "COL5BBEB_8": null, "COL5BBEB_9": null, "COL5BBEB10": null, "COL5BBEB11": null, "COL5BBEB12": null, "COL5BBF168": "PT_bb42", "COL5BBF1_1": "-12.0702114", "COL5BBF1_2": "-77.0788441", "COL5BBF1_3": "Facultad de Artes Antiguas", "COL5BBF1_4": "operativo", "COL5BBF1_5": "CAMPUS", "COL5BBEB13": null, "COL5BBF1C0": null }, "geometry": { "type": "Point", "coordinates": [ -77.078894878143956, -12.07026771171277, 0.0 ] } },
{ "type": "Feature", "properties": { "id": "5BBF1686ED000022", "Name": "PT_bb46p1", "descriptio": "<table><tbody><tr style=\"background-color: rgb(221, 221, 255);\"><td>ID<br></td><td>PT_bb46p1<br></td></tr><tr><td>Latitude<br></td><td>-12.0710832<br></td></tr><tr style=\"background-color: rgb(221, 221, 255);\"><td>Longitude<br></td><td>-77.0795535<br></t", "timestamp": null, "begin": null, "end": null, "altitudeMo": null, "tessellate": -1, "extrude": 0, "visibility": -1, "drawOrder": null, "icon": null, "COL5BBEBE8": null, "COL5BBEB_1": null, "COL5BBEB_2": null, "COL5BBEB_3": null, "COL5BBEB_4": null, "COL5BBEB_5": null, "COL5BBEB_6": null, "COL5BBEB_7": null, "COL5BBEB_8": null, "COL5BBEB_9": null, "COL5BBEB10": null, "COL5BBEB11": null, "COL5BBEB12": null, "COL5BBF168": "PT_bb46p1", "COL5BBF1_1": "-12.0710832", "COL5BBF1_2": "-77.0795535", "COL5BBF1_3": "EEGGCC - Piso 1", "COL5BBF1_4": "operativo", "COL5BBF1_5": "EEGGCC", "COL5BBEB13": null, "COL5BBF1C0": null }, "geometry": { "type": "Point", "coordinates": [ -77.079578101566284, -12.07127182594118, 0.0 ] } },
{ "type": "Feature", "properties": { "id": "5BBF1686ED000023", "Name": "PT_bb47p2", "descriptio": "<table><tbody><tr style=\"background-color: rgb(221, 221, 255);\"><td>ID<br></td><td>PT_bb47p2<br></td></tr><tr><td>Latitude<br></td><td>-12.0712255<br></td></tr><tr style=\"background-color: rgb(221, 221, 255);\"><td>Longitude<br></td><td>-77.0795937<br></t", "timestamp": null, "begin": null, "end": null, "altitudeMo": null, "tessellate": -1, "extrude": 0, "visibility": -1, "drawOrder": null, "icon": null, "COL5BBEBE8": null, "COL5BBEB_1": null, "COL5BBEB_2": null, "COL5BBEB_3": null, "COL5BBEB_4": null, "COL5BBEB_5": null, "COL5BBEB_6": null, "COL5BBEB_7": null, "COL5BBEB_8": null, "COL5BBEB_9": null, "COL5BBEB10": null, "COL5BBEB11": null, "COL5BBEB12": null, "COL5BBF168": "PT_bb47p2", "COL5BBF1_1": "-12.0712255", "COL5BBF1_2": "-77.0795937", "COL5BBF1_3": "EEGGCC - Piso 2", "COL5BBF1_4": "operativo", "COL5BBF1_5": "EEGGCC", "COL5BBEB13": null, "COL5BBF1C0": null }, "geometry": { "type": "Point", "coordinates": [ -77.079556649898052, -12.071231615569429, 0.0 ] } },
{ "type": "Feature", "properties": { "id": "5BBF1686ED000024", "Name": "PT_bb48p3", "descriptio": "<table><tbody><tr style=\"background-color: rgb(221, 221, 255);\"><td>ID<br></td><td>PT_bb48p3<br></td></tr><tr><td>Latitude<br></td><td>-12.0711883<br></td></tr><tr style=\"background-color: rgb(221, 221, 255);\"><td>Longitude<br></td><td>-77.0794583<br></t", "timestamp": null, "begin": null, "end": null, "altitudeMo": null, "tessellate": -1, "extrude": 0, "visibility": -1, "drawOrder": null, "icon": null, "COL5BBEBE8": null, "COL5BBEB_1": null, "COL5BBEB_2": null, "COL5BBEB_3": null, "COL5BBEB_4": null, "COL5BBEB_5": null, "COL5BBEB_6": null, "COL5BBEB_7": null, "COL5BBEB_8": null, "COL5BBEB_9": null, "COL5BBEB10": null, "COL5BBEB11": null, "COL5BBEB12": null, "COL5BBF168": "PT_bb48p3", "COL5BBF1_1": "-12.0711883", "COL5BBF1_2": "-77.0794583", "COL5BBF1_3": "EEGGCC - Piso 3", "COL5BBF1_4": "operativo", "COL5BBF1_5": "EEGGCC", "COL5BBEB13": null, "COL5BBF1C0": null }, "geometry": { "type": "Point", "coordinates": [ -77.079526475397131, -12.07116390811631, 0.0 ] } },
{ "type": "Feature", "properties": { "id": "5BBF1686ED000025", "Name": "PT_bb50s1", "descriptio": "<table><tbody><tr style=\"background-color: rgb(221, 221, 255);\"><td>ID<br></td><td>PT_bb50s1<br></td></tr><tr><td>Latitude<br></td><td>-12.0719774<br></td></tr><tr style=\"background-color: rgb(221, 221, 255);\"><td>Longitude<br></td><td>-77.0802827<br></t", "timestamp": null, "begin": null, "end": null, "altitudeMo": null, "tessellate": -1, "extrude": 0, "visibility": -1, "drawOrder": null, "icon": null, "COL5BBEBE8": null, "COL5BBEB_1": null, "COL5BBEB_2": null, "COL5BBEB_3": null, "COL5BBEB_4": null, "COL5BBEB_5": null, "COL5BBEB_6": null, "COL5BBEB_7": null, "COL5BBEB_8": null, "COL5BBEB_9": null, "COL5BBEB10": null, "COL5BBEB11": null, "COL5BBEB12": null, "COL5BBF168": "PT_bb50s1", "COL5BBF1_1": "-12.0719774", "COL5BBF1_2": "-77.0802827", "COL5BBF1_3": "CIA - Sotano 1", "COL5BBF1_4": "operativo", "COL5BBF1_5": "CIA", "COL5BBEB13": null, "COL5BBF1C0": null }, "geometry": { "type": "Point", "coordinates": [ -77.0802827, -12.0719774, 0.0 ] } },
{ "type": "Feature", "properties": { "id": "5BBF1686ED000026", "Name": "PT_bb51p2", "descriptio": "<table><tbody><tr style=\"background-color: rgb(221, 221, 255);\"><td>ID<br></td><td>PT_bb51p2<br></td></tr><tr><td>Latitude<br></td><td>-12.0719812<br></td></tr><tr style=\"background-color: rgb(221, 221, 255);\"><td>Longitude<br></td><td>-77.0802789<br></t", "timestamp": null, "begin": null, "end": null, "altitudeMo": null, "tessellate": -1, "extrude": 0, "visibility": -1, "drawOrder": null, "icon": null, "COL5BBEBE8": null, "COL5BBEB_1": null, "COL5BBEB_2": null, "COL5BBEB_3": null, "COL5BBEB_4": null, "COL5BBEB_5": null, "COL5BBEB_6": null, "COL5BBEB_7": null, "COL5BBEB_8": null, "COL5BBEB_9": null, "COL5BBEB10": null, "COL5BBEB11": null, "COL5BBEB12": null, "COL5BBF168": "PT_bb51p2", "COL5BBF1_1": "-12.0719812", "COL5BBF1_2": "-77.0802789", "COL5BBF1_3": "CIA - Piso 2", "COL5BBF1_4": "operativo", "COL5BBF1_5": "CIA", "COL5BBEB13": null, "COL5BBF1C0": null }, "geometry": { "type": "Point", "coordinates": [ -77.0802789, -12.0719812, 0.0 ] } },
{ "type": "Feature", "properties": { "id": "5BBF1686ED000027", "Name": "PT_bb52p3", "descriptio": "<table><tbody><tr style=\"background-color: rgb(221, 221, 255);\"><td>ID<br></td><td>PT_bb52p3<br></td></tr><tr><td>Latitude<br></td><td>-12.0720012<br></td></tr><tr style=\"background-color: rgb(221, 221, 255);\"><td>Longitude<br></td><td>-77.0802839<br></t", "timestamp": null, "begin": null, "end": null, "altitudeMo": null, "tessellate": -1, "extrude": 0, "visibility": -1, "drawOrder": null, "icon": null, "COL5BBEBE8": null, "COL5BBEB_1": null, "COL5BBEB_2": null, "COL5BBEB_3": null, "COL5BBEB_4": null, "COL5BBEB_5": null, "COL5BBEB_6": null, "COL5BBEB_7": null, "COL5BBEB_8": null, "COL5BBEB_9": null, "COL5BBEB10": null, "COL5BBEB11": null, "COL5BBEB12": null, "COL5BBF168": "PT_bb52p3", "COL5BBF1_1": "-12.0720012", "COL5BBF1_2": "-77.0802839", "COL5BBF1_3": "CIA - Piso 3", "COL5BBF1_4": "operativo", "COL5BBF1_5": "CIA", "COL5BBEB13": null, "COL5BBF1C0": null }, "geometry": { "type": "Point", "coordinates": [ -77.0802839, -12.0720012, 0.0 ] } },
{ "type": "Feature", "properties": { "id": "5BBF1686ED000028", "Name": "PT_bb53p4", "descriptio": "<table><tbody><tr style=\"background-color: rgb(221, 221, 255);\"><td>ID<br></td><td>PT_bb53p4<br></td></tr><tr><td>Latitude<br></td><td>-12.0720198<br></td></tr><tr style=\"background-color: rgb(221, 221, 255);\"><td>Longitude<br></td><td>-77.0802244<br></t", "timestamp": null, "begin": null, "end": null, "altitudeMo": null, "tessellate": -1, "extrude": 0, "visibility": -1, "drawOrder": null, "icon": null, "COL5BBEBE8": null, "COL5BBEB_1": null, "COL5BBEB_2": null, "COL5BBEB_3": null, "COL5BBEB_4": null, "COL5BBEB_5": null, "COL5BBEB_6": null, "COL5BBEB_7": null, "COL5BBEB_8": null, "COL5BBEB_9": null, "COL5BBEB10": null, "COL5BBEB11": null, "COL5BBEB12": null, "COL5BBF168": "PT_bb53p4", "COL5BBF1_1": "-12.0720198", "COL5BBF1_2": "-77.0802244", "COL5BBF1_3": "CIA - Piso 4", "COL5BBF1_4": "operativo", "COL5BBF1_5": "CIA", "COL5BBEB13": null, "COL5BBF1C0": null }, "geometry": { "type": "Point", "coordinates": [ -77.080281195031986, -12.071990661970011, 0.0 ] } },
{ "type": "Feature", "properties": { "id": "5BBF1686ED000029", "Name": "PT_bb55p2", "descriptio": "<table><tbody><tr style=\"background-color: rgb(221, 221, 255);\"><td>ID<br></td><td>PT_bb55p2<br></td></tr><tr><td>Latitude<br></td><td>-12.0727157<br></td></tr><tr style=\"background-color: rgb(221, 221, 255);\"><td>Longitude<br></td><td>-77.0792636<br></t", "timestamp": null, "begin": null, "end": null, "altitudeMo": null, "tessellate": -1, "extrude": 0, "visibility": -1, "drawOrder": null, "icon": null, "COL5BBEBE8": null, "COL5BBEB_1": null, "COL5BBEB_2": null, "COL5BBEB_3": null, "COL5BBEB_4": null, "COL5BBEB_5": null, "COL5BBEB_6": null, "COL5BBEB_7": null, "COL5BBEB_8": null, "COL5BBEB_9": null, "COL5BBEB10": null, "COL5BBEB11": null, "COL5BBEB12": null, "COL5BBF168": "PT_bb55p2", "COL5BBF1_1": "-12.0727157", "COL5BBF1_2": "-77.0792636", "COL5BBF1_3": "Bebedero piso 2", "COL5BBF1_4": "operativo", "COL5BBF1_5": "AULARIO", "COL5BBEB13": null, "COL5BBF1C0": null }, "geometry": { "type": "Point", "coordinates": [ -77.079264642203341, -12.072780900372051, 0.0 ] } },
{ "type": "Feature", "properties": { "id": "5BBF1686ED00002A", "Name": "PT_bb56p3", "descriptio": "<table><tbody><tr style=\"background-color: rgb(221, 221, 255);\"><td>ID<br></td><td>PT_bb56p3<br></td></tr><tr><td>Latitude<br></td><td>-12.0727348<br></td></tr><tr style=\"background-color: rgb(221, 221, 255);\"><td>Longitude<br></td><td>-77.079253<br></td", "timestamp": null, "begin": null, "end": null, "altitudeMo": null, "tessellate": -1, "extrude": 0, "visibility": -1, "drawOrder": null, "icon": null, "COL5BBEBE8": null, "COL5BBEB_1": null, "COL5BBEB_2": null, "COL5BBEB_3": null, "COL5BBEB_4": null, "COL5BBEB_5": null, "COL5BBEB_6": null, "COL5BBEB_7": null, "COL5BBEB_8": null, "COL5BBEB_9": null, "COL5BBEB10": null, "COL5BBEB11": null, "COL5BBEB12": null, "COL5BBF168": "PT_bb56p3", "COL5BBF1_1": "-12.0727348", "COL5BBF1_2": "-77.079253", "COL5BBF1_3": "Bebedero piso 3", "COL5BBF1_4": "operativo", "COL5BBF1_5": "AULARIO", "COL5BBEB13": null, "COL5BBF1C0": null }, "geometry": { "type": "Point", "coordinates": [ -77.079260614722401, -12.0727697584858, 0.0 ] } },
{ "type": "Feature", "properties": { "id": "5BBF1686ED00002B", "Name": "PT_bb57p4", "descriptio": "<table><tbody><tr style=\"background-color: rgb(221, 221, 255);\"><td>ID<br></td><td>PT_bb57p4<br></td></tr><tr><td>Latitude<br></td><td>-12.0721848<br></td></tr><tr style=\"background-color: rgb(221, 221, 255);\"><td>Longitude<br></td><td>-77.0790566<br></t", "timestamp": null, "begin": null, "end": null, "altitudeMo": null, "tessellate": -1, "extrude": 0, "visibility": -1, "drawOrder": null, "icon": null, "COL5BBEBE8": null, "COL5BBEB_1": null, "COL5BBEB_2": null, "COL5BBEB_3": null, "COL5BBEB_4": null, "COL5BBEB_5": null, "COL5BBEB_6": null, "COL5BBEB_7": null, "COL5BBEB_8": null, "COL5BBEB_9": null, "COL5BBEB10": null, "COL5BBEB11": null, "COL5BBEB12": null, "COL5BBF168": "PT_bb57p4", "COL5BBF1_1": "-12.0721848", "COL5BBF1_2": "-77.0790566", "COL5BBF1_3": "Bebedero piso 4", "COL5BBF1_4": "operativo", "COL5BBF1_5": "AULARIO", "COL5BBEB13": null, "COL5BBF1C0": null }, "geometry": { "type": "Point", "coordinates": [ -77.079255997839908, -12.072762324130739, 0.0 ] } },
{ "type": "Feature", "properties": { "id": "5BBF1686ED00002C", "Name": "PT_bb58p5", "descriptio": "<table><tbody><tr style=\"background-color: rgb(221, 221, 255);\"><td>ID<br></td><td>PT_bb58p5<br></td></tr><tr><td>Latitude<br></td><td>-12.0725909<br></td></tr><tr style=\"background-color: rgb(221, 221, 255);\"><td>Longitude<br></td><td>-77.0791869<br></t", "timestamp": null, "begin": null, "end": null, "altitudeMo": null, "tessellate": -1, "extrude": 0, "visibility": -1, "drawOrder": null, "icon": null, "COL5BBEBE8": null, "COL5BBEB_1": null, "COL5BBEB_2": null, "COL5BBEB_3": null, "COL5BBEB_4": null, "COL5BBEB_5": null, "COL5BBEB_6": null, "COL5BBEB_7": null, "COL5BBEB_8": null, "COL5BBEB_9": null, "COL5BBEB10": null, "COL5BBEB11": null, "COL5BBEB12": null, "COL5BBF168": "PT_bb58p5", "COL5BBF1_1": "-12.0725909", "COL5BBF1_2": "-77.0791869", "COL5BBF1_3": "Bebedero piso 5", "COL5BBF1_4": "operativo", "COL5BBF1_5": "AULARIO", "COL5BBEB13": null, "COL5BBF1C0": null }, "geometry": { "type": "Point", "coordinates": [ -77.079253082724421, -12.07275530519491, 0.0 ] } },
{ "type": "Feature", "properties": { "id": "5BBF1686ED00002D", "Name": "PT_bb59p6", "descriptio": "<table><tbody><tr style=\"background-color: rgb(221, 221, 255);\"><td>ID<br></td><td>PT_bb59p6<br></td></tr><tr><td>Latitude<br></td><td>-12.0726974<br></td></tr><tr style=\"background-color: rgb(221, 221, 255);\"><td>Longitude<br></td><td>-77.0792616<br></t", "timestamp": null, "begin": null, "end": null, "altitudeMo": null, "tessellate": -1, "extrude": 0, "visibility": -1, "drawOrder": null, "icon": null, "COL5BBEBE8": null, "COL5BBEB_1": null, "COL5BBEB_2": null, "COL5BBEB_3": null, "COL5BBEB_4": null, "COL5BBEB_5": null, "COL5BBEB_6": null, "COL5BBEB_7": null, "COL5BBEB_8": null, "COL5BBEB_9": null, "COL5BBEB10": null, "COL5BBEB11": null, "COL5BBEB12": null, "COL5BBF168": "PT_bb59p6", "COL5BBF1_1": "-12.0726974", "COL5BBF1_2": "-77.0792616", "COL5BBF1_3": "Bebedero piso 6", "COL5BBF1_4": "operativo", "COL5BBF1_5": "AULARIO", "COL5BBEB13": null, "COL5BBF1C0": null }, "geometry": { "type": "Point", "coordinates": [ -77.079250482711004, -12.07274869981887, 0.0 ] } },
{ "type": "Feature", "properties": { "id": "5BBF1686ED00002E", "Name": "PT_bb60p7", "descriptio": "<table><tbody><tr style=\"background-color: rgb(221, 221, 255);\"><td>ID<br></td><td>PT_bb60p7<br></td></tr><tr><td>Latitude<br></td><td>-12.0727293<br></td></tr><tr style=\"background-color: rgb(221, 221, 255);\"><td>Longitude<br></td><td>-77.0792948<br></t", "timestamp": null, "begin": null, "end": null, "altitudeMo": null, "tessellate": -1, "extrude": 0, "visibility": -1, "drawOrder": null, "icon": null, "COL5BBEBE8": null, "COL5BBEB_1": null, "COL5BBEB_2": null, "COL5BBEB_3": null, "COL5BBEB_4": null, "COL5BBEB_5": null, "COL5BBEB_6": null, "COL5BBEB_7": null, "COL5BBEB_8": null, "COL5BBEB_9": null, "COL5BBEB10": null, "COL5BBEB11": null, "COL5BBEB12": null, "COL5BBF168": "PT_bb60p7", "COL5BBF1_1": "-12.0727293", "COL5BBF1_2": "-77.0792948", "COL5BBF1_3": "Bebedero piso 7", "COL5BBF1_4": "operativo", "COL5BBF1_5": "AULARIO", "COL5BBEB13": null, "COL5BBF1C0": null }, "geometry": { "type": "Point", "coordinates": [ -77.079246226853442, -12.07273850334078, 0.0 ] } },
{ "type": "Feature", "properties": { "id": "5BBF1686ED000032", "Name": "PT_bb65", "descriptio": "<table><tbody><tr style=\"background-color: rgb(221, 221, 255);\"><td>ID<br></td><td>PT_bb65<br></td></tr><tr><td>Latitude<br></td><td>-12.0728367<br></td></tr><tr style=\"background-color: rgb(221, 221, 255);\"><td>Longitude<br></td><td>-77.0821188<br></td>", "timestamp": null, "begin": null, "end": null, "altitudeMo": null, "tessellate": -1, "extrude": 0, "visibility": -1, "drawOrder": null, "icon": null, "COL5BBEBE8": null, "COL5BBEB_1": null, "COL5BBEB_2": null, "COL5BBEB_3": null, "COL5BBEB_4": null, "COL5BBEB_5": null, "COL5BBEB_6": null, "COL5BBEB_7": null, "COL5BBEB_8": null, "COL5BBEB_9": null, "COL5BBEB10": null, "COL5BBEB11": null, "COL5BBEB12": null, "COL5BBF168": "PT_bb65", "COL5BBF1_1": "-12.0728367", "COL5BBF1_2": "-77.0821188", "COL5BBF1_3": "Pabelón V - Jardín de Ingeniería Electrónica", "COL5BBF1_4": "operativo", "COL5BBF1_5": "CAMPUS", "COL5BBEB13": null, "COL5BBF1C0": null }, "geometry": { "type": "Point", "coordinates": [ -77.0821188, -12.0728367, 0.0 ] } },
{ "type": "Feature", "properties": { "id": "5BC9101E96000003", "Name": "PT_bb66", "descriptio": null, "timestamp": null, "begin": null, "end": null, "altitudeMo": null, "tessellate": -1, "extrude": 0, "visibility": -1, "drawOrder": null, "icon": null, "COL5BBEBE8": null, "COL5BBEB_1": null, "COL5BBEB_2": null, "COL5BBEB_3": null, "COL5BBEB_4": null, "COL5BBEB_5": null, "COL5BBEB_6": null, "COL5BBEB_7": null, "COL5BBEB_8": null, "COL5BBEB_9": null, "COL5BBEB10": null, "COL5BBEB11": null, "COL5BBEB12": null, "COL5BBF168": null, "COL5BBF1_1": null, "COL5BBF1_2": null, "COL5BBF1_3": null, "COL5BBF1_4": null, "COL5BBF1_5": null, "COL5BBEB13": null, "COL5BBF1C0": null }, "geometry": { "type": "Point", "coordinates": [ -77.080682176085915, -12.06789697244462, 71.09 ] } },
{ "type": "Feature", "properties": { "id": "5BC9101E96000004", "Name": "PT_bb67", "descriptio": "<div>Piso 1 Sociales al lado de los baños de la explanada<br></div>", "timestamp": null, "begin": null, "end": null, "altitudeMo": null, "tessellate": -1, "extrude": 0, "visibility": -1, "drawOrder": null, "icon": null, "COL5BBEBE8": null, "COL5BBEB_1": null, "COL5BBEB_2": null, "COL5BBEB_3": null, "COL5BBEB_4": null, "COL5BBEB_5": null, "COL5BBEB_6": null, "COL5BBEB_7": null, "COL5BBEB_8": null, "COL5BBEB_9": null, "COL5BBEB10": null, "COL5BBEB11": null, "COL5BBEB12": null, "COL5BBF168": null, "COL5BBF1_1": null, "COL5BBF1_2": null, "COL5BBF1_3": null, "COL5BBF1_4": null, "COL5BBF1_5": null, "COL5BBEB13": null, "COL5BBF1C0": null }, "geometry": { "type": "Point", "coordinates": [ -77.0802681, -12.0706564, 71.49 ] } },
{ "type": "Feature", "properties": { "id": "5BBF1686ED000033", "Name": "PT_bb7", "descriptio": "<table><tbody><tr style=\"background-color: rgb(221, 221, 255);\"><td>ID<br></td><td>PT_bb7<br></td></tr><tr><td>Latitude<br></td><td>-12.0660124<br></td></tr><tr style=\"background-color: rgb(221, 221, 255);\"><td>Longitude<br></td><td>-77.0795259<br></td><", "timestamp": null, "begin": null, "end": null, "altitudeMo": null, "tessellate": -1, "extrude": 0, "visibility": -1, "drawOrder": null, "icon": null, "COL5BBEBE8": null, "COL5BBEB_1": null, "COL5BBEB_2": null, "COL5BBEB_3": null, "COL5BBEB_4": null, "COL5BBEB_5": null, "COL5BBEB_6": null, "COL5BBEB_7": null, "COL5BBEB_8": null, "COL5BBEB_9": null, "COL5BBEB10": null, "COL5BBEB11": null, "COL5BBEB12": null, "COL5BBF168": "PT_bb7", "COL5BBF1_1": "-12.0660124", "COL5BBF1_2": "-77.0795259", "COL5BBF1_3": "Bebedero dentro del Gimnasio - Piso 1", "COL5BBF1_4": "operativo", "COL5BBF1_5": "CAMPUS", "COL5BBEB13": null, "COL5BBF1C0": null }, "geometry": { "type": "Point", "coordinates": [ -77.079640111519581, -12.066012100856559, 0.0 ] } },
{ "type": "Feature", "properties": { "id": "5BBF1686ED000034", "Name": "PT_bb9", "descriptio": "<table><tbody><tr style=\"background-color: rgb(221, 221, 255);\"><td>ID<br></td><td>PT_bb9<br></td></tr><tr><td>Latitude<br></td><td>-12.0662740<br></td></tr><tr style=\"background-color: rgb(221, 221, 255);\"><td>Longitude<br></td><td>-77.0803422<br></td><", "timestamp": null, "begin": null, "end": null, "altitudeMo": null, "tessellate": -1, "extrude": 0, "visibility": -1, "drawOrder": null, "icon": null, "COL5BBEBE8": null, "COL5BBEB_1": null, "COL5BBEB_2": null, "COL5BBEB_3": null, "COL5BBEB_4": null, "COL5BBEB_5": null, "COL5BBEB_6": null, "COL5BBEB_7": null, "COL5BBEB_8": null, "COL5BBEB_9": null, "COL5BBEB10": null, "COL5BBEB11": null, "COL5BBEB12": null, "COL5BBF168": "PT_bb9", "COL5BBF1_1": "-12.0662740", "COL5BBF1_2": "-77.0803422", "COL5BBF1_3": "Polideportivo - Entre puerta de Danza aeróbicos e Ingreso 1", "COL5BBF1_4": "operativo", "COL5BBF1_5": "CAMPUS", "COL5BBEB13": null, "COL5BBF1C0": null }, "geometry": { "type": "Point", "coordinates": [ -77.080393412737763, -12.06638840824048, 0.0 ] } },
{ "type": "Feature", "properties": { "id": "5BBF1686ED00003E", "Name": "PT_bb32", "descriptio": "<table><tbody><tr style=\"background-color: rgb(221, 221, 255);\"><td>ID<br></td><td>PT_bbr32<br></td></tr><tr><td>Latitude<br></td><td>-12.0690685<br></td></tr><tr style=\"background-color: rgb(221, 221, 255);\"><td>Longitude<br></td><td>-77.0809528<br></td", "timestamp": null, "begin": null, "end": null, "altitudeMo": null, "tessellate": -1, "extrude": 0, "visibility": -1, "drawOrder": null, "icon": null, "COL5BBEBE8": null, "COL5BBEB_1": null, "COL5BBEB_2": null, "COL5BBEB_3": null, "COL5BBEB_4": null, "COL5BBEB_5": null, "COL5BBEB_6": null, "COL5BBEB_7": null, "COL5BBEB_8": null, "COL5BBEB_9": null, "COL5BBEB10": null, "COL5BBEB11": null, "COL5BBEB12": null, "COL5BBF168": "PT_bbr32", "COL5BBF1_1": "-12.0690685", "COL5BBF1_2": "-77.0809528", "COL5BBF1_3": "Remopdelación bebedero en la pileta - Pabellón Z", "COL5BBF1_4": "nuevo", "COL5BBF1_5": "CAMPUS", "COL5BBEB13": null, "COL5BBF1C0": null }, "geometry": { "type": "Point", "coordinates": [ -77.080815916385234, -12.069024072516161, 0.0 ] } }
]
}
