{
"type": "FeatureCollection",
"name": "bebedero Tipo llenador de botella",
"crs": { "type": "name", "properties": { "name": "urn:ogc:def:crs:OGC:1.3:CRS84" } },
"features": [
{ "type": "Feature", "properties": { "id": "5BBF1686ED000015", "Name": "PT_bb28p3", "descriptio": "<table><tbody><tr style=\"background-color: rgb(221, 221, 255);\"><td>ID<br></td><td>PT_bb278p3<br></td></tr><tr><td>Latitude<br></td><td>-12.0677542<br></td></tr><tr style=\"background-color: rgb(221, 221, 255);\"><td>Longitude<br></td><td>-77.0804107<br></", "timestamp": null, "begin": null, "end": null, "altitudeMo": null, "tessellate": -1, "extrude": 0, "visibility": -1, "drawOrder": null, "icon": null, "COL5BBEBE8": null, "COL5BBEB_1": null, "COL5BBEB_2": null, "COL5BBEB_3": null, "COL5BBEB_4": null, "COL5BBEB_5": null, "COL5BBEB_6": null, "COL5BBEB_7": null, "COL5BBEB_8": null, "COL5BBEB_9": null, "COL5BBEB10": null, "COL5BBEB11": null, "COL5BBEB12": null, "COL5BBF168": "PT_bb278p3", "COL5BBF1_1": "-12.0677542", "COL5BBF1_2": "-77.0804107", "COL5BBF1_3": "EEGGLL - Bebedero Piso 3", "COL5BBF1_4": "operativo", "COL5BBF1_5": "EEGGLL", "COL5BBEB13": null, "COL5BBF1C0": null }, "geometry": { "type": "Point", "coordinates": [ -77.080396504949391, -12.06775997416409, 0.0 ] } },
{ "type": "Feature", "properties": { "id": "5BBF1686ED000017", "Name": "PT_bb29p4", "descriptio": "<table><tbody><tr style=\"background-color: rgb(221, 221, 255);\"><td>ID<br></td><td>PT_bb29p4<br></td></tr><tr><td>Latitude<br></td><td>-12.0674077<br></td></tr><tr style=\"background-color: rgb(221, 221, 255);\"><td>Longitude<br></td><td>-77.079983<br></td", "timestamp": null, "begin": null, "end": null, "altitudeMo": null, "tessellate": -1, "extrude": 0, "visibility": -1, "drawOrder": null, "icon": null, "COL5BBEBE8": null, "COL5BBEB_1": null, "COL5BBEB_2": null, "COL5BBEB_3": null, "COL5BBEB_4": null, "COL5BBEB_5": null, "COL5BBEB_6": null, "COL5BBEB_7": null, "COL5BBEB_8": null, "COL5BBEB_9": null, "COL5BBEB10": null, "COL5BBEB11": null, "COL5BBEB12": null, "COL5BBF168": "PT_bb29p4", "COL5BBF1_1": "-12.0674077", "COL5BBF1_2": "-77.079983", "COL5BBF1_3": "EEGGLL - Bebedero Piso 4", "COL5BBF1_4": "operativo", "COL5BBF1_5": "EEGGLL", "COL5BBEB13": null, "COL5BBF1C0": null }, "geometry": { "type": "Point", "coordinates": [ -77.07997534317434, -12.067436655681631, 0.0 ] } },
{ "type": "Feature", "properties": { "id": "5BBF1686ED000018", "Name": "PT_bb3", "descriptio": "<table><tbody><tr style=\"background-color: rgb(221, 221, 255);\"><td>ID<br></td><td>PT_bb3<br></td></tr><tr><td>Latitude<br></td><td>-12.0648813<br></td></tr><tr style=\"background-color: rgb(221, 221, 255);\"><td>Longitude<br></td><td>-77.0783756<br></td><", "timestamp": null, "begin": null, "end": null, "altitudeMo": null, "tessellate": -1, "extrude": 0, "visibility": -1, "drawOrder": null, "icon": null, "COL5BBEBE8": null, "COL5BBEB_1": null, "COL5BBEB_2": null, "COL5BBEB_3": null, "COL5BBEB_4": null, "COL5BBEB_5": null, "COL5BBEB_6": null, "COL5BBEB_7": null, "COL5BBEB_8": null, "COL5BBEB_9": null, "COL5BBEB10": null, "COL5BBEB11": null, "COL5BBEB12": null, "COL5BBF168": "PT_bb3", "COL5BBF1_1": "-12.0648813", "COL5BBF1_2": "-77.0783756", "COL5BBF1_3": "Bebedero ubicado en la zona de descando de los Puffs", "COL5BBF1_4": "operativo", "COL5BBF1_5": "CAMPUS", "COL5BBEB13": null, "COL5BBF1C0": null }, "geometry": { "type": "Point", "coordinates": [ -77.078400852676367, -12.06489127275659, 0.0 ] } },
{ "type": "Feature", "properties": { "id": "5BBF1686ED000019", "Name": "PT_bb30", "descriptio": "<table><tbody><tr style=\"background-color: rgb(221, 221, 255);\"><td>ID<br></td><td>PT_bb30<br></td></tr><tr><td>Latitude<br></td><td>-12.0677650<br></td></tr><tr style=\"background-color: rgb(221, 221, 255);\"><td>Longitude<br></td><td>-77.0792183<br></td>", "timestamp": null, "begin": null, "end": null, "altitudeMo": null, "tessellate": -1, "extrude": 0, "visibility": -1, "drawOrder": null, "icon": null, "COL5BBEBE8": null, "COL5BBEB_1": null, "COL5BBEB_2": null, "COL5BBEB_3": null, "COL5BBEB_4": null, "COL5BBEB_5": null, "COL5BBEB_6": null, "COL5BBEB_7": null, "COL5BBEB_8": null, "COL5BBEB_9": null, "COL5BBEB10": null, "COL5BBEB11": null, "COL5BBEB12": null, "COL5BBF168": "PT_bb30", "COL5BBF1_1": "-12.0677650", "COL5BBF1_2": "-77.0792183", "COL5BBF1_3": "Ubicado frente a el Centro Federado de la Facultad de Educación", "COL5BBF1_4": "operativo", "COL5BBF1_5": "CAMPUS", "COL5BBEB13": null, "COL5BBF1C0": null }, "geometry": { "type": "Point", "coordinates": [ -77.079283970152261, -12.06780002450218, 0.0 ] } },
{ "type": "Feature", "properties": { "id": "5BBF1686ED00001A", "Name": "PT_bb34", "descriptio": "<table><tbody><tr style=\"background-color: rgb(221, 221, 255);\"><td>ID<br></td><td>PT_bb34<br></td></tr><tr><td>Latitude<br></td><td>-12.0684183<br></td></tr><tr style=\"background-color: rgb(221, 221, 255);\"><td>Longitude<br></td><td>-77.0787467<br></td>", "timestamp": null, "begin": null, "end": null, "altitudeMo": null, "tessellate": -1, "extrude": 0, "visibility": -1, "drawOrder": null, "icon": null, "COL5BBEBE8": null, "COL5BBEB_1": null, "COL5BBEB_2": null, "COL5BBEB_3": null, "COL5BBEB_4": null, "COL5BBEB_5": null, "COL5BBEB_6": null, "COL5BBEB_7": null, "COL5BBEB_8": null, "COL5BBEB_9": null, "COL5BBEB10": null, "COL5BBEB11": null, "COL5BBEB12": null, "COL5BBF168": "PT_bb34", "COL5BBF1_1": "-12.0684183", "COL5BBF1_2": "-77.0787467", "COL5BBF1_3": "Piso 1 de McGregror", "COL5BBF1_4": "operativo", "COL5BBF1_5": "CAMPUS", "COL5BBEB13": null, "COL5BBF1C0": null }, "geometry": { "type": "Point", "coordinates": [ -77.078714715265292, -12.06850766118429, 0.0 ] } },
{ "type": "Feature", "properties": { "id": "5BBF1686ED00001B", "Name": "PT_bb35", "descriptio": "<table><tbody><tr style=\"background-color: rgb(221, 221, 255);\"><td>ID<br></td><td>PT_bb35<br></td></tr><tr><td>Latitude<br></td><td>-12.0685183<br></td></tr><tr style=\"background-color: rgb(221, 221, 255);\"><td>Longitude<br></td><td>-77.0787533<br></td>", "timestamp": null, "begin": null, "end": null, "altitudeMo": null, "tessellate": -1, "extrude": 0, "visibility": -1, "drawOrder": null, "icon": null, "COL5BBEBE8": null, "COL5BBEB_1": null, "COL5BBEB_2": null, "COL5BBEB_3": null, "COL5BBEB_4": null, "COL5BBEB_5": null, "COL5BBEB_6": null, "COL5BBEB_7": null, "COL5BBEB_8": null, "COL5BBEB_9": null, "COL5BBEB10": null, "COL5BBEB11": null, "COL5BBEB12": null, "COL5BBF168": "PT_bb35", "COL5BBF1_1": "-12.0685183", "COL5BBF1_2": "-77.0787533", "COL5BBF1_3": "Piso 1 de McGregror", "COL5BBF1_4": "operativo", "COL5BBF1_5": "CAMPUS", "COL5BBEB13": null, "COL5BBF1C0": null }, "geometry": { "type": "Point", "coordinates": [ -77.078708892695616, -12.06852907838714, 0.0 ] } },
{ "type": "Feature", "properties": { "id": "5BBF1686ED00001E", "Name": "PT_bb38", "descriptio": "<table><tbody><tr style=\"background-color: rgb(221, 221, 255);\"><td>ID<br></td><td>PT_bb38<br></td></tr><tr><td>Latitude<br></td><td>-12.0699889<br></td></tr><tr style=\"background-color: rgb(221, 221, 255);\"><td>Longitude<br></td><td>-77.0809007<br></td>", "timestamp": null, "begin": null, "end": null, "altitudeMo": null, "tessellate": -1, "extrude": 0, "visibility": -1, "drawOrder": null, "icon": null, "COL5BBEBE8": null, "COL5BBEB_1": null, "COL5BBEB_2": null, "COL5BBEB_3": null, "COL5BBEB_4": null, "COL5BBEB_5": null, "COL5BBEB_6": null, "COL5BBEB_7": null, "COL5BBEB_8": null, "COL5BBEB_9": null, "COL5BBEB10": null, "COL5BBEB11": null, "COL5BBEB12": null, "COL5BBF168": "PT_bb38", "COL5BBF1_1": "-12.0699889", "COL5BBF1_2": "-77.0809007", "COL5BBF1_3": "Facultad de Derecho - Piso 1 - Al lado de la rotonda de derecho y frente a la oficina de entrga de evaluaciones", "COL5BBF1_4": "operativo", "COL5BBF1_5": "CAMPUS", "COL5BBEB13": null, "COL5BBF1C0": null }, "geometry": { "type": "Point", "coordinates": [ -77.080907968324141, -12.070036741880349, 0.0 ] } },
{ "type": "Feature", "properties": { "id": "5BBF1686ED00001F", "Name": "PT_bb41", "descriptio": "<table><tbody><tr style=\"background-color: rgb(221, 221, 255);\"><td>ID<br></td><td>PT_bb41<br></td></tr><tr><td>Latitude<br></td><td>-12.0704946<br></td></tr><tr style=\"background-color: rgb(221, 221, 255);\"><td>Longitude<br></td><td>-77.0813919<br></td>", "timestamp": null, "begin": null, "end": null, "altitudeMo": null, "tessellate": -1, "extrude": 0, "visibility": -1, "drawOrder": null, "icon": null, "COL5BBEBE8": null, "COL5BBEB_1": null, "COL5BBEB_2": null, "COL5BBEB_3": null, "COL5BBEB_4": null, "COL5BBEB_5": null, "COL5BBEB_6": null, "COL5BBEB_7": null, "COL5BBEB_8": null, "COL5BBEB_9": null, "COL5BBEB10": null, "COL5BBEB11": null, "COL5BBEB12": null, "COL5BBF168": "PT_bb41", "COL5BBF1_1": "-12.0704946", "COL5BBF1_2": "-77.0813919", "COL5BBF1_3": "Facultad de Gastronomía - Piso 1", "COL5BBF1_4": "operativo", "COL5BBF1_5": "CAMPUS", "COL5BBEB13": null, "COL5BBF1C0": null }, "geometry": { "type": "Point", "coordinates": [ -77.081690351338878, -12.070812004759899, 0.0 ] } },
{ "type": "Feature", "properties": { "id": "5BBF1686ED00002F", "Name": "PT_bb61", "descriptio": "<table><tbody><tr style=\"background-color: rgb(221, 221, 255);\"><td>ID<br></td><td>PT_bb61<br></td></tr><tr><td>Latitude<br></td><td>-12.0728230<br></td></tr><tr style=\"background-color: rgb(221, 221, 255);\"><td>Longitude<br></td><td>-77.0790372<br></td>", "timestamp": null, "begin": null, "end": null, "altitudeMo": null, "tessellate": -1, "extrude": 0, "visibility": -1, "drawOrder": null, "icon": null, "COL5BBEBE8": null, "COL5BBEB_1": null, "COL5BBEB_2": null, "COL5BBEB_3": null, "COL5BBEB_4": null, "COL5BBEB_5": null, "COL5BBEB_6": null, "COL5BBEB_7": null, "COL5BBEB_8": null, "COL5BBEB_9": null, "COL5BBEB10": null, "COL5BBEB11": null, "COL5BBEB12": null, "COL5BBF168": "PT_bb61", "COL5BBF1_1": "-12.0728230", "COL5BBF1_2": "-77.0790372", "COL5BBF1_3": "Cepre PUCP -  Baño Varones", "COL5BBF1_4": "operativo", "COL5BBF1_5": "CAMPUS", "COL5BBEB13": null, "COL5BBF1C0": null }, "geometry": { "type": "Point", "coordinates": [ -77.0790372, -12.072823, 0.0 ] } },
{ "type": "Feature", "properties": { "id": "5BBF1686ED000030", "Name": "PT_bb62", "descriptio": "<table><tbody><tr style=\"background-color: rgb(221, 221, 255);\"><td>ID<br></td><td>PT_bb62<br></td></tr><tr><td>Latitude<br></td><td>-12.0726622<br></td></tr><tr style=\"background-color: rgb(221, 221, 255);\"><td>Longitude<br></td><td>-77.0791128<br></td>", "timestamp": null, "begin": null, "end": null, "altitudeMo": null, "tessellate": -1, "extrude": 0, "visibility": -1, "drawOrder": null, "icon": null, "COL5BBEBE8": null, "COL5BBEB_1": null, "COL5BBEB_2": null, "COL5BBEB_3": null, "COL5BBEB_4": null, "COL5BBEB_5": null, "COL5BBEB_6": null, "COL5BBEB_7": null, "COL5BBEB_8": null, "COL5BBEB_9": null, "COL5BBEB10": null, "COL5BBEB11": null, "COL5BBEB12": null, "COL5BBF168": "PT_bb62", "COL5BBF1_1": "-12.0726622", "COL5BBF1_2": "-77.0791128", "COL5BBF1_3": "Cepre PUCP -  Baño Muejeres", "COL5BBF1_4": "operativo", "COL5BBF1_5": "CAMPUS", "COL5BBEB13": null, "COL5BBF1C0": null }, "geometry": { "type": "Point", "coordinates": [ -77.079031698865833, -12.072773423162751, 0.0 ] } }
]
}
