{
"type": "FeatureCollection",
"name": "bebedero Nuevo",
"crs": { "type": "name", "properties": { "name": "urn:ogc:def:crs:OGC:1.3:CRS84" } },
"features": [
{ "type": "Feature", "properties": { "id": "5BBF1686ED000036", "Name": "PT_bbn23", "descriptio": "<table><tbody><tr style=\"background-color: rgb(221, 221, 255);\"><td>ID<br></td><td>PT_bbn23<br></td></tr><tr><td>Latitude<br></td><td>-12.0667231<br></td></tr><tr style=\"background-color: rgb(221, 221, 255);\"><td>Longitude<br></td><td>-77.0791636<br></td", "timestamp": null, "begin": null, "end": null, "altitudeMo": null, "tessellate": -1, "extrude": 0, "visibility": -1, "drawOrder": null, "icon": null, "COL5BBEBE8": null, "COL5BBEB_1": null, "COL5BBEB_2": null, "COL5BBEB_3": null, "COL5BBEB_4": null, "COL5BBEB_5": null, "COL5BBEB_6": null, "COL5BBEB_7": null, "COL5BBEB_8": null, "COL5BBEB_9": null, "COL5BBEB10": null, "COL5BBEB11": null, "COL5BBEB12": null, "COL5BBF168": "PT_bbn23", "COL5BBF1_1": "-12.0667231", "COL5BBF1_2": "-77.0791636", "COL5BBF1_3": "Jardín frontal de la Facultad de Artes Nuevas - al lado mesas campestres", "COL5BBF1_4": "nuevo", "COL5BBF1_5": "CAMPUS", "COL5BBEB13": null, "COL5BBF1C0": null }, "geometry": { "type": "Point", "coordinates": [ -77.079163574255531, -12.06675087082837, 0.0 ] } },
{ "type": "Feature", "properties": { "id": "5BBF1686ED000037", "Name": "PT_bbn24", "descriptio": "<table><tbody><tr style=\"background-color: rgb(221, 221, 255);\"><td>ID<br></td><td>PT_bbn24<br></td></tr><tr><td>Latitude<br></td><td>-12.0674511<br></td></tr><tr style=\"background-color: rgb(221, 221, 255);\"><td>Longitude<br></td><td>-77.0797559<br></td", "timestamp": null, "begin": null, "end": null, "altitudeMo": null, "tessellate": -1, "extrude": 0, "visibility": -1, "drawOrder": null, "icon": null, "COL5BBEBE8": null, "COL5BBEB_1": null, "COL5BBEB_2": null, "COL5BBEB_3": null, "COL5BBEB_4": null, "COL5BBEB_5": null, "COL5BBEB_6": null, "COL5BBEB_7": null, "COL5BBEB_8": null, "COL5BBEB_9": null, "COL5BBEB10": null, "COL5BBEB11": null, "COL5BBEB12": null, "COL5BBF168": "PT_bbn24", "COL5BBF1_1": "-12.0674511", "COL5BBF1_2": "-77.0797559", "COL5BBF1_3": "Bebedero nuevo ubicado entre la entraba principal de EEGGLL por Tontódromo", "COL5BBF1_4": "nuevo", "COL5BBF1_5": "EEGGLL", "COL5BBEB13": null, "COL5BBF1C0": null }, "geometry": { "type": "Point", "coordinates": [ -77.0797559, -12.0674511, 0.0 ] } },
{ "type": "Feature", "properties": { "id": "5BBF1686ED000038", "Name": "PT_bbn33", "descriptio": "<table><tbody><tr style=\"background-color: rgb(221, 221, 255);\"><td>ID<br></td><td>PT_bbn33<br></td></tr><tr><td>Latitude<br></td><td>-12.0690829<br></td></tr><tr style=\"background-color: rgb(221, 221, 255);\"><td>Longitude<br></td><td>-77.0809735<br></td", "timestamp": null, "begin": null, "end": null, "altitudeMo": null, "tessellate": -1, "extrude": 0, "visibility": -1, "drawOrder": null, "icon": null, "COL5BBEBE8": null, "COL5BBEB_1": null, "COL5BBEB_2": null, "COL5BBEB_3": null, "COL5BBEB_4": null, "COL5BBEB_5": null, "COL5BBEB_6": null, "COL5BBEB_7": null, "COL5BBEB_8": null, "COL5BBEB_9": null, "COL5BBEB10": null, "COL5BBEB11": null, "COL5BBEB12": null, "COL5BBF168": "PT_bbn33", "COL5BBF1_1": "-12.0690829", "COL5BBF1_2": "-77.0809735", "COL5BBF1_3": "Bebedero Nuevo en la pileta - Pabellón Z", "COL5BBF1_4": "nuevo", "COL5BBF1_5": "CAMPUS", "COL5BBEB13": null, "COL5BBF1C0": null }, "geometry": { "type": "Point", "coordinates": [ -77.080815922641307, -12.06903100606733, 0.0 ] } },
{ "type": "Feature", "properties": { "id": "5BBF1686ED000039", "Name": "PT_bbn39", "descriptio": "<table><tbody><tr style=\"background-color: rgb(221, 221, 255);\"><td>ID<br></td><td>PT_bbn39<br></td></tr><tr><td>Latitude<br></td><td>-12.0706548<br></td></tr><tr style=\"background-color: rgb(221, 221, 255);\"><td>Longitude<br></td><td>-77.0811568<br></td", "timestamp": null, "begin": null, "end": null, "altitudeMo": null, "tessellate": -1, "extrude": 0, "visibility": -1, "drawOrder": null, "icon": null, "COL5BBEBE8": null, "COL5BBEB_1": null, "COL5BBEB_2": null, "COL5BBEB_3": null, "COL5BBEB_4": null, "COL5BBEB_5": null, "COL5BBEB_6": null, "COL5BBEB_7": null, "COL5BBEB_8": null, "COL5BBEB_9": null, "COL5BBEB10": null, "COL5BBEB11": null, "COL5BBEB12": null, "COL5BBF168": "PT_bbn39", "COL5BBF1_1": "-12.0706548", "COL5BBF1_2": "-77.0811568", "COL5BBF1_3": "Piso 1 Comedor central al lado del panel de nutrición - Ingreso 2", "COL5BBF1_4": "nuevo", "COL5BBF1_5": "CAMPUS", "COL5BBEB13": null, "COL5BBF1C0": null }, "geometry": { "type": "Point", "coordinates": [ -77.081157835975702, -12.07032828738312, 0.0 ] } },
{ "type": "Feature", "properties": { "id": "5BBF1686ED00003A", "Name": "PT_bbn40p2", "descriptio": "<table><tbody><tr style=\"background-color: rgb(221, 221, 255);\"><td>ID<br></td><td>PT_bbn40p2<br></td></tr><tr><td>Latitude<br></td><td>-12.0703430<br></td></tr><tr style=\"background-color: rgb(221, 221, 255);\"><td>Longitude<br></td><td>-77.0812593<br></", "timestamp": null, "begin": null, "end": null, "altitudeMo": null, "tessellate": -1, "extrude": 0, "visibility": -1, "drawOrder": null, "icon": null, "COL5BBEBE8": null, "COL5BBEB_1": null, "COL5BBEB_2": null, "COL5BBEB_3": null, "COL5BBEB_4": null, "COL5BBEB_5": null, "COL5BBEB_6": null, "COL5BBEB_7": null, "COL5BBEB_8": null, "COL5BBEB_9": null, "COL5BBEB10": null, "COL5BBEB11": null, "COL5BBEB12": null, "COL5BBF168": "PT_bbn40p2", "COL5BBF1_1": "-12.0703430", "COL5BBF1_2": "-77.0812593", "COL5BBF1_3": "piso 2 de Central - Al lado de las escaleras al norte", "COL5BBF1_4": "nuevo", "COL5BBF1_5": "CAMPUS", "COL5BBEB13": null, "COL5BBF1C0": null }, "geometry": { "type": "Point", "coordinates": [ -77.081321691190226, -12.070301896422951, 0.0 ] } },
{ "type": "Feature", "properties": { "id": "5BBF1686ED00003B", "Name": "PT_bbn45", "descriptio": "<table><tbody><tr style=\"background-color: rgb(221, 221, 255);\"><td>ID<br></td><td>PT_bbn45<br></td></tr><tr><td>Latitude<br></td><td>-12.0706011<br></td></tr><tr style=\"background-color: rgb(221, 221, 255);\"><td>Longitude<br></td><td>-77.0798002<br></td", "timestamp": null, "begin": null, "end": null, "altitudeMo": null, "tessellate": -1, "extrude": 0, "visibility": -1, "drawOrder": null, "icon": null, "COL5BBEBE8": null, "COL5BBEB_1": null, "COL5BBEB_2": null, "COL5BBEB_3": null, "COL5BBEB_4": null, "COL5BBEB_5": null, "COL5BBEB_6": null, "COL5BBEB_7": null, "COL5BBEB_8": null, "COL5BBEB_9": null, "COL5BBEB10": null, "COL5BBEB11": null, "COL5BBEB12": null, "COL5BBF168": "PT_bbn45", "COL5BBF1_1": "-12.0706011", "COL5BBF1_2": "-77.0798002", "COL5BBF1_3": "Bebedero frente a EEGGCC y frente a Sociales", "COL5BBF1_4": "nuevo", "COL5BBF1_5": "EEGGCC", "COL5BBEB13": null, "COL5BBF1C0": null }, "geometry": { "type": "Point", "coordinates": [ -77.079829445280822, -12.07063074869953, 0.0 ] } },
{ "type": "Feature", "properties": { "id": "5BBF1686ED00003C", "Name": "PT_bbn54p1", "descriptio": "<table><tbody><tr style=\"background-color: rgb(221, 221, 255);\"><td>ID<br></td><td>PT_bbn54p1<br></td></tr><tr><td>Latitude<br></td><td>-12.0728715<br></td></tr><tr style=\"background-color: rgb(221, 221, 255);\"><td>Longitude<br></td><td>-77.0794463<br></", "timestamp": null, "begin": null, "end": null, "altitudeMo": null, "tessellate": -1, "extrude": 0, "visibility": -1, "drawOrder": null, "icon": null, "COL5BBEBE8": null, "COL5BBEB_1": null, "COL5BBEB_2": null, "COL5BBEB_3": null, "COL5BBEB_4": null, "COL5BBEB_5": null, "COL5BBEB_6": null, "COL5BBEB_7": null, "COL5BBEB_8": null, "COL5BBEB_9": null, "COL5BBEB10": null, "COL5BBEB11": null, "COL5BBEB12": null, "COL5BBF168": "PT_bbn54p1", "COL5BBF1_1": "-12.0728715", "COL5BBF1_2": "-77.0794463", "COL5BBF1_3": "Bebedero Nuevo - piso 1", "COL5BBF1_4": "nuevo", "COL5BBF1_5": "AULARIO", "COL5BBEB13": null, "COL5BBF1C0": null }, "geometry": { "type": "Point", "coordinates": [ -77.079400965927803, -12.07278473761186, 0.0 ] } },
{ "type": "Feature", "properties": { "id": "5BBF1686ED00003D", "Name": "PT_bbn6", "descriptio": "<table><tbody><tr style=\"background-color: rgb(221, 221, 255);\"><td>ID<br></td><td>PT_bbn6<br></td></tr><tr><td>Latitude<br></td><td>-12.0658056<br></td></tr><tr style=\"background-color: rgb(221, 221, 255);\"><td>Longitude<br></td><td>-77.0804864<br></td>", "timestamp": null, "begin": null, "end": null, "altitudeMo": null, "tessellate": -1, "extrude": 0, "visibility": -1, "drawOrder": null, "icon": null, "COL5BBEBE8": null, "COL5BBEB_1": null, "COL5BBEB_2": null, "COL5BBEB_3": null, "COL5BBEB_4": null, "COL5BBEB_5": null, "COL5BBEB_6": null, "COL5BBEB_7": null, "COL5BBEB_8": null, "COL5BBEB_9": null, "COL5BBEB10": null, "COL5BBEB11": null, "COL5BBEB12": null, "COL5BBF168": "PT_bbn6", "COL5BBF1_1": "-12.0658056", "COL5BBF1_2": "-77.0804864", "COL5BBF1_3": "Entre las losas Azules , Cnacha de Rugby y la canchas de paleta Frontón", "COL5BBF1_4": "nuevo", "COL5BBF1_5": "CAMPUS", "COL5BBEB13": null, "COL5BBF1C0": null }, "geometry": { "type": "Point", "coordinates": [ -77.0804864, -12.0658056, 0.0 ] } }
]
}
