{
"type": "FeatureCollection",
"name": "bebedero por deterioro",
"crs": { "type": "name", "properties": { "name": "urn:ogc:def:crs:OGC:1.3:CRS84" } },
"features": [
{ "type": "Feature", "properties": { "id": "5BBF1686ED000041", "Name": "PT_bbr4", "descriptio": "<table><tbody><tr style=\"background-color: rgb(221, 221, 255);\"><td>ID<br></td><td>PT_bbr4<br></td></tr><tr><td>Latitude<br></td><td>-12.0659429<br></td></tr><tr style=\"background-color: rgb(221, 221, 255);\"><td>Longitude<br></td><td>-77.0792151<br></td>", "timestamp": null, "begin": null, "end": null, "altitudeMo": null, "tessellate": -1, "extrude": 0, "visibility": -1, "drawOrder": null, "icon": null, "COL5BBEBE8": null, "COL5BBEB_1": null, "COL5BBEB_2": null, "COL5BBEB_3": null, "COL5BBEB_4": null, "COL5BBEB_5": null, "COL5BBEB_6": null, "COL5BBEB_7": null, "COL5BBEB_8": null, "COL5BBEB_9": null, "COL5BBEB10": null, "COL5BBEB11": null, "COL5BBEB12": null, "COL5BBF168": "PT_bbr4", "COL5BBF1_1": "-12.0659429", "COL5BBF1_2": "-77.0792151", "COL5BBF1_3": "Frente a la Cancha de futbol", "COL5BBF1_4": "remodelación", "COL5BBF1_5": "CAMPUS", "COL5BBEB13": null, "COL5BBF1C0": null }, "geometry": { "type": "Point", "coordinates": [ -77.079255842540917, -12.06593958568306, 0.0 ] } },
{ "type": "Feature", "properties": { "id": "5BBF1686ED000042", "Name": "PT_bbr44", "descriptio": "<table><tbody><tr style=\"background-color: rgb(221, 221, 255);\"><td>ID<br></td><td>PT_bbr44<br></td></tr><tr><td>Latitude<br></td><td>-12.0713309<br></td></tr><tr style=\"background-color: rgb(221, 221, 255);\"><td>Longitude<br></td><td>-77.0792926<br></td", "timestamp": null, "begin": null, "end": null, "altitudeMo": null, "tessellate": -1, "extrude": 0, "visibility": -1, "drawOrder": null, "icon": null, "COL5BBEBE8": null, "COL5BBEB_1": null, "COL5BBEB_2": null, "COL5BBEB_3": null, "COL5BBEB_4": null, "COL5BBEB_5": null, "COL5BBEB_6": null, "COL5BBEB_7": null, "COL5BBEB_8": null, "COL5BBEB_9": null, "COL5BBEB10": null, "COL5BBEB11": null, "COL5BBEB12": null, "COL5BBF168": "PT_bbr44", "COL5BBF1_1": "-12.0713309", "COL5BBF1_2": "-77.0792926", "COL5BBF1_3": "Bebedero entre EEGGCC y EL Puesto", "COL5BBF1_4": "remodelación", "COL5BBF1_5": "EEGGCC", "COL5BBEB13": null, "COL5BBF1C0": null }, "geometry": { "type": "Point", "coordinates": [ -77.079323898593344, -12.07139881146527, 0.0 ] } },
{ "type": "Feature", "properties": { "id": "5BBF1686ED000045", "Name": "PT_bbr64", "descriptio": "<table><tbody><tr style=\"background-color: rgb(221, 221, 255);\"><td>ID<br></td><td>PT_bbr64<br></td></tr><tr><td>Latitude<br></td><td>-12.072001<br></td></tr><tr style=\"background-color: rgb(221, 221, 255);\"><td>Longitude<br></td><td>-77.0817516<br></td>", "timestamp": null, "begin": null, "end": null, "altitudeMo": null, "tessellate": -1, "extrude": 0, "visibility": -1, "drawOrder": null, "icon": null, "COL5BBEBE8": null, "COL5BBEB_1": null, "COL5BBEB_2": null, "COL5BBEB_3": null, "COL5BBEB_4": null, "COL5BBEB_5": null, "COL5BBEB_6": null, "COL5BBEB_7": null, "COL5BBEB_8": null, "COL5BBEB_9": null, "COL5BBEB10": null, "COL5BBEB11": null, "COL5BBEB12": null, "COL5BBF168": "PT_bbr64", "COL5BBF1_1": "-12.072001", "COL5BBF1_2": "-77.0817516", "COL5BBF1_3": "Al lado de la Cancha de Minas", "COL5BBF1_4": "remodelación", "COL5BBF1_5": "CAMPUS", "COL5BBEB13": null, "COL5BBF1C0": null }, "geometry": { "type": "Point", "coordinates": [ -77.081803649328137, -12.072155050853951, 0.0 ] } },
{ "type": "Feature", "properties": { "id": "5BBF1686ED000046", "Name": "PT_bbr8", "descriptio": "<table><tbody><tr style=\"background-color: rgb(221, 221, 255);\"><td>ID<br></td><td>PT_bbr8<br></td></tr><tr><td>Latitude<br></td><td>-12.0660863<br></td></tr><tr style=\"background-color: rgb(221, 221, 255);\"><td>Longitude<br></td><td>-77.0796864<br></td>", "timestamp": null, "begin": null, "end": null, "altitudeMo": null, "tessellate": -1, "extrude": 0, "visibility": -1, "drawOrder": null, "icon": null, "COL5BBEBE8": null, "COL5BBEB_1": null, "COL5BBEB_2": null, "COL5BBEB_3": null, "COL5BBEB_4": null, "COL5BBEB_5": null, "COL5BBEB_6": null, "COL5BBEB_7": null, "COL5BBEB_8": null, "COL5BBEB_9": null, "COL5BBEB10": null, "COL5BBEB11": null, "COL5BBEB12": null, "COL5BBF168": "PT_bbr8", "COL5BBF1_1": "-12.0660863", "COL5BBF1_2": "-77.0796864", "COL5BBF1_3": "Bebedero Fuera del Gimnasio", "COL5BBF1_4": "remodelación", "COL5BBF1_5": "CAMPUS", "COL5BBEB13": null, "COL5BBF1C0": null }, "geometry": { "type": "Point", "coordinates": [ -77.07967169402562, -12.066140979085031, 0.0 ] } },
{ "type": "Feature", "properties": { "id": "5BBF1686ED000044", "Name": "PT_bbr5", "descriptio": "<table><tbody><tr style=\"background-color: rgb(221, 221, 255);\"><td>ID<br></td><td>PT_bbr5<br></td></tr><tr><td>Latitude<br></td><td>-12.0662097<br></td></tr><tr style=\"background-color: rgb(221, 221, 255);\"><td>Longitude<br></td><td>-77.0793714<br></td>", "timestamp": null, "begin": null, "end": null, "altitudeMo": null, "tessellate": -1, "extrude": 0, "visibility": -1, "drawOrder": null, "icon": null, "COL5BBEBE8": null, "COL5BBEB_1": null, "COL5BBEB_2": null, "COL5BBEB_3": null, "COL5BBEB_4": null, "COL5BBEB_5": null, "COL5BBEB_6": null, "COL5BBEB_7": null, "COL5BBEB_8": null, "COL5BBEB_9": null, "COL5BBEB10": null, "COL5BBEB11": null, "COL5BBEB12": null, "COL5BBF168": "PT_bbr5", "COL5BBF1_1": "-12.0662097", "COL5BBF1_2": "-77.0793714", "COL5BBF1_3": "Al lado de l Kiosco de Deportes", "COL5BBF1_4": "remodelación", "COL5BBF1_5": "CAMPUS", "COL5BBEB13": null, "COL5BBF1C0": null }, "geometry": { "type": "Point", "coordinates": [ -77.0793714, -12.0662097, 0.0 ] } },
{ "type": "Feature", "properties": { "id": "5BBF1686ED000043", "Name": "PT_bbr49", "descriptio": "<table><tbody><tr style=\"background-color: rgb(221, 221, 255);\"><td>ID<br></td><td>PT_bbr49<br></td></tr><tr><td>Latitude<br></td><td>-12.0710296<br></td></tr><tr style=\"background-color: rgb(221, 221, 255);\"><td>Longitude<br></td><td>-77.0804487<br></td", "timestamp": null, "begin": null, "end": null, "altitudeMo": null, "tessellate": -1, "extrude": 0, "visibility": -1, "drawOrder": null, "icon": null, "COL5BBEBE8": null, "COL5BBEB_1": null, "COL5BBEB_2": null, "COL5BBEB_3": null, "COL5BBEB_4": null, "COL5BBEB_5": null, "COL5BBEB_6": null, "COL5BBEB_7": null, "COL5BBEB_8": null, "COL5BBEB_9": null, "COL5BBEB10": null, "COL5BBEB11": null, "COL5BBEB12": null, "COL5BBF168": "PT_bbr49", "COL5BBF1_1": "-12.0710296", "COL5BBF1_2": "-77.0804487", "COL5BBF1_3": "Plazuela entre Facultad de Arquitectura y Facultad de Sociales", "COL5BBF1_4": "remodelación", "COL5BBF1_5": "CAMPUS", "COL5BBEB13": null, "COL5BBF1C0": null }, "geometry": { "type": "Point", "coordinates": [ -77.0804487, -12.0710296, 0.0 ] } },
{ "type": "Feature", "properties": { "id": "5BBF1686ED000040", "Name": "PT_bbr31", "descriptio": "<table><tbody><tr style=\"background-color: rgb(221, 221, 255);\"><td>ID<br></td><td>PT_bbr31<br></td></tr><tr><td>Latitude<br></td><td>-12.0682400<br></td></tr><tr style=\"background-color: rgb(221, 221, 255);\"><td>Longitude<br></td><td>-77.0797350<br></td", "timestamp": null, "begin": null, "end": null, "altitudeMo": null, "tessellate": -1, "extrude": 0, "visibility": -1, "drawOrder": null, "icon": null, "COL5BBEBE8": null, "COL5BBEB_1": null, "COL5BBEB_2": null, "COL5BBEB_3": null, "COL5BBEB_4": null, "COL5BBEB_5": null, "COL5BBEB_6": null, "COL5BBEB_7": null, "COL5BBEB_8": null, "COL5BBEB_9": null, "COL5BBEB10": null, "COL5BBEB11": null, "COL5BBEB12": null, "COL5BBF168": "PT_bbr31", "COL5BBF1_1": "-12.0682400", "COL5BBF1_2": "-77.0797350", "COL5BBF1_3": "Patio de Comedor de Letras", "COL5BBF1_4": "remodelación", "COL5BBF1_5": "CAMPUS", "COL5BBEB13": null, "COL5BBF1C0": null }, "geometry": { "type": "Point", "coordinates": [ -77.079780326700401, -12.068265895406549, 0.0 ] } }
]
}
