{
"type": "FeatureCollection",
"name": "bebedero por baja del equipo",
"crs": { "type": "name", "properties": { "name": "urn:ogc:def:crs:OGC:1.3:CRS84" } },
"features": [
{ "type": "Feature", "properties": { "id": "5BBF1686ED000031", "Name": "PT_bbr63", "descriptio": "<table><tbody><tr style=\"background-color: rgb(221, 221, 255);\"><td>ID<br></td><td>PT_bb63<br></td></tr><tr><td>Latitude<br></td><td>-12.0718899<br></td></tr><tr style=\"background-color: rgb(221, 221, 255);\"><td>Longitude<br></td><td>-77.0812854<br></td>", "timestamp": null, "begin": null, "end": null, "altitudeMo": null, "tessellate": -1, "extrude": 0, "visibility": -1, "drawOrder": null, "icon": null, "COL5BBEBE8": null, "COL5BBEB_1": null, "COL5BBEB_2": null, "COL5BBEB_3": null, "COL5BBEB_4": null, "COL5BBEB_5": null, "COL5BBEB_6": null, "COL5BBEB_7": null, "COL5BBEB_8": null, "COL5BBEB_9": null, "COL5BBEB10": null, "COL5BBEB11": null, "COL5BBEB12": null, "COL5BBF168": "PT_bb63", "COL5BBF1_1": "-12.0718899", "COL5BBF1_2": "-77.0812854", "COL5BBF1_3": "Facultad de Minas - 1er piso", "COL5BBF1_4": "operativo", "COL5BBF1_5": "CAMPUS", "COL5BBEB13": null, "COL5BBF1C0": null }, "geometry": { "type": "Point", "coordinates": [ -77.081365127258621, -12.07192097018784, 0.0 ] } },
{ "type": "Feature", "properties": { "id": "5BBF1686ED000021", "Name": "PT_bbr43", "descriptio": "<table><tbody><tr style=\"background-color: rgb(221, 221, 255);\"><td>ID<br></td><td>PT_bb43<br></td></tr><tr><td>Latitude<br></td><td>-12.0704206<br></td></tr><tr style=\"background-color: rgb(221, 221, 255);\"><td>Longitude<br></td><td>-77.0794852<br></td>", "timestamp": null, "begin": null, "end": null, "altitudeMo": null, "tessellate": -1, "extrude": 0, "visibility": -1, "drawOrder": null, "icon": null, "COL5BBEBE8": null, "COL5BBEB_1": null, "COL5BBEB_2": null, "COL5BBEB_3": null, "COL5BBEB_4": null, "COL5BBEB_5": null, "COL5BBEB_6": null, "COL5BBEB_7": null, "COL5BBEB_8": null, "COL5BBEB_9": null, "COL5BBEB10": null, "COL5BBEB11": null, "COL5BBEB12": null, "COL5BBF168": "PT_bb43", "COL5BBF1_1": "-12.0704206", "COL5BBF1_2": "-77.0794852", "COL5BBF1_3": "Comedor de Arte Antiguo", "COL5BBF1_4": "operativo", "COL5BBF1_5": "CAMPUS", "COL5BBEB13": null, "COL5BBF1C0": null }, "geometry": { "type": "Point", "coordinates": [ -77.079532172807319, -12.070440987986521, 0.0 ] } }
]
}
