{
"type": "FeatureCollection",
"name": "xerofitica",
"crs": { "type": "name", "properties": { "name": "urn:ogc:def:crs:OGC:1.3:CRS84" } },
"features": [
{ "type": "Feature", "properties": { "Nombre": null, "Perimetro": 71.025, "Área": 180.71, "Riego act": "Sin riego tecnificado", "Referenc_1": null, "Class": "Ornato", "layer": "Areas Verdes Class", "path": "Areas Verdes Class.shp" }, "geometry": { "type": "MultiPolygon", "coordinates": [ [ [ [ -77.079172154939499, -12.067931705964067, 0.0 ], [ -77.079174895273127, -12.067813705502321, 0.0 ], [ -77.079152403108168, -12.067813221125647, 0.0 ], [ -77.079152893380538, -12.067792109799074, 0.0 ], [ -77.079111392481366, -12.067790966871829, 0.0 ], [ -77.079110010449128, -12.067843096157413, 0.0 ], [ -77.079023743986255, -12.06797906418822, 0.0 ], [ -77.079025608131388, -12.067995955553929, 0.0 ], [ -77.079094017566561, -12.067997755122011, 0.0 ], [ -77.07909499956439, -12.067955470119671, 0.0 ], [ -77.079105464869357, -12.067955714579986, 0.0 ], [ -77.07910605548615, -12.06793028248863, 0.0 ], [ -77.079172154939499, -12.067931705964067, 0.0 ] ] ] ] } },
{ "type": "Feature", "properties": { "Nombre": null, "Perimetro": 87.933, "Área": 124.282, "Riego act": "Sin riego tecnificado", "Referenc_1": null, "Class": "Ornato", "layer": "Areas Verdes Class", "path": "Areas Verdes Class.shp" }, "geometry": { "type": "MultiPolygon", "coordinates": [ [ [ [ -77.078893410652853, -12.068588490590969, 0.0 ], [ -77.078905939095236, -12.068564638473566, 0.0 ], [ -77.078928804910788, -12.068521105668127, 0.0 ], [ -77.078921846984954, -12.068522237722439, 0.0 ], [ -77.078918585479869, -12.068522768369165, 0.0 ], [ -77.078918585479798, -12.068522768368792, 0.0 ], [ -77.078873186032467, -12.068530154852295, 0.0 ], [ -77.078845930712703, -12.06858262026789, 0.0 ], [ -77.078845977430362, -12.068588678602541, 0.0 ], [ -77.07889341058474, -12.068588490720627, 0.0 ], [ -77.078893410652853, -12.068588490590969, 0.0 ], [ -77.078893410652853, -12.068588490590969, 0.0 ] ] ], [ [ [ -77.078946889844886, -12.068518163248843, 0.0 ], [ -77.078909984579866, -12.068588424895104, 0.0 ], [ -77.078913186871105, -12.068588412210389, 0.0 ], [ -77.078913186871816, -12.068588412384702, 0.0 ], [ -77.078984262180569, -12.068588130836446, 0.0 ], [ -77.079016506815549, -12.068506836555763, 0.0 ], [ -77.078946889844886, -12.068518163248843, 0.0 ] ] ], [ [ [ -77.079007659658402, -12.068578594168523, 0.0 ], [ -77.079013506101063, -12.068562106064881, 0.0 ], [ -77.079012621784628, -12.068561564190395, 0.0 ], [ -77.079021054248813, -12.068544819120422, 0.0 ], [ -77.079051453996428, -12.068501150636681, 0.0 ], [ -77.079033366985598, -12.068504093400511, 0.0 ], [ -77.079016506815549, -12.068506836555763, 0.0 ], [ -77.078984262180555, -12.068588130836478, 0.0 ], [ -77.078999319863954, -12.06858807118665, 0.0 ], [ -77.079000059130195, -12.068588068258084, 0.0 ], [ -77.079000059130209, -12.068588068258052, 0.0 ], [ -77.079005667023011, -12.068588046042603, 0.0 ], [ -77.079007659658402, -12.068578594168523, 0.0 ] ] ] ] } },
{ "type": "Feature", "properties": { "Nombre": null, "Perimetro": 62.347, "Área": 75.601, "Riego act": "Sin riego tecnificado", "Referenc_1": null, "Class": "Ornato", "layer": "Areas Verdes Class", "path": "Areas Verdes Class.shp" }, "geometry": { "type": "MultiPolygon", "coordinates": [ [ [ [ -77.078219167259959, -12.068626188058953, 0.0 ], [ -77.078219561732467, -12.068626481890727, 0.0 ], [ -77.078222683891838, -12.068628696763756, 0.0 ], [ -77.078226847791939, -12.068631846203971, 0.0 ], [ -77.078227883086797, -12.068632680239705, 0.0 ], [ -77.078228264999368, -12.06863296471591, 0.0 ], [ -77.078228746340173, -12.068633375678445, 0.0 ], [ -77.078230911512918, -12.068635119946142, 0.0 ], [ -77.078234871225462, -12.06863851489657, 0.0 ], [ -77.078236419677921, -12.068639927074443, 0.0 ], [ -77.07823688355441, -12.068640323126141, 0.0 ], [ -77.078237304713127, -12.068640734220383, 0.0 ], [ -77.078238723198723, -12.068642027869348, 0.0 ], [ -77.078238529061409, -12.068641929310282, 0.0 ], [ -77.078238683981127, -12.068642080527869, 0.0 ], [ -77.078238723198737, -12.068642027869346, 0.0 ], [ -77.078241629975182, -12.068644827432539, 0.0 ], [ -77.078244468312803, -12.068647694216182, 0.0 ], [ -77.078244858059094, -12.068648107062963, 0.0 ], [ -77.078244984590796, -12.068648230570911, 0.0 ], [ -77.078245170826364, -12.068648438368147, 0.0 ], [ -77.078247236607282, -12.068650626589108, 0.0 ], [ -77.078249933294288, -12.06865362290165, 0.0 ], [ -77.078252518043897, -12.068656636218572, 0.0 ], [ -77.078252532075837, -12.068656651875058, 0.0 ], [ -77.078252538314118, -12.068656659849696, 0.0 ], [ -77.078252556849691, -12.068656681458592, 0.0 ], [ -77.078255105790802, -12.068659800532091, 0.0 ], [ -77.078257578677182, -12.068662978357496, 0.0 ], [ -77.078257379527173, -12.068662848565047, 0.0 ], [ -77.078257523030729, -12.068663032011324, 0.0 ], [ -77.078257578677196, -12.068662978357512, 0.0 ], [ -77.078259261259632, -12.068665254058423, 0.0 ], [ -77.078259492439372, -12.068665549584665, 0.0 ], [ -77.078259636168752, -12.068665761124839, 0.0 ], [ -77.078260121106695, -12.068666417005748, 0.0 ], [ -77.078262574486388, -12.068669917743785, 0.0 ], [ -77.078264937251106, -12.068673478350771, 0.0 ], [ -77.078265634826678, -12.068674589917865, 0.0 ], [ -77.078265834722345, -12.068674884123226, 0.0 ], [ -77.078266046741973, -12.068675246293285, 0.0 ], [ -77.078267207893759, -12.068677096556005, 0.0 ], [ -77.078269384965722, -12.068680770047431, 0.0 ], [ -77.078271467078139, -12.068684496480259, 0.0 ], [ -77.078271512403347, -12.068684582687837, 0.0 ], [ -77.078271530714815, -12.068684613967323, 0.0 ], [ -77.078271564633482, -12.068684682028351, 0.0 ], [ -77.07827345290255, -12.0686882734748, 0.0 ], [ -77.078273264553644, -12.068688093082841, 0.0 ], [ -77.07827338106695, -12.068688326878057, 0.0 ], [ -77.07827345290255, -12.0686882734748, 0.0 ], [ -77.078275329102667, -12.068692073374502, 0.0 ], [ -77.078276376567743, -12.068694337640252, 0.0 ], [ -77.078276555081857, -12.068694695846073, 0.0 ], [ -77.07827667166363, -12.068694975537888, 0.0 ], [ -77.07827710784295, -12.068695918410253, 0.0 ], [ -77.078278788003331, -12.0686998061576, 0.0 ], [ -77.078280368526038, -12.06870373417013, 0.0 ], [ -77.078280762280755, -12.068704789353571, 0.0 ], [ -77.078280885475493, -12.068705084910524, 0.0 ], [ -77.078281016206716, -12.068705469824017, 0.0 ], [ -77.078281848415969, -12.06870769997726, 0.0 ], [ -77.078283226741291, -12.068711701075609, 0.0 ], [ -77.078284502634489, -12.068715734954129, 0.0 ], [ -77.078278091775687, -12.068719265339475, 0.0 ], [ -77.078290462669543, -12.068741943759587, 0.0 ], [ -77.078299447846831, -12.068738746983225, 0.0 ], [ -77.078302040721397, -12.068745999132094, 0.0 ], [ -77.078304396408427, -12.068753329256836, 0.0 ], [ -77.078306512493782, -12.068760729831292, 0.0 ], [ -77.078308386808729, -12.068768193276007, 0.0 ], [ -77.0783100174325, -12.068775711947168, 0.0 ], [ -77.078311402693799, -12.068783278128018, 0.0 ], [ -77.078312541173347, -12.068790884080586, 0.0 ], [ -77.078377858130722, -12.068785709763297, 0.0 ], [ -77.078285011943777, -12.068661786819691, 0.0 ], [ -77.078275194406459, -12.068668689351686, 0.0 ], [ -77.078268292253554, -12.068659239357789, 0.0 ], [ -77.078263796222188, -12.068662555571334, 0.0 ], [ -77.078250172521933, -12.068644371834816, 0.0 ], [ -77.07821862379987, -12.068602288725872, 0.0 ], [ -77.078209630802078, -12.068620023312679, 0.0 ], [ -77.078214071339119, -12.068622782529163, 0.0 ], [ -77.078218423736203, -12.068625674591363, 0.0 ], [ -77.078218945050182, -12.068626044413692, 0.0 ], [ -77.078219167259959, -12.068626188058953, 0.0 ] ] ] ] } },
{ "type": "Feature", "properties": { "Nombre": null, "Perimetro": 297.64, "Área": 405.768, "Riego act": "Sin riego tecnificado", "Referenc_1": null, "Class": "Ornato", "layer": "Areas Verdes Class", "path": "Areas Verdes Class.shp" }, "geometry": { "type": "MultiPolygon", "coordinates": [ [ [ [ -77.078033923829125, -12.068393699385478, 0.0 ], [ -77.078027885529877, -12.068389286782198, 0.0 ], [ -77.078026492076219, -12.068341909357382, 0.0 ], [ -77.078027885529877, -12.068340283661428, 0.0 ], [ -77.078031601406337, -12.068340515903705, 0.0 ], [ -77.078057846002906, -12.068339123334718, 0.0 ], [ -77.078088268522293, -12.068335638815853, 0.0 ], [ -77.078090230928552, -12.068337497937604, 0.0 ], [ -77.078090243640034, -12.068337509980063, 0.0 ], [ -77.078092681125582, -12.06833981917687, 0.0 ], [ -77.078094306821527, -12.068347483172067, 0.0 ], [ -77.078095235790641, -12.068361649951051, 0.0 ], [ -77.078098951667101, -12.068388357813079, 0.0 ], [ -77.078097093728871, -12.068398808715608, 0.0 ], [ -77.078095245056815, -12.068400010352462, 0.0 ], [ -77.078096134719061, -12.068411128040241, 0.0 ], [ -77.078096623763741, -12.068417426083265, 0.0 ], [ -77.078099764515073, -12.068421800701183, 0.0 ], [ -77.078101742913034, -12.068426489233685, 0.0 ], [ -77.078102389088741, -12.068426442345601, 0.0 ], [ -77.078104104228998, -12.068428929578957, 0.0 ], [ -77.078105632325133, -12.068431532260179, 0.0 ], [ -77.078106965391697, -12.068434236781066, 0.0 ], [ -77.078108096463069, -12.068437029021517, 0.0 ], [ -77.078109019628556, -12.068439894385982, 0.0 ], [ -77.078109730064298, -12.068442817897997, 0.0 ], [ -77.078110224057994, -12.068445784283085, 0.0 ], [ -77.078110518293741, -12.068448600076014, 0.0 ], [ -77.078110614068706, -12.068451429147377, 0.0 ], [ -77.078110510924333, -12.068454257967282, 0.0 ], [ -77.078110209354691, -12.068457073010661, 0.0 ], [ -77.078109710801783, -12.068459860801418, 0.0 ], [ -77.078109017650746, -12.068462608005097, 0.0 ], [ -77.078108628314183, -12.068463793704389, 0.0 ], [ -77.078146445213051, -12.068462443099898, 0.0 ], [ -77.078158499007429, -12.068487239477991, 0.0 ], [ -77.078161173166535, -12.068487269223583, 0.0 ], [ -77.078164743554225, -12.068494013288502, 0.0 ], [ -77.078155657595644, -12.068550943403777, 0.0 ], [ -77.078199702643431, -12.068564900518174, 0.0 ], [ -77.078211057662926, -12.068531356065417, 0.0 ], [ -77.078210351000294, -12.068530301337086, 0.0 ], [ -77.07820964809585, -12.068529244186392, 0.0 ], [ -77.078208948958064, -12.068528184611431, 0.0 ], [ -77.078208253595463, -12.068527122640157, 0.0 ], [ -77.078207562016857, -12.068526058276808, 0.0 ], [ -77.078206874230361, -12.068524991527788, 0.0 ], [ -77.078206190244757, -12.06852392242425, 0.0 ], [ -77.078203460239266, -12.068519996419019, 0.0 ], [ -77.078200752032018, -12.068516055819179, 0.0 ], [ -77.078198065703404, -12.068512100735143, 0.0 ], [ -77.078195401333346, -12.068508131289137, 0.0 ], [ -77.078192759001325, -12.068504147605539, 0.0 ], [ -77.078190138785644, -12.068500149793669, 0.0 ], [ -77.078187540764503, -12.068496137976151, 0.0 ], [ -77.078180567278352, -12.068485558881775, 0.0 ], [ -77.078173758298718, -12.068474876497127, 0.0 ], [ -77.078167115404781, -12.068464093290213, 0.0 ], [ -77.078160640137227, -12.0684532117685, 0.0 ], [ -77.0781543339981, -12.06844223445483, 0.0 ], [ -77.07814819844991, -12.068431163887423, 0.0 ], [ -77.078142234915788, -12.068420002647091, 0.0 ], [ -77.078138193239866, -12.068412583758672, 0.0 ], [ -77.078134233638423, -12.068405122123755, 0.0 ], [ -77.078130356578285, -12.068397618616654, 0.0 ], [ -77.078126562516204, -12.068390074128203, 0.0 ], [ -77.078122851899664, -12.068382489547153, 0.0 ], [ -77.078119225165707, -12.068374865760173, 0.0 ], [ -77.078115682742038, -12.068367203674796, 0.0 ], [ -77.078113251143833, -12.068361768563467, 0.0 ], [ -77.078110836364289, -12.068356326191239, 0.0 ], [ -77.078108438425886, -12.068350876608262, 0.0 ], [ -77.078106057350936, -12.06834541987252, 0.0 ], [ -77.078103693161722, -12.068339956031249, 0.0 ], [ -77.078101345879688, -12.068334485133889, 0.0 ], [ -77.078099015526618, -12.068329007223825, 0.0 ], [ -77.078093282907247, -12.068314666260235, 0.0 ], [ -77.078087805754393, -12.068300228910113, 0.0 ], [ -77.078082585739892, -12.068285699573559, 0.0 ], [ -77.078077624457634, -12.068271082692668, 0.0 ], [ -77.078072923421985, -12.068256382729508, 0.0 ], [ -77.078068484068424, -12.06824160416614, 0.0 ], [ -77.078064307752129, -12.068226751520934, 0.0 ], [ -77.078062418181474, -12.068219901225431, 0.0 ], [ -77.078060579515665, -12.068213037533924, 0.0 ], [ -77.078058791852726, -12.068206160795672, 0.0 ], [ -77.078057055287999, -12.068199271387051, 0.0 ], [ -77.078055369914438, -12.068192369677995, 0.0 ], [ -77.078053735821953, -12.068185456031994, 0.0 ], [ -77.07805215309763, -12.068178530822211, 0.0 ], [ -77.078049589878006, -12.068166795435792, 0.0 ], [ -77.078047174324524, -12.068155029752434, 0.0 ], [ -77.078044906806568, -12.068143235563301, 0.0 ], [ -77.078042787671095, -12.06813141467369, 0.0 ], [ -77.078040817242311, -12.068119568899833, 0.0 ], [ -77.078038995821217, -12.068107700038745, 0.0 ], [ -77.078037323686942, -12.068095809921846, 0.0 ], [ -77.078036388408236, -12.068088024719376, 0.0 ], [ -77.078035502260917, -12.068080233950292, 0.0 ], [ -77.07803466527929, -12.068072437918405, 0.0 ], [ -77.078033877495429, -12.068064636918679, 0.0 ], [ -77.078033138939801, -12.068056831261188, 0.0 ], [ -77.078032449640773, -12.068049021236607, 0.0 ], [ -77.078031809625088, -12.068041207153069, 0.0 ], [ -77.078031135569219, -12.068032625982394, 0.0 ], [ -77.078030556175477, -12.068024038116931, 0.0 ], [ -77.078030071512103, -12.068015444566585, 0.0 ], [ -77.078029681635897, -12.068006846350158, 0.0 ], [ -77.078029386592988, -12.067998244475755, 0.0 ], [ -77.078029186418021, -12.067989639949403, 0.0 ], [ -77.07802908113473, -12.067981033801022, 0.0 ], [ -77.078029045999912, -12.067975622354108, 0.0 ], [ -77.078029013765985, -12.067970210894263, 0.0 ], [ -77.078028984432606, -12.06796479941706, 0.0 ], [ -77.078028957999919, -12.067959387924665, 0.0 ], [ -77.078028934467966, -12.067953976421384, 0.0 ], [ -77.078028913836576, -12.067948564900755, 0.0 ], [ -77.078028896106161, -12.067943153377991, 0.0 ], [ -77.078029509290388, -12.067905497100149, 0.0 ], [ -77.07802968060156, -12.067894716709104, 0.0 ], [ -77.078029866163874, -12.067883936546286, 0.0 ], [ -77.078030065976961, -12.06787315663045, 0.0 ], [ -77.078030280040466, -12.067862376976681, 0.0 ], [ -77.078030508354104, -12.067851597615153, 0.0 ], [ -77.078030750917478, -12.067840818543711, 0.0 ], [ -77.078031007730161, -12.067830039800876, 0.0 ], [ -77.07803115502962, -12.067817814166352, 0.0 ], [ -77.078031347257593, -12.067805589144218, 0.0 ], [ -77.078031584411477, -12.06779336488129, 0.0 ], [ -77.07803186648799, -12.067781141539205, 0.0 ], [ -77.078032193483551, -12.067768919290375, 0.0 ], [ -77.078032565394039, -12.067756698279197, 0.0 ], [ -77.078032982214339, -12.067744478673488, 0.0 ], [ -77.078034902503518, -12.067680430637989, 0.0 ], [ -77.078041499078438, -12.067513558721725, 0.0 ], [ -77.078042766155775, -12.067484835086326, 0.0 ], [ -77.078040200224791, -12.06747129375999, 0.0 ], [ -77.078040199243418, -12.067471193122477, 0.0 ], [ -77.078040191548837, -12.067471092764166, 0.0 ], [ -77.078040177174273, -12.067470993123717, 0.0 ], [ -77.078040156181515, -12.067470894625158, 0.0 ], [ -77.078040128661456, -12.067470797696624, 0.0 ], [ -77.078040094732799, -12.067470702755253, 0.0 ], [ -77.078040054542143, -12.067470610213679, 0.0 ], [ -77.078040008262846, -12.067470520467081, 0.0 ], [ -77.078039956094855, -12.067470433906143, 0.0 ], [ -77.078039898263469, -12.067470350908431, 0.0 ], [ -77.078039835018458, -12.067470271821154, 0.0 ], [ -77.078039766632685, -12.06747019699997, 0.0 ], [ -77.078039693401522, -12.067470126757284, 0.0 ], [ -77.078039615641359, -12.067470061396699, 0.0 ], [ -77.078039533687615, -12.067470001208777, 0.0 ], [ -77.078039447894469, -12.067469946445135, 0.0 ], [ -77.078039358632225, -12.067469897344344, 0.0 ], [ -77.07803926628641, -12.067469854123319, 0.0 ], [ -77.078039171255497, -12.067469816960084, 0.0 ], [ -77.078039073950151, -12.06746978601965, 0.0 ], [ -77.078038974790331, -12.067469761443251, 0.0 ], [ -77.078038874204339, -12.067469743320348, 0.0 ], [ -77.078038772626357, -12.067469731743708, 0.0 ], [ -77.078026565152868, -12.067469408058514, 0.0 ], [ -77.078024739044764, -12.067514500965604, 0.0 ], [ -77.078018070705767, -12.067686592835917, 0.0 ], [ -77.078014089000078, -12.067802197522266, 0.0 ], [ -77.078013838082796, -12.06785292405428, 0.0 ], [ -77.078012662614213, -12.067905546111108, 0.0 ], [ -77.078012623985671, -12.067911761683764, 0.0 ], [ -77.078011957124957, -12.068019064322666, 0.0 ], [ -77.078011052944348, -12.06815717403455, 0.0 ], [ -77.078010913107221, -12.068307996589439, 0.0 ], [ -77.078011686148955, -12.068349367548436, 0.0 ], [ -77.078012929426393, -12.068408645160893, 0.0 ], [ -77.078014534847355, -12.068472962567714, 0.0 ], [ -77.07802904674125, -12.068474519698377, 0.0 ], [ -77.078025330864804, -12.068435967480156, 0.0 ], [ -77.078027706896165, -12.068428599084985, 0.0 ], [ -77.078042749035703, -12.068418781551557, 0.0 ], [ -77.078044839216204, -12.068402524592056, 0.0 ], [ -77.078033923829125, -12.068393699385478, 0.0 ] ] ] ] } },
{ "type": "Feature", "properties": { "Nombre": null, "Perimetro": 108.565, "Área": 126.956, "Riego act": "Sin riego tecnificado", "Referenc_1": null, "Class": "Ornato", "layer": "Areas Verdes Class", "path": "Areas Verdes Class.shp" }, "geometry": { "type": "MultiPolygon", "coordinates": [ [ [ [ -77.079509565326887, -12.071317158002417, 0.0 ], [ -77.079174766391489, -12.07136441939465, 0.0 ], [ -77.079171584971888, -12.071364868493038, 0.0 ], [ -77.079157820906445, -12.071271003674667, 0.0 ], [ -77.079161002628041, -12.071270556643233, 0.0 ], [ -77.079161184440721, -12.071270531098577, 0.0 ], [ -77.079157750031797, -12.071247109939332, 0.0 ], [ -77.079140065564388, -12.071249795369711, 0.0 ], [ -77.079166517026422, -12.071370234711916, 0.0 ], [ -77.079167680882605, -12.071369987118626, 0.0 ], [ -77.079170524279391, -12.071380801230418, 0.0 ], [ -77.079185675241561, -12.071389918330938, 0.0 ], [ -77.079513270852289, -12.071344114198213, 0.0 ], [ -77.079509565326887, -12.071317158002417, 0.0 ] ] ] ] } },
{ "type": "Feature", "properties": { "Nombre": null, "Perimetro": 209.649, "Área": 663.335, "Riego act": "Sin riego tecnificado", "Referenc_1": null, "Class": "Ornato", "layer": "Areas Verdes Class", "path": "Areas Verdes Class.shp" }, "geometry": { "type": "MultiPolygon", "coordinates": [ [ [ [ -77.07861375067705, -12.072455710163876, 0.0 ], [ -77.078663571366164, -12.072449090754343, 0.0 ], [ -77.078603371321719, -12.072179196678071, 0.0 ], [ -77.078533787497278, -12.071868332418475, 0.0 ], [ -77.078528583396647, -12.071844093824184, 0.0 ], [ -77.078522947403997, -12.071844730164944, 0.0 ], [ -77.078523040650055, -12.071845313784715, 0.0 ], [ -77.078501967717017, -12.071847817389116, 0.0 ], [ -77.0785078594228, -12.071884806996026, 0.0 ], [ -77.078509778637681, -12.071897399511744, 0.0 ], [ -77.07851200290321, -12.071913373094816, 0.0 ], [ -77.078516188467944, -12.071947873831942, 0.0 ], [ -77.078518143595318, -12.07196434912866, 0.0 ], [ -77.078519585649687, -12.071979100975989, 0.0 ], [ -77.078523137160659, -12.072016593647955, 0.0 ], [ -77.078525639998816, -12.072047113358144, 0.0 ], [ -77.078528117380969, -12.072082176143464, 0.0 ], [ -77.078530296176268, -12.072117416782996, 0.0 ], [ -77.078532093943963, -12.072151195060094, 0.0 ], [ -77.078533744878015, -12.072189090064867, 0.0 ], [ -77.078535077767228, -12.072214856770973, 0.0 ], [ -77.078536505060001, -12.072257437443145, 0.0 ], [ -77.078538581439219, -12.072331623080448, 0.0 ], [ -77.078539603265824, -12.072367018938827, 0.0 ], [ -77.078540743940238, -12.072400190771672, 0.0 ], [ -77.07861375067705, -12.072455710163876, 0.0 ] ] ] ] } },
{ "type": "Feature", "properties": { "Nombre": null, "Perimetro": 96.367, "Área": 118.326, "Riego act": "Sin riego tecnificado", "Referenc_1": null, "Class": "Ornato", "layer": "Areas Verdes Class", "path": "Areas Verdes Class.shp" }, "geometry": { "type": "MultiPolygon", "coordinates": [ [ [ [ -77.079166517026422, -12.071370234711916, 0.0 ], [ -77.079167680882605, -12.071369987118626, 0.0 ], [ -77.079170524279391, -12.071380801230418, 0.0 ], [ -77.079185675241561, -12.071389918330938, 0.0 ], [ -77.079513270852289, -12.071344114198213, 0.0 ], [ -77.079509565326887, -12.071317158002417, 0.0 ], [ -77.079174766391489, -12.07136441939465, 0.0 ], [ -77.079171584971888, -12.071364868493038, 0.0 ], [ -77.079161652595502, -12.071297134104283, 0.0 ], [ -77.07915080523334, -12.071298695470464, 0.0 ], [ -77.079166517026422, -12.071370234711916, 0.0 ] ] ] ] } },
{ "type": "Feature", "properties": { "Nombre": null, "Perimetro": 164.538, "Área": 381.311, "Riego act": "Riego por goteo", "Referenc_1": null, "Class": "Ornato", "layer": "Areas Verdes Class", "path": "Areas Verdes Class.shp" }, "geometry": { "type": "MultiPolygon", "coordinates": [ [ [ [ -77.080259234452427, -12.072366172508501, 0.0 ], [ -77.080265515199656, -12.072364825899236, 0.0 ], [ -77.080280407508056, -12.072433779593432, 0.0 ], [ -77.08032078374741, -12.072425122812675, 0.0 ], [ -77.080305815059063, -12.072355815513559, 0.0 ], [ -77.080312095805681, -12.072354468903303, 0.0 ], [ -77.080327064495435, -12.07242377620185, 0.0 ], [ -77.080367530455661, -12.072415100177492, 0.0 ], [ -77.080352638127607, -12.072346146491363, 0.0 ], [ -77.080359008598506, -12.072344780642824, 0.0 ], [ -77.080373900928024, -12.07241373432837, 0.0 ], [ -77.080554696691038, -12.072374971089038, 0.0 ], [ -77.080551813680074, -12.072361622366167, 0.0 ], [ -77.080535510101839, -12.072364810931646, 0.0 ], [ -77.080514816379051, -12.072357350330046, 0.0 ], [ -77.080369464316078, -12.072298620423537, 0.0 ], [ -77.080318883351211, -12.072309393032649, 0.0 ], [ -77.080179750066932, -12.07233902524615, 0.0 ], [ -77.080182820244545, -12.072350558288562, 0.0 ], [ -77.080173213229315, -12.072352981810315, 0.0 ], [ -77.080170047963477, -12.072341091569957, 0.0 ], [ -77.080162895487874, -12.072342614881743, 0.0 ], [ -77.080186914069074, -12.072453824829324, 0.0 ], [ -77.080227290316643, -12.072445168061176, 0.0 ], [ -77.080211834773621, -12.072376335123554, 0.0 ], [ -77.080218294917927, -12.072374950052223, 0.0 ], [ -77.080233750462412, -12.072443782989232, 0.0 ], [ -77.080274126759377, -12.072435126203294, 0.0 ], [ -77.080259234452427, -12.072366172508501, 0.0 ] ] ] ] } },
{ "type": "Feature", "properties": { "Nombre": null, "Perimetro": 58.807, "Área": 78.785, "Riego act": "Sin riego tecnificado", "Referenc_1": "av rivaguero y av urubamba", "Class": "Ornato", "layer": "Areas Verdes Class", "path": "Areas Verdes Class.shp" }, "geometry": { "type": "MultiPolygon", "coordinates": [ [ [ [ -77.083125415565604, -12.073035796242207, 0.0 ], [ -77.083126324437899, -12.073031908316519, 0.0 ], [ -77.083125712543506, -12.073025629179238, 0.0 ], [ -77.083124797182336, -12.073021299734148, 0.0 ], [ -77.083122522887209, -12.07301375852939, 0.0 ], [ -77.083092088559141, -12.072913083423737, 0.0 ], [ -77.083076335900998, -12.072918360061202, 0.0 ], [ -77.083080737585462, -12.072931442548455, 0.0 ], [ -77.083082184013733, -12.072936493057755, 0.0 ], [ -77.083083416657146, -12.072941598201975, 0.0 ], [ -77.083084433399932, -12.072946749204881, 0.0 ], [ -77.083085232497396, -12.072951937234118, 0.0 ], [ -77.083085812578162, -12.072957153387742, 0.0 ], [ -77.083086172646418, -12.072962388707122, 0.0 ], [ -77.08308631208439, -12.072967634217926, 0.0 ], [ -77.083086019720483, -12.072972392126086, 0.0 ], [ -77.083085559016922, -12.072977137114041, 0.0 ], [ -77.083084930533389, -12.072981863409161, 0.0 ], [ -77.083084135033985, -12.07298656527184, 0.0 ], [ -77.083083173485491, -12.072991236993252, 0.0 ], [ -77.083082047056593, -12.072995872878153, 0.0 ], [ -77.083080757116477, -12.073000467307592, 0.0 ], [ -77.083079148436482, -12.073005114355608, 0.0 ], [ -77.083077338576658, -12.073009689175342, 0.0 ], [ -77.083075330872731, -12.073014183318513, 0.0 ], [ -77.083073129024925, -12.073018588511038, 0.0 ], [ -77.083070737091361, -12.073022896637744, 0.0 ], [ -77.083068159480703, -12.07302709974676, 0.0 ], [ -77.083065400943795, -12.073031190105533, 0.0 ], [ -77.083063443471417, -12.073033896287923, 0.0 ], [ -77.083061410154428, -12.073036547746183, 0.0 ], [ -77.083059302571101, -12.073039142421505, 0.0 ], [ -77.083057122358099, -12.073041678304119, 0.0 ], [ -77.083054871207864, -12.073044153429096, 0.0 ], [ -77.083052550867663, -12.073046565867788, 0.0 ], [ -77.083050163138637, -12.073048913743868, 0.0 ], [ -77.083047652328148, -12.073051198283446, 0.0 ], [ -77.083045068419381, -12.073053402456825, 0.0 ], [ -77.083042414066611, -12.073055523999924, 0.0 ], [ -77.083039691996618, -12.073057560739661, 0.0 ], [ -77.083036905005869, -12.073059510586495, 0.0 ], [ -77.083034055956887, -12.073061371525842, 0.0 ], [ -77.083031147776154, -12.073063141649893, 0.0 ], [ -77.083028416064352, -12.073064764039774, 0.0 ], [ -77.08302563820628, -12.07306630866567, 0.0 ], [ -77.08302281648615, -12.073067774263304, 0.0 ], [ -77.083019953225133, -12.073069159627973, 0.0 ], [ -77.083017050777883, -12.073070463617254, 0.0 ], [ -77.083014111531341, -12.073071685159604, 0.0 ], [ -77.083011137902631, -12.073072823243264, 0.0 ], [ -77.082984110108313, -12.073081874323584, 0.0 ], [ -77.082978287292306, -12.073084580173761, 0.0 ], [ -77.082984006234923, -12.073095626272245, 0.0 ], [ -77.083021755654286, -12.073084069905667, 0.0 ], [ -77.083043107660259, -12.073076887057939, 0.0 ], [ -77.083061278927318, -12.073071206546148, 0.0 ], [ -77.083094504609136, -12.073057466258192, 0.0 ], [ -77.08311069281325, -12.073050322069513, 0.0 ], [ -77.08311816664812, -12.073045460912279, 0.0 ], [ -77.08312077263318, -12.073042484355716, 0.0 ], [ -77.083123380046757, -12.073039692603706, 0.0 ], [ -77.083125415565604, -12.073035796242207, 0.0 ] ] ] ] } },
{ "type": "Feature", "properties": { "Nombre": null, "Perimetro": 406.199, "Área": 1596.958, "Riego act": "Sin riego tecnificado", "Referenc_1": null, "Class": "Ornato", "layer": "Areas Verdes Class", "path": "Areas Verdes Class.shp" }, "geometry": { "type": "MultiPolygon", "coordinates": [ [ [ [ -77.078533790879305, -12.067055998450128, 0.0 ], [ -77.078574206533972, -12.06705134409038, 0.0 ], [ -77.078573613028823, -12.06705133657734, 0.0 ], [ -77.078575116401922, -12.066936297232109, 0.0 ], [ -77.078548488942445, -12.066935960158075, 0.0 ], [ -77.078550471814651, -12.066784231120463, 0.0 ], [ -77.07853666805542, -12.066783821917873, 0.0 ], [ -77.078536306840192, -12.066795625063037, 0.0 ], [ -77.078536207202404, -12.06679629575304, 0.0 ], [ -77.078535888196583, -12.066812548338385, 0.0 ], [ -77.078535688620363, -12.066835579276187, 0.0 ], [ -77.0785353419475, -12.066858608459091, 0.0 ], [ -77.078534955779148, -12.066889768400538, 0.0 ], [ -77.078534558151972, -12.06692363617138, 0.0 ], [ -77.07853421820613, -12.066956150420797, 0.0 ], [ -77.078533952358768, -12.066984601126235, 0.0 ], [ -77.078533560621764, -12.067015760193854, 0.0 ], [ -77.078533408944921, -12.067037436640701, 0.0 ], [ -77.078533657598115, -12.067053690916024, 0.0 ], [ -77.078533790879305, -12.067055998450128, 0.0 ] ] ] ] } }
]
}
